<?xml version="1.0" encoding="utf-8"?>
<gpx xmlns:xsi="http://www.w3.org/2001/XMLSchema-instance" xsi:schemaLocation="http://www.topografix.com/GPX/1/1 http://www.topografix.com/GPX/1/1/gpx.xsd" version="1.1" creator="Roparun" xmlns="http://www.topografix.com/GPX/1/1">
  <wpt lat="49.759001" lon="3.223914">
    <name>KM 0.0</name>
  </wpt>
  <wpt lat="49.751147121053727" lon="3.2301681115970688">
    <name>1.0</name>
  </wpt>
  <wpt lat="49.745518816765674" lon="3.2345551773153369">
    <name>2.0</name>
  </wpt>
  <wpt lat="49.742568555354737" lon="3.2454593809840757">
    <name>3.0</name>
  </wpt>
  <wpt lat="49.741211370817808" lon="3.2532100823448884">
    <name>4.0</name>
  </wpt>
  <wpt lat="49.748158979131638" lon="3.2618999140474507">
    <name>5.0</name>
  </wpt>
  <wpt lat="49.756031005152792" lon="3.2684427522606687">
    <name>6.0</name>
  </wpt>
  <wpt lat="49.764281631607176" lon="3.2733362907378218">
    <name>7.0</name>
  </wpt>
  <wpt lat="49.7718540526516" lon="3.2755710109123233">
    <name>8.0</name>
  </wpt>
  <wpt lat="49.777980183220755" lon="3.2823400310947211">
    <name>9.0</name>
  </wpt>
  <wpt lat="49.782726726319" lon="3.2933234651208396">
    <name>10.0</name>
  </wpt>
  <wpt lat="49.788079818432337" lon="3.3045131644717305">
    <name>11.0</name>
  </wpt>
  <wpt lat="49.793785684779721" lon="3.3147416312001">
    <name>12.0</name>
  </wpt>
  <wpt lat="49.800510475178719" lon="3.3236087972339829">
    <name>13.0</name>
  </wpt>
  <wpt lat="49.807130512313684" lon="3.332559511838892">
    <name>14.0</name>
  </wpt>
  <wpt lat="49.810593127761322" lon="3.3398684726696946">
    <name>15.0</name>
  </wpt>
  <wpt lat="49.818908175650506" lon="3.3351740533807983">
    <name>16.0</name>
  </wpt>
  <wpt lat="49.825044898249992" lon="3.3306378222388244">
    <name>17.0</name>
  </wpt>
  <wpt lat="49.826090456096473" lon="3.3442123959320966">
    <name>18.0</name>
  </wpt>
  <wpt lat="49.829685486065081" lon="3.355821024376417">
    <name>19.0</name>
  </wpt>
  <wpt lat="49.837096981422945" lon="3.3597897242505184">
    <name>20.0</name>
  </wpt>
  <wpt lat="49.845690245414772" lon="3.3625686765734657">
    <name>21.0</name>
  </wpt>
  <wpt lat="49.849261732652941" lon="3.3673648969737244">
    <name>22.0</name>
  </wpt>
  <wpt lat="49.854624642632032" lon="3.3677072587574721">
    <name>23.0</name>
  </wpt>
  <wpt lat="49.863295938795147" lon="3.3669257714930252">
    <name>24.0</name>
  </wpt>
  <wpt lat="49.871927470631213" lon="3.37009607378054">
    <name>25.0</name>
  </wpt>
  <wpt lat="49.880278587033928" lon="3.3732283865106583">
    <name>26.0</name>
  </wpt>
  <wpt lat="49.88919181026472" lon="3.3715663790503423">
    <name>27.0</name>
  </wpt>
  <wpt lat="49.8974026972726" lon="3.3671913802003068">
    <name>28.0</name>
  </wpt>
  <wpt lat="49.905751921851284" lon="3.3691215968522092">
    <name>29.0</name>
  </wpt>
  <wpt lat="49.912853729977925" lon="3.3681037255403981">
    <name>30.0</name>
  </wpt>
  <wpt lat="49.921190792346465" lon="3.3716592067792224">
    <name>31.0</name>
  </wpt>
  <wpt lat="49.929195411406276" lon="3.3679013410963878">
    <name>32.0</name>
  </wpt>
  <wpt lat="49.937230272093082" lon="3.3629175407273757">
    <name>33.0</name>
  </wpt>
  <wpt lat="49.945865596812496" lon="3.3599332404397657">
    <name>34.0</name>
  </wpt>
  <wpt lat="49.954465114992473" lon="3.3565396644120451">
    <name>35.0</name>
  </wpt>
  <wpt lat="49.963294210973039" lon="3.3549202202305208">
    <name>36.0</name>
  </wpt>
  <wpt lat="49.967891138311309" lon="3.3654064312153764">
    <name>37.0</name>
  </wpt>
  <wpt lat="49.973349541834793" lon="3.3764232609855513">
    <name>38.0</name>
  </wpt>
  <wpt lat="49.978863636483347" lon="3.3873891631117434">
    <name>39.0</name>
  </wpt>
  <wpt lat="49.980982105000962" lon="3.4005003634723994">
    <name>40.0</name>
  </wpt>
  <wpt lat="49.985264601874981" lon="3.4127408272082147">
    <name>41.0</name>
  </wpt>
  <wpt lat="49.987848134885638" lon="3.4260671382889765">
    <name>42.0</name>
  </wpt>
  <wpt lat="49.987893449339374" lon="3.4400051222354686">
    <name>43.0</name>
  </wpt>
  <wpt lat="49.989256369671374" lon="3.4514478573569209">
    <name>44.0</name>
  </wpt>
  <wpt lat="49.997054035885441" lon="3.4575791685738846">
    <name>45.0</name>
  </wpt>
  <wpt lat="50.00404637720878" lon="3.4652622622619043">
    <name>46.0</name>
  </wpt>
  <wpt lat="50.012589911798422" lon="3.4695635935443927">
    <name>47.0</name>
  </wpt>
  <wpt lat="50.021528262648168" lon="3.4695780728490004">
    <name>48.0</name>
  </wpt>
  <wpt lat="50.028011617859285" lon="3.4613381977888094">
    <name>49.0</name>
  </wpt>
  <wpt lat="50.036666244014" lon="3.4645766702887859">
    <name>50.0</name>
  </wpt>
  <wpt lat="50.043038270729355" lon="3.4569150294704891">
    <name>51.0</name>
  </wpt>
  <wpt lat="50.051030742871731" lon="3.4513231365141945">
    <name>52.0</name>
  </wpt>
  <wpt lat="50.059143451366829" lon="3.4456600214664324">
    <name>53.0</name>
  </wpt>
  <wpt lat="50.066142930344292" lon="3.4415686104503038">
    <name>54.0</name>
  </wpt>
  <wpt lat="50.0746700455014" lon="3.4454613502936522">
    <name>55.0</name>
  </wpt>
  <wpt lat="50.082585890456073" lon="3.4449120058517857">
    <name>56.0</name>
  </wpt>
  <wpt lat="50.089974409004569" lon="3.4480105843232196">
    <name>57.0</name>
  </wpt>
  <wpt lat="50.095824801121317" lon="3.45705154899952">
    <name>58.0</name>
  </wpt>
  <wpt lat="50.100206423838486" lon="3.4670902748517118">
    <name>59.0</name>
  </wpt>
  <wpt lat="50.1083883149078" lon="3.4709741486122794">
    <name>60.0</name>
  </wpt>
  <wpt lat="50.116550741360378" lon="3.4681842622731018">
    <name>61.0</name>
  </wpt>
  <wpt lat="50.124486937567383" lon="3.4633142917018636">
    <name>62.0</name>
  </wpt>
  <wpt lat="50.133309820061974" lon="3.4654317190298927">
    <name>63.0</name>
  </wpt>
  <wpt lat="50.142222884644617" lon="3.4641879519162813">
    <name>64.0</name>
  </wpt>
  <wpt lat="50.150762932727581" lon="3.4628985497830458">
    <name>65.0</name>
  </wpt>
  <wpt lat="50.156294273044296" lon="3.4736743357307636">
    <name>66.0</name>
  </wpt>
  <wpt lat="50.161384949404194" lon="3.4844367473602467">
    <name>67.0</name>
  </wpt>
  <wpt lat="50.168530152178242" lon="3.4878370000000087">
    <name>68.0</name>
  </wpt>
  <wpt lat="50.176990785652634" lon="3.4918372692613304">
    <name>69.0</name>
  </wpt>
  <wpt lat="50.184804466606231" lon="3.4939487699103831">
    <name>70.0</name>
  </wpt>
  <wpt lat="50.191731391377473" lon="3.4988284093852564">
    <name>71.0</name>
  </wpt>
  <wpt lat="50.198859934668867" lon="3.5063339701218625">
    <name>72.0</name>
  </wpt>
  <wpt lat="50.205672771055191" lon="3.5153982845743097">
    <name>73.0</name>
  </wpt>
  <wpt lat="50.212325837099115" lon="3.52418683601251">
    <name>74.0</name>
  </wpt>
  <wpt lat="50.219197347322314" lon="3.5328092782053289">
    <name>75.0</name>
  </wpt>
  <wpt lat="50.226167687387658" lon="3.5413678563597366">
    <name>76.0</name>
  </wpt>
  <wpt lat="50.232529266896165" lon="3.5469421662650511">
    <name>77.0</name>
  </wpt>
  <wpt lat="50.239034445220419" lon="3.5514702564028777">
    <name>78.0</name>
  </wpt>
  <wpt lat="50.236799215708452" lon="3.5648437459925586">
    <name>79.0</name>
  </wpt>
  <wpt lat="50.236697499888614" lon="3.5783394914208917">
    <name>80.0</name>
  </wpt>
  <wpt lat="50.236549053428647" lon="3.5914753551330882">
    <name>81.0</name>
  </wpt>
  <wpt lat="50.24359734126174" lon="3.5948254226980074">
    <name>82.0</name>
  </wpt>
  <wpt lat="50.252077257976531" lon="3.590353085597914">
    <name>83.0</name>
  </wpt>
  <wpt lat="50.258760000053769" lon="3.5862827031184921">
    <name>84.0</name>
  </wpt>
  <wpt lat="50.265147681034563" lon="3.5788875487087668">
    <name>85.0</name>
  </wpt>
  <wpt lat="50.272112140918743" lon="3.5700937931824694">
    <name>86.0</name>
  </wpt>
  <wpt lat="50.279499369121069" lon="3.562974026810688">
    <name>87.0</name>
  </wpt>
  <wpt lat="50.2841140151163" lon="3.5699559999999604">
    <name>88.0</name>
  </wpt>
  <wpt lat="50.29137449580351" lon="3.5752944873993426">
    <name>89.0</name>
  </wpt>
  <wpt lat="50.295801954901521" lon="3.5768120184208527">
    <name>90.0</name>
  </wpt>
  <wpt lat="50.302153513886374" lon="3.5862554430895424">
    <name>91.0</name>
  </wpt>
  <wpt lat="50.308134985867142" lon="3.580620012875384">
    <name>92.0</name>
  </wpt>
  <wpt lat="50.315716913287083" lon="3.5748267105064313">
    <name>93.0</name>
  </wpt>
  <wpt lat="50.324565578358694" lon="3.574719790192058">
    <name>94.0</name>
  </wpt>
  <wpt lat="50.333390646195177" lon="3.5749698894332225">
    <name>95.0</name>
  </wpt>
  <wpt lat="50.335822932955764" lon="3.5832970847265821">
    <name>96.0</name>
  </wpt>
  <wpt lat="50.332405491289492" lon="3.5959350750894994">
    <name>97.0</name>
  </wpt>
  <wpt lat="50.328540101868064" lon="3.60821332620854">
    <name>98.0</name>
  </wpt>
  <wpt lat="50.331525151690805" lon="3.6207432014907246">
    <name>99.0</name>
  </wpt>
  <wpt lat="50.336854410219431" lon="3.6320468182838739">
    <name>100.0</name>
  </wpt>
  <wpt lat="50.340686001385151" lon="3.6433615423888037">
    <name>101.0</name>
  </wpt>
  <wpt lat="50.34573898089846" lon="3.6388912852117823">
    <name>102.0</name>
  </wpt>
  <wpt lat="50.354481276687046" lon="3.6400289361184477">
    <name>103.0</name>
  </wpt>
  <wpt lat="50.362259595601905" lon="3.646515448598473">
    <name>104.0</name>
  </wpt>
  <wpt lat="50.370636963874077" lon="3.6504716243858155">
    <name>105.0</name>
  </wpt>
  <wpt lat="50.378591781871513" lon="3.6567735624774973">
    <name>106.0</name>
  </wpt>
  <wpt lat="50.387224660826078" lon="3.66055727265874">
    <name>107.0</name>
  </wpt>
  <wpt lat="50.395830399692322" lon="3.6637804911336831">
    <name>108.0</name>
  </wpt>
  <wpt lat="50.402832311339466" lon="3.669799289472683">
    <name>109.0</name>
  </wpt>
  <wpt lat="50.40560018616501" lon="3.6828585214314606">
    <name>110.0</name>
  </wpt>
  <wpt lat="50.412252738729386" lon="3.6847806124255698">
    <name>111.0</name>
  </wpt>
  <wpt lat="50.42070320625028" lon="3.6824610999466776">
    <name>112.0</name>
  </wpt>
  <wpt lat="50.428802709151206" lon="3.6807323379899826">
    <name>113.0</name>
  </wpt>
  <wpt lat="50.4351324550423" lon="3.686250848043056">
    <name>114.0</name>
  </wpt>
  <wpt lat="50.441256991126771" lon="3.6945706106012883">
    <name>115.0</name>
  </wpt>
  <wpt lat="50.4499748013025" lon="3.6980212888223138">
    <name>116.0</name>
  </wpt>
  <wpt lat="50.457881624419507" lon="3.7042324442651857">
    <name>117.0</name>
  </wpt>
  <wpt lat="50.46553455269752" lon="3.70860904922979">
    <name>118.0</name>
  </wpt>
  <wpt lat="50.472565585735808" lon="3.7142759201949826">
    <name>119.0</name>
  </wpt>
  <wpt lat="50.479681997674184" lon="3.7097239944923488">
    <name>120.0</name>
  </wpt>
  <wpt lat="50.485102037976326" lon="3.7015579097177178">
    <name>121.0</name>
  </wpt>
  <wpt lat="50.492848902018181" lon="3.7062146011994024">
    <name>122.0</name>
  </wpt>
  <wpt lat="50.499255458177331" lon="3.7143437192330491">
    <name>123.0</name>
  </wpt>
  <wpt lat="50.508111397935842" lon="3.7153097277635538">
    <name>124.0</name>
  </wpt>
  <wpt lat="50.514061075971433" lon="3.7239115090095507">
    <name>125.0</name>
  </wpt>
  <wpt lat="50.5229112092206" lon="3.7263870597440589">
    <name>126.0</name>
  </wpt>
  <wpt lat="50.531729264842632" lon="3.7291648056907576">
    <name>127.0</name>
  </wpt>
  <wpt lat="50.540502977274762" lon="3.7322681989908011">
    <name>128.0</name>
  </wpt>
  <wpt lat="50.549165482038283" lon="3.7356503182254595">
    <name>129.0</name>
  </wpt>
  <wpt lat="50.556207633751548" lon="3.7430520356355741">
    <name>130.0</name>
  </wpt>
  <wpt lat="50.562327113274677" lon="3.7525204519532691">
    <name>131.0</name>
  </wpt>
  <wpt lat="50.56881846582062" lon="3.7580296186180768">
    <name>132.0</name>
  </wpt>
  <wpt lat="50.576821198417463" lon="3.7639943091233885">
    <name>133.0</name>
  </wpt>
  <wpt lat="50.585197292613614" lon="3.768943556228062">
    <name>134.0</name>
  </wpt>
  <wpt lat="50.593536796391547" lon="3.7736516815149357">
    <name>135.0</name>
  </wpt>
  <wpt lat="50.602034970941325" lon="3.7751599080763372">
    <name>136.0</name>
  </wpt>
  <wpt lat="50.609648698177011" lon="3.7825550813440549">
    <name>137.0</name>
  </wpt>
  <wpt lat="50.614893524698488" lon="3.7792689075632127">
    <name>138.0</name>
  </wpt>
  <wpt lat="50.619241117457932" lon="3.7671716147306413">
    <name>139.0</name>
  </wpt>
  <wpt lat="50.625119401936914" lon="3.7697619738183303">
    <name>140.0</name>
  </wpt>
  <wpt lat="50.630108652614283" lon="3.7762307076313548">
    <name>141.0</name>
  </wpt>
  <wpt lat="50.634241580046904" lon="3.7839332875924954">
    <name>142.0</name>
  </wpt>
  <wpt lat="50.641246873618272" lon="3.7920117804146423">
    <name>143.0</name>
  </wpt>
  <wpt lat="50.648534338263943" lon="3.8002680124001014">
    <name>144.0</name>
  </wpt>
  <wpt lat="50.655542865873613" lon="3.8086726550568217">
    <name>145.0</name>
  </wpt>
  <wpt lat="50.66250173140687" lon="3.8168326326325381">
    <name>146.0</name>
  </wpt>
  <wpt lat="50.669823617849723" lon="3.82147752232502">
    <name>147.0</name>
  </wpt>
  <wpt lat="50.672678928287525" lon="3.834707397980138">
    <name>148.0</name>
  </wpt>
  <wpt lat="50.680211443366048" lon="3.8424458854562853">
    <name>149.0</name>
  </wpt>
  <wpt lat="50.6876989966552" lon="3.8502970223083022">
    <name>150.0</name>
  </wpt>
  <wpt lat="50.695304013176816" lon="3.8517749797474852">
    <name>151.0</name>
  </wpt>
  <wpt lat="50.703070784325163" lon="3.8446282162837688">
    <name>152.0</name>
  </wpt>
  <wpt lat="50.710269883970049" lon="3.8379548236215468">
    <name>153.0</name>
  </wpt>
  <wpt lat="50.718434288970386" lon="3.8396660084002447">
    <name>154.0</name>
  </wpt>
  <wpt lat="50.72332949668882" lon="3.8506481192943438">
    <name>155.0</name>
  </wpt>
  <wpt lat="50.730609133687892" lon="3.85322270586552">
    <name>156.0</name>
  </wpt>
  <wpt lat="50.736128293073982" lon="3.86256623596793">
    <name>157.0</name>
  </wpt>
  <wpt lat="50.743514845836074" lon="3.8690816348266215">
    <name>158.0</name>
  </wpt>
  <wpt lat="50.7503430285657" lon="3.8778106512185251">
    <name>159.0</name>
  </wpt>
  <wpt lat="50.756652240380078" lon="3.8791431841356521">
    <name>160.0</name>
  </wpt>
  <wpt lat="50.764164493969737" lon="3.8865567888494494">
    <name>161.0</name>
  </wpt>
  <wpt lat="50.770215347780677" lon="3.8854700112057947">
    <name>162.0</name>
  </wpt>
  <wpt lat="50.772071000013149" lon="3.8898135522346315">
    <name>163.0</name>
  </wpt>
  <wpt lat="50.776235338924373" lon="3.9004242338145425">
    <name>164.0</name>
  </wpt>
  <wpt lat="50.781930253397618" lon="3.9111350123448729">
    <name>165.0</name>
  </wpt>
  <wpt lat="50.787886897012314" lon="3.9213717937339458">
    <name>166.0</name>
  </wpt>
  <wpt lat="50.791668567489751" lon="3.9328901431636232">
    <name>167.0</name>
  </wpt>
  <wpt lat="50.794371010527755" lon="3.9462448039709606">
    <name>168.0</name>
  </wpt>
  <wpt lat="50.796228167105795" lon="3.9598277414656762">
    <name>169.0</name>
  </wpt>
  <wpt lat="50.802425870512657" lon="3.9674617616580843">
    <name>170.0</name>
  </wpt>
  <wpt lat="50.801839892216016" lon="3.9792219890017786">
    <name>171.0</name>
  </wpt>
  <wpt lat="50.808244229231491" lon="3.9871898169354552">
    <name>172.0</name>
  </wpt>
  <wpt lat="50.815281507803583" lon="3.9940185069867935">
    <name>173.0</name>
  </wpt>
  <wpt lat="50.821496583193465" lon="4.0035531447768475">
    <name>174.0</name>
  </wpt>
  <wpt lat="50.826435080298921" lon="4.01438344266284">
    <name>175.0</name>
  </wpt>
  <wpt lat="50.831000925852706" lon="4.019398542114569">
    <name>176.0</name>
  </wpt>
  <wpt lat="50.836724973652558" lon="4.0261568212159311">
    <name>177.0</name>
  </wpt>
  <wpt lat="50.844708103997114" lon="4.0210599999999719">
    <name>178.0</name>
  </wpt>
  <wpt lat="50.853665036425923" lon="4.0216054355170314">
    <name>179.0</name>
  </wpt>
  <wpt lat="50.862622713322175" lon="4.0207792396733755">
    <name>180.0</name>
  </wpt>
  <wpt lat="50.87107450952081" lon="4.0181981079009068">
    <name>181.0</name>
  </wpt>
  <wpt lat="50.879454806783109" lon="4.0196826006263979">
    <name>182.0</name>
  </wpt>
  <wpt lat="50.8869158887865" lon="4.0216804136060285">
    <name>183.0</name>
  </wpt>
  <wpt lat="50.894877294945694" lon="4.0258326935644879">
    <name>184.0</name>
  </wpt>
  <wpt lat="50.903138972664678" lon="4.02578918137031">
    <name>185.0</name>
  </wpt>
  <wpt lat="50.911546428552093" lon="4.029450505555749">
    <name>186.0</name>
  </wpt>
  <wpt lat="50.916620028704429" lon="4.0395124270075895">
    <name>187.0</name>
  </wpt>
  <wpt lat="50.91750376657005" lon="4.050522601441954">
    <name>188.0</name>
  </wpt>
  <wpt lat="50.924434206247362" lon="4.052612817017172">
    <name>189.0</name>
  </wpt>
  <wpt lat="50.932720064004435" lon="4.0483040950704066">
    <name>190.0</name>
  </wpt>
  <wpt lat="50.939989983886377" lon="4.0430808456628951">
    <name>191.0</name>
  </wpt>
  <wpt lat="50.942357386192505" lon="4.0528781976210766">
    <name>192.0</name>
  </wpt>
  <wpt lat="50.943518000016027" lon="4.058827377256959">
    <name>193.0</name>
  </wpt>
  <wpt lat="50.945220853147291" lon="4.0726703878842905">
    <name>194.0</name>
  </wpt>
  <wpt lat="50.949736814051825" lon="4.0832905961843213">
    <name>195.0</name>
  </wpt>
  <wpt lat="50.951860628589891" lon="4.0943790162842744">
    <name>196.0</name>
  </wpt>
  <wpt lat="50.951548098154326" lon="4.1056942308580124">
    <name>197.0</name>
  </wpt>
  <wpt lat="50.948830421222354" lon="4.11763497645187">
    <name>198.0</name>
  </wpt>
  <wpt lat="50.950966602322175" lon="4.1313930413152367">
    <name>199.0</name>
  </wpt>
  <wpt lat="50.955051616004468" lon="4.1418136120063673">
    <name>200.0</name>
  </wpt>
  <wpt lat="50.960391562312616" lon="4.1523111333577569">
    <name>201.0</name>
  </wpt>
  <wpt lat="50.966052668952479" lon="4.1616418693740336">
    <name>202.0</name>
  </wpt>
  <wpt lat="50.971659605653393" lon="4.16825820762618">
    <name>203.0</name>
  </wpt>
  <wpt lat="50.978899264872972" lon="4.1688086148738526">
    <name>204.0</name>
  </wpt>
  <wpt lat="50.986712903229161" lon="4.1683231020260925">
    <name>205.0</name>
  </wpt>
  <wpt lat="50.993715624037989" lon="4.1729985572901676">
    <name>206.0</name>
  </wpt>
  <wpt lat="50.999722618658815" lon="4.174646013036198">
    <name>207.0</name>
  </wpt>
  <wpt lat="51.005843205564787" lon="4.1654960260390208">
    <name>208.0</name>
  </wpt>
  <wpt lat="51.006799955187212" lon="4.15317032279756">
    <name>209.0</name>
  </wpt>
  <wpt lat="51.014524644996108" lon="4.1484906759717646">
    <name>210.0</name>
  </wpt>
  <wpt lat="51.01845878924879" lon="4.13613037992704">
    <name>211.0</name>
  </wpt>
  <wpt lat="51.0201447206248" lon="4.123804040910815">
    <name>212.0</name>
  </wpt>
  <wpt lat="51.022150865727312" lon="4.11056712378345">
    <name>213.0</name>
  </wpt>
  <wpt lat="51.025719943866889" lon="4.1019025234859061">
    <name>214.0</name>
  </wpt>
  <wpt lat="51.028942323397786" lon="4.098725659880083">
    <name>215.0</name>
  </wpt>
  <wpt lat="51.033884246235608" lon="4.105300019631442">
    <name>216.0</name>
  </wpt>
  <wpt lat="51.039518370918451" lon="4.1020850000000246">
    <name>217.0</name>
  </wpt>
  <wpt lat="51.045204102574729" lon="4.0924388176542719">
    <name>218.0</name>
  </wpt>
  <wpt lat="51.050553952121" lon="4.0821868824836161">
    <name>219.0</name>
  </wpt>
  <wpt lat="51.053290315751831" lon="4.0685700057106438">
    <name>220.0</name>
  </wpt>
  <wpt lat="51.058167225144317" lon="4.0575076294042827">
    <name>221.0</name>
  </wpt>
  <wpt lat="51.06600006425586" lon="4.05369472271383">
    <name>222.0</name>
  </wpt>
  <wpt lat="51.068720604496995" lon="4.0445173993120518">
    <name>223.0</name>
  </wpt>
  <wpt lat="51.071615724577079" lon="4.0347607167336683">
    <name>224.0</name>
  </wpt>
  <wpt lat="51.078731247006537" lon="4.0337780310671807">
    <name>225.0</name>
  </wpt>
  <wpt lat="51.078228928969288" lon="4.04102156206548">
    <name>226.0</name>
  </wpt>
  <wpt lat="51.083866034184027" lon="4.0502313506989767">
    <name>227.0</name>
  </wpt>
  <wpt lat="51.088365261098332" lon="4.0620964188633728">
    <name>228.0</name>
  </wpt>
  <wpt lat="51.09491470121695" lon="4.0705731075678884">
    <name>229.0</name>
  </wpt>
  <wpt lat="51.095347073113125" lon="4.0846695150518642">
    <name>230.0</name>
  </wpt>
  <wpt lat="51.092997605992551" lon="4.09582632287361">
    <name>231.0</name>
  </wpt>
  <wpt lat="51.092406568066366" lon="4.107739585518174">
    <name>232.0</name>
  </wpt>
  <wpt lat="51.096738537546607" lon="4.1174329877924212">
    <name>233.0</name>
  </wpt>
  <wpt lat="51.099203339265223" lon="4.1308901792455837">
    <name>234.0</name>
  </wpt>
  <wpt lat="51.101945791326443" lon="4.1419056473784686">
    <name>235.0</name>
  </wpt>
  <wpt lat="51.110303780211311" lon="4.1422967035186113">
    <name>236.0</name>
  </wpt>
  <wpt lat="51.113788068154875" lon="4.1508744550583359">
    <name>237.0</name>
  </wpt>
  <wpt lat="51.11418577068924" lon="4.1648252729689075">
    <name>238.0</name>
  </wpt>
  <wpt lat="51.113906392229396" lon="4.1788296278102184">
    <name>239.0</name>
  </wpt>
  <wpt lat="51.117731969508156" lon="4.1916833255523738">
    <name>240.0</name>
  </wpt>
  <wpt lat="51.124415770415943" lon="4.2012282802875918">
    <name>241.0</name>
  </wpt>
  <wpt lat="51.124749000308753" lon="4.2140988480260155">
    <name>242.0</name>
  </wpt>
  <wpt lat="51.126540797959741" lon="4.2264756042637845">
    <name>243.0</name>
  </wpt>
  <wpt lat="51.128646184732574" lon="4.2384307009889506">
    <name>244.0</name>
  </wpt>
  <wpt lat="51.129516411338685" lon="4.2525503800835587">
    <name>245.0</name>
  </wpt>
  <wpt lat="51.129792000118556" lon="4.2667816889356835">
    <name>246.0</name>
  </wpt>
  <wpt lat="51.133667612039183" lon="4.2795884722982613">
    <name>247.0</name>
  </wpt>
  <wpt lat="51.14016127630277" lon="4.289465537172668">
    <name>248.0</name>
  </wpt>
  <wpt lat="51.14685123498397" lon="4.2980504330512082">
    <name>249.0</name>
  </wpt>
  <wpt lat="51.155598462975618" lon="4.3008689999999881">
    <name>250.0</name>
  </wpt>
  <wpt lat="51.163418480847191" lon="4.3072977371400709">
    <name>251.0</name>
  </wpt>
  <wpt lat="51.169660000000391" lon="4.3143425536122386">
    <name>252.0</name>
  </wpt>
  <wpt lat="51.175196007921237" lon="4.3206105525042355">
    <name>253.0</name>
  </wpt>
  <wpt lat="51.177576293614095" lon="4.3164166543134925">
    <name>254.0</name>
  </wpt>
  <wpt lat="51.185001542184594" lon="4.3232605790950416">
    <name>255.0</name>
  </wpt>
  <wpt lat="51.192526591136854" lon="4.3232925180186461">
    <name>256.0</name>
  </wpt>
  <wpt lat="51.199246445953982" lon="4.3323387347303379">
    <name>257.0</name>
  </wpt>
  <wpt lat="51.201743764806515" lon="4.345176176084304">
    <name>258.0</name>
  </wpt>
  <wpt lat="51.204777394839759" lon="4.3579130099189545">
    <name>259.0</name>
  </wpt>
  <wpt lat="51.208791172929573" lon="4.3704403103696121">
    <name>260.0</name>
  </wpt>
  <wpt lat="51.2142159763982" lon="4.3818524293765382">
    <name>261.0</name>
  </wpt>
  <wpt lat="51.220277576457349" lon="4.3898143034492509">
    <name>262.0</name>
  </wpt>
  <wpt lat="51.22276114714105" lon="4.3979801498871591">
    <name>263.0</name>
  </wpt>
  <wpt lat="51.228093091408596" lon="4.4068399660236395">
    <name>264.0</name>
  </wpt>
  <wpt lat="51.2317800011676" lon="4.4157693020555655">
    <name>265.0</name>
  </wpt>
  <wpt lat="51.237884432328393" lon="4.4205688843767259">
    <name>266.0</name>
  </wpt>
  <wpt lat="51.244882800169805" lon="4.42382100000005">
    <name>267.0</name>
  </wpt>
  <wpt lat="51.248212151293593" lon="4.4322647996303006">
    <name>268.0</name>
  </wpt>
  <wpt lat="51.254916354795519" lon="4.4387890094558644">
    <name>269.0</name>
  </wpt>
  <wpt lat="51.254350088228108" lon="4.4528818269687918">
    <name>270.0</name>
  </wpt>
  <wpt lat="51.2583860919687" lon="4.4631547526513762">
    <name>271.0</name>
  </wpt>
  <wpt lat="51.267073339956752" lon="4.4631099999999586">
    <name>272.0</name>
  </wpt>
  <wpt lat="51.274385078205292" lon="4.4713171492318988">
    <name>273.0</name>
  </wpt>
  <wpt lat="51.281628835242067" lon="4.4798368314535715">
    <name>274.0</name>
  </wpt>
  <wpt lat="51.28860831937785" lon="4.4885666332751581">
    <name>275.0</name>
  </wpt>
  <wpt lat="51.295668798443074" lon="4.49705188659503">
    <name>276.0</name>
  </wpt>
  <wpt lat="51.30351980057668" lon="4.5037435267159269">
    <name>277.0</name>
  </wpt>
  <wpt lat="51.31113972884588" lon="4.5111867871499634">
    <name>278.0</name>
  </wpt>
  <wpt lat="51.318816166457076" lon="4.5181228849700306">
    <name>279.0</name>
  </wpt>
  <wpt lat="51.327449405342037" lon="4.5221466752369608">
    <name>280.0</name>
  </wpt>
  <wpt lat="51.33598289307313" lon="4.5263268908537739">
    <name>281.0</name>
  </wpt>
  <wpt lat="51.343269965857715" lon="4.5345083538972011">
    <name>282.0</name>
  </wpt>
  <wpt lat="51.350435251188884" lon="4.5431928752857207">
    <name>283.0</name>
  </wpt>
  <wpt lat="51.357593249001006" lon="4.5518575188895944">
    <name>284.0</name>
  </wpt>
  <wpt lat="51.364729735890009" lon="4.560617914209776">
    <name>285.0</name>
  </wpt>
  <wpt lat="51.37186886341204" lon="4.5693777824915891">
    <name>286.0</name>
  </wpt>
  <wpt lat="51.379006762212043" lon="4.57814027784287">
    <name>287.0</name>
  </wpt>
  <wpt lat="51.386137835346567" lon="4.5869198290203048">
    <name>288.0</name>
  </wpt>
  <wpt lat="51.393276344484043" lon="4.5956787958546546">
    <name>289.0</name>
  </wpt>
  <wpt lat="51.400408060880729" lon="4.6044563160990251">
    <name>290.0</name>
  </wpt>
  <wpt lat="51.408169599652119" lon="4.6115117208034215">
    <name>291.0</name>
  </wpt>
  <wpt lat="51.413484896080462" lon="4.62260338602352">
    <name>292.0</name>
  </wpt>
  <wpt lat="51.419419792495624" lon="4.63331581228127">
    <name>293.0</name>
  </wpt>
  <wpt lat="51.426079282425043" lon="4.641526285822958">
    <name>294.0</name>
  </wpt>
  <wpt lat="51.435011484000832" lon="4.6421364497235258">
    <name>295.0</name>
  </wpt>
  <wpt lat="51.443861574279943" lon="4.6439104837320953">
    <name>296.0</name>
  </wpt>
  <wpt lat="51.451896740167221" lon="4.6406876976946281">
    <name>297.0</name>
  </wpt>
  <wpt lat="51.459095495726366" lon="4.6484227331265924">
    <name>298.0</name>
  </wpt>
  <wpt lat="51.466738860124693" lon="4.655724049394272">
    <name>299.0</name>
  </wpt>
  <wpt lat="51.472762278280769" lon="4.6654634120377176">
    <name>300.0</name>
  </wpt>
  <wpt lat="51.472427224888769" lon="4.6717399476806634">
    <name>301.0</name>
  </wpt>
  <wpt lat="51.477739589620576" lon="4.67049040146622">
    <name>302.0</name>
  </wpt>
  <wpt lat="51.48575608751112" lon="4.6770329344943766">
    <name>303.0</name>
  </wpt>
  <wpt lat="51.494103974102195" lon="4.6819926572475827">
    <name>304.0</name>
  </wpt>
  <wpt lat="51.502151572688085" lon="4.6884391668049021">
    <name>305.0</name>
  </wpt>
  <wpt lat="51.510197961355949" lon="4.6948917828550014">
    <name>306.0</name>
  </wpt>
  <wpt lat="51.517273365330411" lon="4.7030500000000117">
    <name>307.0</name>
  </wpt>
  <wpt lat="51.515712944405131" lon="4.7103134333794836">
    <name>308.0</name>
  </wpt>
  <wpt lat="51.50885641804534" lon="4.7192818886254964">
    <name>309.0</name>
  </wpt>
  <wpt lat="51.504925468986904" lon="4.72852058613848">
    <name>310.0</name>
  </wpt>
  <wpt lat="51.504792705979071" lon="4.73760804779373">
    <name>311.0</name>
  </wpt>
  <wpt lat="51.505186316428542" lon="4.7508413843800605">
    <name>312.0</name>
  </wpt>
  <wpt lat="51.505012754936018" lon="4.7636460411810315">
    <name>313.0</name>
  </wpt>
  <wpt lat="51.504547529199094" lon="4.7776430746140583">
    <name>314.0</name>
  </wpt>
  <wpt lat="51.50586280723055" lon="4.7903530018047267">
    <name>315.0</name>
  </wpt>
  <wpt lat="51.501281169170063" lon="4.80015408799547">
    <name>316.0</name>
  </wpt>
  <wpt lat="51.50176642726619" lon="4.8141165461941071">
    <name>317.0</name>
  </wpt>
  <wpt lat="51.501026193914861" lon="4.82775055371835">
    <name>318.0</name>
  </wpt>
  <wpt lat="51.499777472249754" lon="4.8383032943772175">
    <name>319.0</name>
  </wpt>
  <wpt lat="51.507311875299052" lon="4.844822484783796">
    <name>320.0</name>
  </wpt>
  <wpt lat="51.5086234496096" lon="4.8521292525157875">
    <name>321.0</name>
  </wpt>
  <wpt lat="51.507071058846122" lon="4.86280750797431">
    <name>322.0</name>
  </wpt>
  <wpt lat="51.514509584623063" lon="4.8701909253831888">
    <name>323.0</name>
  </wpt>
  <wpt lat="51.520390293674843" lon="4.8810406975698806">
    <name>324.0</name>
  </wpt>
  <wpt lat="51.526533973379088" lon="4.89155691115034">
    <name>325.0</name>
  </wpt>
  <wpt lat="51.532668441169832" lon="4.902126438985154">
    <name>326.0</name>
  </wpt>
  <wpt lat="51.53854089810374" lon="4.9130377941215277">
    <name>327.0</name>
  </wpt>
  <wpt lat="51.541891407596779" lon="4.925227491086936">
    <name>328.0</name>
  </wpt>
  <wpt lat="51.542309054337686" lon="4.9392731239550693">
    <name>329.0</name>
  </wpt>
  <wpt lat="51.55001381806219" lon="4.941145684428113">
    <name>330.0</name>
  </wpt>
  <wpt lat="51.554702775262761" lon="4.9518442508124467">
    <name>331.0</name>
  </wpt>
  <wpt lat="51.556975098861436" lon="4.9650320993204744">
    <name>332.0</name>
  </wpt>
  <wpt lat="51.563998999706548" lon="4.9704040460496639">
    <name>333.0</name>
  </wpt>
  <wpt lat="51.569109035583551" lon="4.9790621984731276">
    <name>334.0</name>
  </wpt>
  <wpt lat="51.576990280422365" lon="4.9825760848504848">
    <name>335.0</name>
  </wpt>
  <wpt lat="51.585488816881444" lon="4.9841451624258628">
    <name>336.0</name>
  </wpt>
  <wpt lat="51.592411853770827" lon="4.985987711336886">
    <name>337.0</name>
  </wpt>
  <wpt lat="51.59841398578665" lon="4.9899265022216017">
    <name>338.0</name>
  </wpt>
  <wpt lat="51.606685256396844" lon="4.9858745153957731">
    <name>339.0</name>
  </wpt>
  <wpt lat="51.611441914793382" lon="4.9801505966332078">
    <name>340.0</name>
  </wpt>
  <wpt lat="51.61681870660987" lon="4.9685639674288478">
    <name>341.0</name>
  </wpt>
  <wpt lat="51.617227236205466" lon="4.9576944618904184">
    <name>342.0</name>
  </wpt>
  <wpt lat="51.621235742625359" lon="4.9458872337061335">
    <name>343.0</name>
  </wpt>
  <wpt lat="51.62688381785199" lon="4.9413248779711454">
    <name>344.0</name>
  </wpt>
  <wpt lat="51.626699492185153" lon="4.9359119360224213">
    <name>345.0</name>
  </wpt>
  <wpt lat="51.623370079829932" lon="4.9364127554407258">
    <name>346.0</name>
  </wpt>
  <wpt lat="51.622484771109754" lon="4.9282756524788054">
    <name>347.0</name>
  </wpt>
  <wpt lat="51.626129000082649" lon="4.9196313727637477">
    <name>348.0</name>
  </wpt>
  <wpt lat="51.619269772842813" lon="4.9136212147219362">
    <name>349.0</name>
  </wpt>
  <wpt lat="51.61165964593841" lon="4.9153194362358619">
    <name>350.0</name>
  </wpt>
  <wpt lat="51.603007042247633" lon="4.9186559999999773">
    <name>351.0</name>
  </wpt>
  <wpt lat="51.59422718881715" lon="4.9168141602966706">
    <name>352.0</name>
  </wpt>
  <wpt lat="51.587711814402326" lon="4.912400678161303">
    <name>353.0</name>
  </wpt>
  <wpt lat="51.582107336564476" lon="4.9074903406371506">
    <name>354.0</name>
  </wpt>
  <wpt lat="51.578140249382152" lon="4.8997217351308056">
    <name>355.0</name>
  </wpt>
  <wpt lat="51.573629362200471" lon="4.8889204642208917">
    <name>356.0</name>
  </wpt>
  <wpt lat="51.573387662409587" lon="4.8747358745183664">
    <name>357.0</name>
  </wpt>
  <wpt lat="51.567265513569424" lon="4.8716290702611049">
    <name>358.0</name>
  </wpt>
  <wpt lat="51.569019941975938" lon="4.8592124882608845">
    <name>359.0</name>
  </wpt>
  <wpt lat="51.567935988220022" lon="4.845725447253284">
    <name>360.0</name>
  </wpt>
  <wpt lat="51.564050089616408" lon="4.8367290895679531">
    <name>361.0</name>
  </wpt>
  <wpt lat="51.566752118205287" lon="4.8258982705988123">
    <name>362.0</name>
  </wpt>
  <wpt lat="51.56784557242046" lon="4.8184733931100938">
    <name>363.0</name>
  </wpt>
  <wpt lat="51.565587107155089" lon="4.8049900714612548">
    <name>364.0</name>
  </wpt>
  <wpt lat="51.566066252867095" lon="4.7910575830501632">
    <name>365.0</name>
  </wpt>
  <wpt lat="51.572088634692058" lon="4.783572090864106">
    <name>366.0</name>
  </wpt>
  <wpt lat="51.568851229784926" lon="4.7766853516049812">
    <name>367.0</name>
  </wpt>
  <wpt lat="51.564374001387435" lon="4.7665320026652394">
    <name>368.0</name>
  </wpt>
  <wpt lat="51.56392467728417" lon="4.757938502335838">
    <name>369.0</name>
  </wpt>
  <wpt lat="51.563153049939977" lon="4.7494085016707324">
    <name>370.0</name>
  </wpt>
  <wpt lat="51.569625284516235" lon="4.7432338568546069">
    <name>371.0</name>
  </wpt>
  <wpt lat="51.577119404393628" lon="4.7392001138099182">
    <name>372.0</name>
  </wpt>
  <wpt lat="51.578074853569191" lon="4.7252391549677073">
    <name>373.0</name>
  </wpt>
  <wpt lat="51.575908105368129" lon="4.7117430544050505">
    <name>374.0</name>
  </wpt>
  <wpt lat="51.573959990007928" lon="4.6978237815136632">
    <name>375.0</name>
  </wpt>
  <wpt lat="51.573125675721116" lon="4.6836080644952682">
    <name>376.0</name>
  </wpt>
  <wpt lat="51.571939357275717" lon="4.6702757697794794">
    <name>377.0</name>
  </wpt>
  <wpt lat="51.572641375020396" lon="4.6665458662732942">
    <name>378.0</name>
  </wpt>
  <wpt lat="51.571033849013624" lon="4.6524297300367135">
    <name>379.0</name>
  </wpt>
  <wpt lat="51.57120143935478" lon="4.6396629735527792">
    <name>380.0</name>
  </wpt>
  <wpt lat="51.566035474104964" lon="4.6365709663217629">
    <name>381.0</name>
  </wpt>
  <wpt lat="51.560043781482563" lon="4.6422214279865521">
    <name>382.0</name>
  </wpt>
  <wpt lat="51.555786415719751" lon="4.63321189617636">
    <name>383.0</name>
  </wpt>
  <wpt lat="51.549206717571892" lon="4.6372684169235985">
    <name>384.0</name>
  </wpt>
  <wpt lat="51.543204500507429" lon="4.6296504111052235">
    <name>385.0</name>
  </wpt>
  <wpt lat="51.539533603040773" lon="4.6166768673196579">
    <name>386.0</name>
  </wpt>
  <wpt lat="51.538342196950687" lon="4.6027534507234664">
    <name>387.0</name>
  </wpt>
  <wpt lat="51.540227274587181" lon="4.593573518272887">
    <name>388.0</name>
  </wpt>
  <wpt lat="51.547657914428541" lon="4.5884991846164551">
    <name>389.0</name>
  </wpt>
  <wpt lat="51.555645830034315" lon="4.583867250171">
    <name>390.0</name>
  </wpt>
  <wpt lat="51.56288264931694" lon="4.5845204344609">
    <name>391.0</name>
  </wpt>
  <wpt lat="51.570149968497375" lon="4.5897658802490229">
    <name>392.0</name>
  </wpt>
  <wpt lat="51.578725323102532" lon="4.5896280769218158">
    <name>393.0</name>
  </wpt>
  <wpt lat="51.579916523541087" lon="4.5797175231836329">
    <name>394.0</name>
  </wpt>
  <wpt lat="51.580423424904737" lon="4.5660114759909218">
    <name>395.0</name>
  </wpt>
  <wpt lat="51.575854761314162" lon="4.5565274985993787">
    <name>396.0</name>
  </wpt>
  <wpt lat="51.573646316082957" lon="4.5453869481668061">
    <name>397.0</name>
  </wpt>
  <wpt lat="51.5765166386273" lon="4.5322095344827282">
    <name>398.0</name>
  </wpt>
  <wpt lat="51.584273180266088" lon="4.5266739490657342">
    <name>399.0</name>
  </wpt>
  <wpt lat="51.588771000189048" lon="4.5288199689429156">
    <name>400.0</name>
  </wpt>
  <wpt lat="51.589966400722055" lon="4.5149660988812741">
    <name>401.0</name>
  </wpt>
  <wpt lat="51.587702871662387" lon="4.5011980289483695">
    <name>402.0</name>
  </wpt>
  <wpt lat="51.585831563763854" lon="4.489419161064351">
    <name>403.0</name>
  </wpt>
  <wpt lat="51.58349571455458" lon="4.47569274770514">
    <name>404.0</name>
  </wpt>
  <wpt lat="51.585166720531625" lon="4.4638289532165114">
    <name>405.0</name>
  </wpt>
  <wpt lat="51.586362196165219" lon="4.4546584872389161">
    <name>406.0</name>
  </wpt>
  <wpt lat="51.581753863680589" lon="4.46004672244397">
    <name>407.0</name>
  </wpt>
  <wpt lat="51.573927281951605" lon="4.4664162117844883">
    <name>408.0</name>
  </wpt>
  <wpt lat="51.565866246114609" lon="4.4710052548904216">
    <name>409.0</name>
  </wpt>
  <wpt lat="51.5593427066689" lon="4.4778606394215759">
    <name>410.0</name>
  </wpt>
  <wpt lat="51.551646190635857" lon="4.4733018048702275">
    <name>411.0</name>
  </wpt>
  <wpt lat="51.543628921845411" lon="4.4756263407920915">
    <name>412.0</name>
  </wpt>
  <wpt lat="51.535000214095376" lon="4.47628256863517">
    <name>413.0</name>
  </wpt>
  <wpt lat="51.52837170553731" lon="4.4823803055045133">
    <name>414.0</name>
  </wpt>
  <wpt lat="51.521619517650606" lon="4.4818765706790531">
    <name>415.0</name>
  </wpt>
  <wpt lat="51.5163889765648" lon="4.4763517261624388">
    <name>416.0</name>
  </wpt>
  <wpt lat="51.522972922515223" lon="4.4717134199332724">
    <name>417.0</name>
  </wpt>
  <wpt lat="51.528148811899506" lon="4.4652882762407629">
    <name>418.0</name>
  </wpt>
  <wpt lat="51.533008832363642" lon="4.4556272789451938">
    <name>419.0</name>
  </wpt>
  <wpt lat="51.529774070542317" lon="4.446903991416014">
    <name>420.0</name>
  </wpt>
  <wpt lat="51.525932947762023" lon="4.43767620834109">
    <name>421.0</name>
  </wpt>
  <wpt lat="51.518885559596036" lon="4.4342664232985491">
    <name>422.0</name>
  </wpt>
  <wpt lat="51.512953330456845" lon="4.4261702728854342">
    <name>423.0</name>
  </wpt>
  <wpt lat="51.506893627693913" lon="4.4158148428831394">
    <name>424.0</name>
  </wpt>
  <wpt lat="51.501599859432517" lon="4.4050782122949608">
    <name>425.0</name>
  </wpt>
  <wpt lat="51.495080773578842" lon="4.398525440840019">
    <name>426.0</name>
  </wpt>
  <wpt lat="51.486489015596383" lon="4.3989939999999725">
    <name>427.0</name>
  </wpt>
  <wpt lat="51.47759253219035" lon="4.3975686017782305">
    <name>428.0</name>
  </wpt>
  <wpt lat="51.468626509135404" lon="4.3964548367103067">
    <name>429.0</name>
  </wpt>
  <wpt lat="51.460471466782309" lon="4.3933981057257423">
    <name>430.0</name>
  </wpt>
  <wpt lat="51.452893161396659" lon="4.3860235149062126">
    <name>431.0</name>
  </wpt>
  <wpt lat="51.446707518168139" lon="4.3791337754798292">
    <name>432.0</name>
  </wpt>
  <wpt lat="51.438001289153846" lon="4.3759660122380728">
    <name>433.0</name>
  </wpt>
  <wpt lat="51.4304237634337" lon="4.3763273641341112">
    <name>434.0</name>
  </wpt>
  <wpt lat="51.425141498716414" lon="4.3655758731937739">
    <name>435.0</name>
  </wpt>
  <wpt lat="51.417587133735744" lon="4.3581852613764136">
    <name>436.0</name>
  </wpt>
  <wpt lat="51.409892527379654" lon="4.3509272788171032">
    <name>437.0</name>
  </wpt>
  <wpt lat="51.402476390827886" lon="4.3548425499493995">
    <name>438.0</name>
  </wpt>
  <wpt lat="51.39385376785701" lon="4.3574515064325015">
    <name>439.0</name>
  </wpt>
  <wpt lat="51.391213997676026" lon="4.3443851660406745">
    <name>440.0</name>
  </wpt>
  <wpt lat="51.394584726855015" lon="4.3356138553029249">
    <name>441.0</name>
  </wpt>
  <wpt lat="51.398950919910696" lon="4.3319364840392094">
    <name>442.0</name>
  </wpt>
  <wpt lat="51.404070705057585" lon="4.3432659954012465">
    <name>443.0</name>
  </wpt>
  <wpt lat="51.410241642964714" lon="4.3389939429693225">
    <name>444.0</name>
  </wpt>
  <wpt lat="51.415918932362786" lon="4.3363384269778713">
    <name>445.0</name>
  </wpt>
  <wpt lat="51.42315201777258" lon="4.3341286612953542">
    <name>446.0</name>
  </wpt>
  <wpt lat="51.424588991242359" lon="4.3232028371293465">
    <name>447.0</name>
  </wpt>
  <wpt lat="51.432743794036618" lon="4.3187708010844323">
    <name>448.0</name>
  </wpt>
  <wpt lat="51.441163995086427" lon="4.315653006145669">
    <name>449.0</name>
  </wpt>
  <wpt lat="51.447189157756725" lon="4.3135831466298109">
    <name>450.0</name>
  </wpt>
  <wpt lat="51.456084754650142" lon="4.3126823697649321">
    <name>451.0</name>
  </wpt>
  <wpt lat="51.464787575510705" lon="4.3092790202545972">
    <name>452.0</name>
  </wpt>
  <wpt lat="51.472911564397364" lon="4.3039872704766617">
    <name>453.0</name>
  </wpt>
  <wpt lat="51.478571841172922" lon="4.2987467492501521">
    <name>454.0</name>
  </wpt>
  <wpt lat="51.475430186532996" lon="4.2887021848493552">
    <name>455.0</name>
  </wpt>
  <wpt lat="51.478832270113863" lon="4.2806718650268767">
    <name>456.0</name>
  </wpt>
  <wpt lat="51.485996745513695" lon="4.2822635310526405">
    <name>457.0</name>
  </wpt>
  <wpt lat="51.491626209528228" lon="4.2884929283458266">
    <name>458.0</name>
  </wpt>
  <wpt lat="51.498887539298231" lon="4.2827765092061156">
    <name>459.0</name>
  </wpt>
  <wpt lat="51.506549469832521" lon="4.2796787454166134">
    <name>460.0</name>
  </wpt>
  <wpt lat="51.515258089655319" lon="4.2775199587433752">
    <name>461.0</name>
  </wpt>
  <wpt lat="51.522578969544654" lon="4.2721663847091609">
    <name>462.0</name>
  </wpt>
  <wpt lat="51.530426728167036" lon="4.2694501607454391">
    <name>463.0</name>
  </wpt>
  <wpt lat="51.538277180955141" lon="4.2713430000000319">
    <name>464.0</name>
  </wpt>
  <wpt lat="51.545840953681179" lon="4.2666772465171645">
    <name>465.0</name>
  </wpt>
  <wpt lat="51.551387211465823" lon="4.2757836254703578">
    <name>466.0</name>
  </wpt>
  <wpt lat="51.557661006569184" lon="4.2854793881600317">
    <name>467.0</name>
  </wpt>
  <wpt lat="51.565902728145815" lon="4.2852682297026154">
    <name>468.0</name>
  </wpt>
  <wpt lat="51.5739648585473" lon="4.2833790415909592">
    <name>469.0</name>
  </wpt>
  <wpt lat="51.573718323653878" lon="4.2944382510911838">
    <name>470.0</name>
  </wpt>
  <wpt lat="51.57419234947649" lon="4.3088856045547752">
    <name>471.0</name>
  </wpt>
  <wpt lat="51.5753170010543" lon="4.3156020638519">
    <name>472.0</name>
  </wpt>
  <wpt lat="51.581685820343409" lon="4.3157591766340477">
    <name>473.0</name>
  </wpt>
  <wpt lat="51.5875281308722" lon="4.3217218197393672">
    <name>474.0</name>
  </wpt>
  <wpt lat="51.590179265501" lon="4.3326937115600268">
    <name>475.0</name>
  </wpt>
  <wpt lat="51.597962517124145" lon="4.3397481851293058">
    <name>476.0</name>
  </wpt>
  <wpt lat="51.6058036302835" lon="4.3467251552926287">
    <name>477.0</name>
  </wpt>
  <wpt lat="51.613754505280781" lon="4.353439704909305">
    <name>478.0</name>
  </wpt>
  <wpt lat="51.622042048662628" lon="4.3590418129249251">
    <name>479.0</name>
  </wpt>
  <wpt lat="51.629858689763566" lon="4.3643191074204486">
    <name>480.0</name>
  </wpt>
  <wpt lat="51.636856947812461" lon="4.3724466550391909">
    <name>481.0</name>
  </wpt>
  <wpt lat="51.642323962634052" lon="4.382998368229079">
    <name>482.0</name>
  </wpt>
  <wpt lat="51.647159900850518" lon="4.3937943131505657">
    <name>483.0</name>
  </wpt>
  <wpt lat="51.650176160850435" lon="4.405824979275339">
    <name>484.0</name>
  </wpt>
  <wpt lat="51.65678488697278" lon="4.4113617908610969">
    <name>485.0</name>
  </wpt>
  <wpt lat="51.654536063063311" lon="4.4224626194390737">
    <name>486.0</name>
  </wpt>
  <wpt lat="51.661933528291755" lon="4.4304864305933833">
    <name>487.0</name>
  </wpt>
  <wpt lat="51.669282851964041" lon="4.4346396420205867">
    <name>488.0</name>
  </wpt>
  <wpt lat="51.676791205698585" lon="4.4318682056749568">
    <name>489.0</name>
  </wpt>
  <wpt lat="51.682683312234985" lon="4.4399195152078637">
    <name>490.0</name>
  </wpt>
  <wpt lat="51.68955021063767" lon="4.4414899536092616">
    <name>491.0</name>
  </wpt>
  <wpt lat="51.69422261878357" lon="4.4405498913756762">
    <name>492.0</name>
  </wpt>
  <wpt lat="51.696360000554805" lon="4.4306731752575894">
    <name>493.0</name>
  </wpt>
  <wpt lat="51.693003994623687" lon="4.4185066693288286">
    <name>494.0</name>
  </wpt>
  <wpt lat="51.68517936036897" lon="4.4186832697257321">
    <name>495.0</name>
  </wpt>
  <wpt lat="51.686983522116932" lon="4.4106233791818878">
    <name>496.0</name>
  </wpt>
  <wpt lat="51.693794789793344" lon="4.4011657376660294">
    <name>497.0</name>
  </wpt>
  <wpt lat="51.702003074517506" lon="4.3959182634786993">
    <name>498.0</name>
  </wpt>
  <wpt lat="51.710821378740739" lon="4.3978235138051218">
    <name>499.0</name>
  </wpt>
  <wpt lat="51.719210940483457" lon="4.403051819835559">
    <name>500.0</name>
  </wpt>
  <wpt lat="51.727557765743114" lon="4.4083901778348125">
    <name>501.0</name>
  </wpt>
  <wpt lat="51.730358705764807" lon="4.415890619689109">
    <name>502.0</name>
  </wpt>
  <wpt lat="51.726224471051168" lon="4.4276779842305638">
    <name>503.0</name>
  </wpt>
  <wpt lat="51.72918179204644" lon="4.43811219061262">
    <name>504.0</name>
  </wpt>
  <wpt lat="51.73808820645602" lon="4.4398287088717074">
    <name>505.0</name>
  </wpt>
  <wpt lat="51.746758147742284" lon="4.4417541476943674">
    <name>506.0</name>
  </wpt>
  <wpt lat="51.755396946126169" lon="4.4447532077871834">
    <name>507.0</name>
  </wpt>
  <wpt lat="51.76427216399351" lon="4.4437980000000339">
    <name>508.0</name>
  </wpt>
  <wpt lat="51.768909000675528" lon="4.4369513378051435">
    <name>509.0</name>
  </wpt>
  <wpt lat="51.771165494892536" lon="4.4233088852660041">
    <name>510.0</name>
  </wpt>
  <wpt lat="51.776067970943942" lon="4.4112765593301457">
    <name>511.0</name>
  </wpt>
  <wpt lat="51.7808238427858" lon="4.4033846454504468">
    <name>512.0</name>
  </wpt>
  <wpt lat="51.789646052393977" lon="4.4062058330264682">
    <name>513.0</name>
  </wpt>
  <wpt lat="51.79846220132977" lon="4.40904448416293">
    <name>514.0</name>
  </wpt>
  <wpt lat="51.807287503583936" lon="4.4118417012320128">
    <name>515.0</name>
  </wpt>
  <wpt lat="51.815582661470984" lon="4.4147901696217184">
    <name>516.0</name>
  </wpt>
  <wpt lat="51.823407505029444" lon="4.4157687956664784">
    <name>517.0</name>
  </wpt>
  <wpt lat="51.82590834051657" lon="4.4159783794318832">
    <name>518.0</name>
  </wpt>
  <wpt lat="51.823218000022329" lon="4.4297546450141212">
    <name>519.0</name>
  </wpt>
  <wpt lat="51.825030696503326" lon="4.4383155319266594">
    <name>520.0</name>
  </wpt>
  <wpt lat="51.823207044882878" lon="4.4516073853763061">
    <name>521.0</name>
  </wpt>
  <wpt lat="51.8214322043051" lon="4.4658680822291181">
    <name>522.0</name>
  </wpt>
  <wpt lat="51.820282425014746" lon="4.4798436098987295">
    <name>523.0</name>
  </wpt>
  <wpt lat="51.824792743392521" lon="4.4822665353258042">
    <name>524.0</name>
  </wpt>
  <wpt lat="51.820365439821451" lon="4.4938958395562434">
    <name>525.0</name>
  </wpt>
  <wpt lat="51.824627364110846" lon="4.5040726652735641">
    <name>526.0</name>
  </wpt>
  <wpt lat="51.8315982360748" lon="4.5123425524352987">
    <name>527.0</name>
  </wpt>
  <wpt lat="51.839957408940279" lon="4.5153851607982292">
    <name>528.0</name>
  </wpt>
  <wpt lat="51.8433459573986" lon="4.5245474430503654">
    <name>529.0</name>
  </wpt>
  <wpt lat="51.842651369832105" lon="4.5363659999999539">
    <name>530.0</name>
  </wpt>
  <wpt lat="51.8514166033939" lon="4.5363936664438453">
    <name>531.0</name>
  </wpt>
  <wpt lat="51.858598223249686" lon="4.5327580986626765">
    <name>532.0</name>
  </wpt>
  <wpt lat="51.858451210829593" lon="4.5186028748982725">
    <name>533.0</name>
  </wpt>
  <wpt lat="51.859296771422734" lon="4.5091260806800664">
    <name>534.0</name>
  </wpt>
  <wpt lat="51.864911673037923" lon="4.5034720300904016">
    <name>535.0</name>
  </wpt>
  <wpt lat="51.873529589415028" lon="4.500919034683232">
    <name>536.0</name>
  </wpt>
  <wpt lat="51.87945427846492" lon="4.5096851931805055">
    <name>537.0</name>
  </wpt>
  <wpt lat="51.882929818950146" lon="4.5213274934185348">
    <name>538.0</name>
  </wpt>
  <wpt lat="51.891438969202241" lon="4.5202291315176035">
    <name>539.0</name>
  </wpt>
  <wpt lat="51.899403636107522" lon="4.5140331951010433">
    <name>540.0</name>
  </wpt>
  <wpt lat="51.9040191582825" lon="4.5036531810488682">
    <name>541.0</name>
  </wpt>
  <wpt lat="51.908209754276406" lon="4.4915395482003841">
    <name>542.0</name>
  </wpt>
  <wpt lat="51.913378137731662" lon="4.4822243368325125">
    <name>543.0</name>
  </wpt>
  <wpt lat="51.921902840525519" lon="4.4792376857295606">
    <name>544.0</name>
  </wpt>
</gpx>