<?xml version="1.0" encoding="utf-8"?>
<gpx xmlns:xsi="http://www.w3.org/2001/XMLSchema-instance" xsi:schemaLocation="http://www.topografix.com/GPX/1/1 http://www.topografix.com/GPX/1/1/gpx.xsd" version="1.1" creator="Roparun" xmlns="http://www.topografix.com/GPX/1/1">
  <wpt lat="49.773551243471438" lon="3.2790654476212326">
    <name>Samenkomst B voertuigen 1</name>
  </wpt>
  <wpt lat="49.802401331236325" lon="3.3263586885438281">
    <name>Samenkomst B voertuigen 2</name>
  </wpt>
  <wpt lat="50.027444193529163" lon="3.4608043661080128">
    <name>Samenkomst B voertuigen 3</name>
  </wpt>
  <wpt lat="50.774179791513724" lon="3.8919596820138698">
    <name>Samenkomst B voertuigen 4</name>
  </wpt>
  <wpt lat="50.785481366372181" lon="3.916409719975074">
    <name>Samenkomst B voertuigen 5</name>
  </wpt>
  <wpt lat="50.833037792676606" lon="4.0243291734166116">
    <name>Samenkomst B voertuigen 6</name>
  </wpt>
  <wpt lat="50.875572188329208" lon="4.0205521970028437">
    <name>Samenkomst B voertuigen 7</name>
  </wpt>
  <wpt lat="50.926228669084935" lon="4.0514756618368484">
    <name>Samenkomst B voertuigen 8</name>
  </wpt>
  <wpt lat="50.943177329375835" lon="4.0576190446695692">
    <name>Samenkomst B voertuigen 9</name>
  </wpt>
  <wpt lat="50.9495762538848" lon="4.1002996959566973">
    <name>Samenkomst B voertuigen 10</name>
  </wpt>
  <wpt lat="50.972536187610231" lon="4.169235745390977">
    <name>Samenkomst B voertuigen 11</name>
  </wpt>
  <wpt lat="50.999896773017866" lon="4.1756335354928975">
    <name>Samenkomst B voertuigen 12</name>
  </wpt>
  <wpt lat="51.021774000030966" lon="4.114252194494652">
    <name>Samenkomst B voertuigen 13</name>
  </wpt>
  <wpt lat="51.039024299643707" lon="4.1020630441659343">
    <name>Samenkomst B voertuigen 14</name>
  </wpt>
  <wpt lat="51.0712489883354" lon="4.0352426917992616">
    <name>Samenkomst B voertuigen 15</name>
  </wpt>
  <wpt lat="51.110431513499584" lon="4.1423633545334813">
    <name>Samenkomst B voertuigen 16</name>
  </wpt>
  <wpt lat="51.113924913207043" lon="4.1431782848958125">
    <name>Samenkomst B voertuigen 17</name>
  </wpt>
  <wpt lat="51.175399913351718" lon="4.3178641836155469">
    <name>Samenkomst B voertuigen 18</name>
  </wpt>
  <wpt lat="51.191709137870227" lon="4.3226082756916684">
    <name>Samenkomst B voertuigen 19</name>
  </wpt>
  <wpt lat="51.234934000100132" lon="4.4204213938588648">
    <name>Samenkomst B voertuigen 20</name>
  </wpt>
  <wpt lat="51.471018949488176" lon="4.6678099354678242">
    <name>Samenkomst B voertuigen 21</name>
  </wpt>
  <wpt lat="51.473570935068935" lon="4.67513299999998">
    <name>Samenkomst B voertuigen 22</name>
  </wpt>
  <wpt lat="51.47623866983804" lon="4.6695717380532837">
    <name>Samenkomst B voertuigen 23</name>
  </wpt>
  <wpt lat="51.544303907024911" lon="4.9414278997582253">
    <name>Samenkomst B voertuigen 24</name>
  </wpt>
  <wpt lat="51.576602540784464" lon="4.9827626003299264">
    <name>Samenkomst B voertuigen 25</name>
  </wpt>
  <wpt lat="51.608624753078374" lon="4.9877142709946725">
    <name>Samenkomst B voertuigen 26</name>
  </wpt>
  <wpt lat="51.618337502683183" lon="4.95127153222253">
    <name>Samenkomst B voertuigen 27</name>
  </wpt>
  <wpt lat="51.629219000000425" lon="4.9386318102966387">
    <name>Samenkomst B voertuigen 28</name>
  </wpt>
  <wpt lat="51.623448167817266" lon="4.9236483621350775">
    <name>Samenkomst B voertuigen 29</name>
  </wpt>
  <wpt lat="51.6251431344666" lon="4.9232965176189429">
    <name>Samenkomst B voertuigen 30</name>
  </wpt>
  <wpt lat="51.619354675344518" lon="4.9134523790732247">
    <name>Samenkomst B voertuigen 31</name>
  </wpt>
  <wpt lat="51.582478146706556" lon="4.9072751760164648">
    <name>Samenkomst B voertuigen 32</name>
  </wpt>
  <wpt lat="51.56834058041423" lon="4.8196739487298546">
    <name>Samenkomst B voertuigen 33</name>
  </wpt>
  <wpt lat="51.573704550973673" lon="4.7833322345428071">
    <name>Samenkomst B voertuigen 34</name>
  </wpt>
  <wpt lat="51.572008037815863" lon="4.7774850261111963">
    <name>Samenkomst B voertuigen 35</name>
  </wpt>
  <wpt lat="51.562938691639431" lon="4.7570703458447392">
    <name>Samenkomst B voertuigen 36</name>
  </wpt>
  <wpt lat="51.567069324616156" lon="4.7432915951749282">
    <name>Samenkomst B voertuigen 37</name>
  </wpt>
  <wpt lat="51.577331372291063" lon="4.7391303640173641">
    <name>Samenkomst B voertuigen 38</name>
  </wpt>
  <wpt lat="51.5779997182918" lon="4.7224941305003982">
    <name>Samenkomst B voertuigen 39</name>
  </wpt>
  <wpt lat="51.570221361521916" lon="4.6380401794045572">
    <name>Samenkomst B voertuigen 40</name>
  </wpt>
  <wpt lat="51.550298290715936" lon="4.5865141628593369">
    <name>Samenkomst B voertuigen 41</name>
  </wpt>
  <wpt lat="51.587789183615214" lon="4.4597239173965217">
    <name>Samenkomst B voertuigen 42</name>
  </wpt>
  <wpt lat="51.566267376874187" lon="4.4711414754981">
    <name>Samenkomst B voertuigen 43</name>
  </wpt>
  <wpt lat="51.520220824417272" lon="4.4791505016030637">
    <name>Samenkomst B voertuigen 44</name>
  </wpt>
  <wpt lat="51.525992887178823" lon="4.46579200000003">
    <name>Samenkomst B voertuigen 45</name>
  </wpt>
  <wpt lat="51.5302227702145" lon="4.4469507741594052">
    <name>Samenkomst B voertuigen 46</name>
  </wpt>
  <wpt lat="51.507292863275673" lon="4.4162838531332751">
    <name>Samenkomst B voertuigen 47</name>
  </wpt>
  <wpt lat="51.443467246222895" lon="4.3126142266139533">
    <name>Samenkomst B voertuigen 48</name>
  </wpt>
  <wpt lat="51.483057156521284" lon="4.2799793749516546">
    <name>Samenkomst B voertuigen 49</name>
  </wpt>
  <wpt lat="51.489845580411419" lon="4.285497565437046">
    <name>Samenkomst B voertuigen 50</name>
  </wpt>
  <wpt lat="51.497376933040833" lon="4.2840345806354065">
    <name>Samenkomst B voertuigen 51</name>
  </wpt>
  <wpt lat="51.499472881584545" lon="4.28183912693508">
    <name>Samenkomst B voertuigen 52</name>
  </wpt>
  <wpt lat="51.51216534419526" lon="4.2786990226965491">
    <name>Samenkomst B voertuigen 53</name>
  </wpt>
  <wpt lat="51.573110948018332" lon="4.31072751486772">
    <name>Samenkomst B voertuigen 54</name>
  </wpt>
  <wpt lat="51.578886282594112" lon="4.3170483789351195">
    <name>Samenkomst B voertuigen 55</name>
  </wpt>
  <wpt lat="51.586258100287459" lon="4.31574133069399">
    <name>Samenkomst B voertuigen 56</name>
  </wpt>
  <wpt lat="51.645970114219452" lon="4.3922093735986785">
    <name>Samenkomst B voertuigen 57</name>
  </wpt>
  <wpt lat="51.777901178531252" lon="4.4025475829616294">
    <name>Samenkomst B voertuigen 58</name>
  </wpt>
  <wpt lat="51.823260546856524" lon="4.4295515807379982">
    <name>Samenkomst B voertuigen 60</name>
  </wpt>
</gpx>