<?xml version="1.0" encoding="utf-8"?>
<gpx xmlns:xsi="http://www.w3.org/2001/XMLSchema-instance" xsi:schemaLocation="http://www.topografix.com/GPX/1/1 http://www.topografix.com/GPX/1/1/gpx.xsd" version="1.1" creator="Roparun" xmlns="http://www.topografix.com/GPX/1/1">
  <wpt lat="49.759001" lon="3.223914">
    <name>Splitsing B voertuigen 1</name>
  </wpt>
  <wpt lat="49.798998209485681" lon="3.3210474189078441">
    <name>Splitsing B voertuigen 2</name>
  </wpt>
  <wpt lat="49.990307927284853" lon="3.4519548961282331">
    <name>Splitsing B voertuigen 3</name>
  </wpt>
  <wpt lat="50.773891466779091" lon="3.8868465332283986">
    <name>Splitsing B voertuigen 4</name>
  </wpt>
  <wpt lat="50.782658374903278" lon="3.9114492894294739">
    <name>Splitsing B voertuigen 5</name>
  </wpt>
  <wpt lat="50.825853919190394" lon="4.0147651202877555">
    <name>Splitsing B voertuigen 6</name>
  </wpt>
  <wpt lat="50.872204086109051" lon="4.0185914541076952">
    <name>Splitsing B voertuigen 7</name>
  </wpt>
  <wpt lat="50.919499028840193" lon="4.0551166319719183">
    <name>Splitsing B voertuigen 8</name>
  </wpt>
  <wpt lat="50.943114859750359" lon="4.0574691402570613">
    <name>Splitsing B voertuigen 9</name>
  </wpt>
  <wpt lat="50.949504644766066" lon="4.09826457347895">
    <name>Splitsing B voertuigen 10</name>
  </wpt>
  <wpt lat="50.971702899703452" lon="4.1682774991974476">
    <name>Splitsing B voertuigen 11</name>
  </wpt>
  <wpt lat="50.998788926180644" lon="4.1767188715804213">
    <name>Splitsing B voertuigen 12</name>
  </wpt>
  <wpt lat="51.021495733122315" lon="4.1185388189542751">
    <name>Splitsing B voertuigen 13</name>
  </wpt>
  <wpt lat="51.0331496011225" lon="4.1018490000000076">
    <name>Splitsing B voertuigen 14</name>
  </wpt>
  <wpt lat="51.068466000000768" lon="4.0478167751792578">
    <name>Splitsing B voertuigen 15</name>
  </wpt>
  <wpt lat="51.10067360674806" lon="4.1415719205844033">
    <name>Splitsing B voertuigen 16</name>
  </wpt>
  <wpt lat="51.112085999085039" lon="4.1425428423161916">
    <name>Splitsing B voertuigen 17</name>
  </wpt>
  <wpt lat="51.170242808406826" lon="4.3122089489767212">
    <name>Splitsing B voertuigen 18</name>
  </wpt>
  <wpt lat="51.1803394222144" lon="4.3174998554832529">
    <name>Splitsing B voertuigen 19</name>
  </wpt>
  <wpt lat="51.220620106672314" lon="4.3876893812523043">
    <name>Splitsing B voertuigen 20</name>
  </wpt>
  <wpt lat="51.4676554805677" lon="4.6566289960480658">
    <name>Splitsing B voertuigen 21</name>
  </wpt>
  <wpt lat="51.472388485100694" lon="4.6717032971443189">
    <name>Splitsing B voertuigen 22</name>
  </wpt>
  <wpt lat="51.475195740576915" lon="4.6722588696445495">
    <name>Splitsing B voertuigen 23</name>
  </wpt>
  <wpt lat="51.542314943014226" lon="4.9394898175341391">
    <name>Splitsing B voertuigen 24</name>
  </wpt>
  <wpt lat="51.567514711762271" lon="4.9768620719478669">
    <name>Splitsing B voertuigen 25</name>
  </wpt>
  <wpt lat="51.588538774287166" lon="4.9842209797328634">
    <name>Splitsing B voertuigen 26</name>
  </wpt>
  <wpt lat="51.618262251708408" lon="4.95144222259262">
    <name>Splitsing B voertuigen 27</name>
  </wpt>
  <wpt lat="51.622016852317216" lon="4.9445857607797086">
    <name>Splitsing B voertuigen 28</name>
  </wpt>
  <wpt lat="51.624415551902445" lon="4.9314629777200949">
    <name>Splitsing B voertuigen 29</name>
  </wpt>
  <wpt lat="51.623480165282523" lon="4.9231620000000342">
    <name>Splitsing B voertuigen 30</name>
  </wpt>
  <wpt lat="51.626188901369389" lon="4.9217906054080531">
    <name>Splitsing B voertuigen 31</name>
  </wpt>
  <wpt lat="51.588324147308725" lon="4.9125383332501329">
    <name>Splitsing B voertuigen 32</name>
  </wpt>
  <wpt lat="51.5684998446355" lon="4.8222242724089064">
    <name>Splitsing B voertuigen 33</name>
  </wpt>
  <wpt lat="51.567352495703922" lon="4.7868357506363353">
    <name>Splitsing B voertuigen 34</name>
  </wpt>
  <wpt lat="51.572016492414427" lon="4.7776220952946291">
    <name>Splitsing B voertuigen 35</name>
  </wpt>
  <wpt lat="51.562873453045142" lon="4.7571811592436379">
    <name>Splitsing B voertuigen 36</name>
  </wpt>
  <wpt lat="51.565740010649925" lon="4.7465253921330133">
    <name>Splitsing B voertuigen 37</name>
  </wpt>
  <wpt lat="51.575240692371906" lon="4.7424393850497673">
    <name>Splitsing B voertuigen 38</name>
  </wpt>
  <wpt lat="51.577589861117744" lon="4.7349932459555335">
    <name>Splitsing B voertuigen 39</name>
  </wpt>
  <wpt lat="51.570446000018919" lon="4.6396559315952555">
    <name>Splitsing B voertuigen 40</name>
  </wpt>
  <wpt lat="51.548606287770156" lon="4.5874308295406037">
    <name>Splitsing B voertuigen 41</name>
  </wpt>
  <wpt lat="51.5836421682512" lon="4.4671371875390706">
    <name>Splitsing B voertuigen 42</name>
  </wpt>
  <wpt lat="51.582572129110439" lon="4.4545903013924759">
    <name>Splitsing B voertuigen 43</name>
  </wpt>
  <wpt lat="51.523282130292287" lon="4.47971454138187">
    <name>Splitsing B voertuigen 44</name>
  </wpt>
  <wpt lat="51.516115863786588" lon="4.4748252812057112">
    <name>Splitsing B voertuigen 45</name>
  </wpt>
  <wpt lat="51.531507357762287" lon="4.4597499817324273">
    <name>Splitsing B voertuigen 46</name>
  </wpt>
  <wpt lat="51.513610853418086" lon="4.4272383156891344">
    <name>Splitsing B voertuigen 47</name>
  </wpt>
  <wpt lat="51.42325538366476" lon="4.3316600000000349">
    <name>Splitsing B voertuigen 48</name>
  </wpt>
  <wpt lat="51.475539310077167" lon="4.2907003120693155">
    <name>Splitsing B voertuigen 49</name>
  </wpt>
  <wpt lat="51.483107747829472" lon="4.2801801827794428">
    <name>Splitsing B voertuigen 50</name>
  </wpt>
  <wpt lat="51.493351595663533" lon="4.28678875973875">
    <name>Splitsing B voertuigen 51</name>
  </wpt>
  <wpt lat="51.498783654441915" lon="4.2825406489541749">
    <name>Splitsing B voertuigen 52</name>
  </wpt>
  <wpt lat="51.511401592134263" lon="4.2790236446108727">
    <name>Splitsing B voertuigen 53</name>
  </wpt>
  <wpt lat="51.521190671525368" lon="4.2752366261117105">
    <name>Splitsing B voertuigen 54</name>
  </wpt>
  <wpt lat="51.578085000238531" lon="4.3170561197722579">
    <name>Splitsing B voertuigen 55</name>
  </wpt>
  <wpt lat="51.585365299177774" lon="4.3159428506905142">
    <name>Splitsing B voertuigen 56</name>
  </wpt>
  <wpt lat="51.628069575482812" lon="4.3640460677917181">
    <name>Splitsing B voertuigen 57</name>
  </wpt>
  <wpt lat="51.646186281514424" lon="4.3924069999999569">
    <name>Splitsing B voertuigen 58</name>
  </wpt>
  <wpt lat="51.812984631919633" lon="4.4134145354728869">
    <name>Splitsing B voertuigen 59</name>
  </wpt>
  <wpt lat="51.82320798647396" lon="4.416985938189427">
    <name>Splitsing B voertuigen 60</name>
  </wpt>
</gpx>