<?xml version="1.0" encoding="utf-8"?>
<gpx xmlns:xsi="http://www.w3.org/2001/XMLSchema-instance" xsi:schemaLocation="http://www.topografix.com/GPX/1/1 http://www.topografix.com/GPX/1/1/gpx.xsd" version="1.1" creator="Roparun" xmlns="http://www.topografix.com/GPX/1/1">
  <wpt lat="49.759001" lon="3.223914">
    <name>Splitsing B voertuigen 1</name>
  </wpt>
  <wpt lat="49.798998144167825" lon="3.32104728827254">
    <name>Splitsing B voertuigen 2</name>
  </wpt>
  <wpt lat="49.990298340705621" lon="3.4519408283944237">
    <name>Splitsing B voertuigen 3</name>
  </wpt>
  <wpt lat="50.743514624049453" lon="3.9228894061238151">
    <name>Splitsing B voertuigen 4</name>
  </wpt>
  <wpt lat="50.773885143623573" lon="3.8868528563957288">
    <name>Splitsing B voertuigen 5</name>
  </wpt>
  <wpt lat="50.782663788033538" lon="3.9114598181300648">
    <name>Splitsing B voertuigen 6</name>
  </wpt>
  <wpt lat="50.825852261725544" lon="4.0147664369625868">
    <name>Splitsing B voertuigen 7</name>
  </wpt>
  <wpt lat="50.872209209615662" lon="4.0185907987774554">
    <name>Splitsing B voertuigen 8</name>
  </wpt>
  <wpt lat="50.919502404850029" lon="4.0551225596058753">
    <name>Splitsing B voertuigen 9</name>
  </wpt>
  <wpt lat="50.9431096359758" lon="4.0574725372374463">
    <name>Splitsing B voertuigen 10</name>
  </wpt>
  <wpt lat="50.949507437280865" lon="4.0982627261236333">
    <name>Splitsing B voertuigen 11</name>
  </wpt>
  <wpt lat="50.971699986861168" lon="4.16827620124728">
    <name>Splitsing B voertuigen 12</name>
  </wpt>
  <wpt lat="50.998786224881989" lon="4.1767214526653778">
    <name>Splitsing B voertuigen 13</name>
  </wpt>
  <wpt lat="51.02149621393459" lon="4.11853607684898">
    <name>Splitsing B voertuigen 14</name>
  </wpt>
  <wpt lat="51.031494000007534" lon="4.0987570618353724">
    <name>Splitsing B voertuigen 15</name>
  </wpt>
  <wpt lat="51.068466000005905" lon="4.0478281322850851">
    <name>Splitsing B voertuigen 16</name>
  </wpt>
  <wpt lat="51.100650402543742" lon="4.1415719341712247">
    <name>Splitsing B voertuigen 17</name>
  </wpt>
  <wpt lat="51.112096838887716" lon="4.1425442012404936">
    <name>Splitsing B voertuigen 18</name>
  </wpt>
  <wpt lat="51.170260780349174" lon="4.3122207394148546">
    <name>Splitsing B voertuigen 19</name>
  </wpt>
  <wpt lat="51.180314492570012" lon="4.317497266864402">
    <name>Splitsing B voertuigen 20</name>
  </wpt>
  <wpt lat="51.220596710537833" lon="4.387675314438261">
    <name>Splitsing B voertuigen 21</name>
  </wpt>
  <wpt lat="51.46768068025473" lon="4.65665293721309">
    <name>Splitsing B voertuigen 22</name>
  </wpt>
  <wpt lat="51.472390777095661" lon="4.6716807294365443">
    <name>Splitsing B voertuigen 23</name>
  </wpt>
  <wpt lat="51.475187673237812" lon="4.6722835609649209">
    <name>Splitsing B voertuigen 24</name>
  </wpt>
  <wpt lat="51.51823684245695" lon="4.7028577890125529">
    <name>Splitsing B voertuigen 25</name>
  </wpt>
  <wpt lat="51.542314443888813" lon="4.9394714469598053">
    <name>Splitsing B voertuigen 26</name>
  </wpt>
  <wpt lat="51.567546569101204" lon="4.9768783932383016">
    <name>Splitsing B voertuigen 27</name>
  </wpt>
  <wpt lat="51.588532205858478" lon="4.9842062453192719">
    <name>Splitsing B voertuigen 28</name>
  </wpt>
  <wpt lat="51.618254291679" lon="4.9514441254044952">
    <name>Splitsing B voertuigen 29</name>
  </wpt>
  <wpt lat="51.622031507651805" lon="4.94456105146839">
    <name>Splitsing B voertuigen 30</name>
  </wpt>
  <wpt lat="51.624401457961746" lon="4.9314507262980651">
    <name>Splitsing B voertuigen 31</name>
  </wpt>
  <wpt lat="51.623467478674137" lon="4.923174808183199">
    <name>Splitsing B voertuigen 32</name>
  </wpt>
  <wpt lat="51.626186996982113" lon="4.9218127373389224">
    <name>Splitsing B voertuigen 33</name>
  </wpt>
  <wpt lat="51.588306850678769" lon="4.9125147782518761">
    <name>Splitsing B voertuigen 34</name>
  </wpt>
  <wpt lat="51.568522107002572" lon="4.8221982181168368">
    <name>Splitsing B voertuigen 35</name>
  </wpt>
  <wpt lat="51.567347881026144" lon="4.7868518840307956">
    <name>Splitsing B voertuigen 36</name>
  </wpt>
  <wpt lat="51.572013000009051" lon="4.7775680657100148">
    <name>Splitsing B voertuigen 37</name>
  </wpt>
  <wpt lat="51.5628670832462" lon="4.7571664939712344">
    <name>Splitsing B voertuigen 38</name>
  </wpt>
  <wpt lat="51.565735644340791" lon="4.7465311911303782">
    <name>Splitsing B voertuigen 39</name>
  </wpt>
  <wpt lat="51.57523623631382" lon="4.742445004767661">
    <name>Splitsing B voertuigen 40</name>
  </wpt>
  <wpt lat="51.577588529769145" lon="4.7350021007909566">
    <name>Splitsing B voertuigen 41</name>
  </wpt>
  <wpt lat="51.570446000016567" lon="4.639663622899505">
    <name>Splitsing B voertuigen 42</name>
  </wpt>
  <wpt lat="51.548605453294968" lon="4.58742655781486">
    <name>Splitsing B voertuigen 43</name>
  </wpt>
  <wpt lat="51.583641748497129" lon="4.4671337495332963">
    <name>Splitsing B voertuigen 44</name>
  </wpt>
  <wpt lat="51.582569995837979" lon="4.4545910010405132">
    <name>Splitsing B voertuigen 45</name>
  </wpt>
  <wpt lat="51.523286498358871" lon="4.47973621582837">
    <name>Splitsing B voertuigen 46</name>
  </wpt>
  <wpt lat="51.516106902010115" lon="4.4747779902306482">
    <name>Splitsing B voertuigen 47</name>
  </wpt>
  <wpt lat="51.531512436253784" lon="4.4597834675815466">
    <name>Splitsing B voertuigen 48</name>
  </wpt>
  <wpt lat="51.513593342589253" lon="4.4271852881058571">
    <name>Splitsing B voertuigen 49</name>
  </wpt>
  <wpt lat="51.422652177976921" lon="4.3245851779709383">
    <name>Splitsing B voertuigen 50</name>
  </wpt>
  <wpt lat="51.443495038964024" lon="4.31259196107821">
    <name>Splitsing B voertuigen 51</name>
  </wpt>
  <wpt lat="51.475537440912014" lon="4.2906858048345518">
    <name>Splitsing B voertuigen 52</name>
  </wpt>
  <wpt lat="51.483111208324736" lon="4.2801939182437065">
    <name>Splitsing B voertuigen 53</name>
  </wpt>
  <wpt lat="51.493336794780213" lon="4.286783205337338">
    <name>Splitsing B voertuigen 54</name>
  </wpt>
  <wpt lat="51.498766082847794" lon="4.282530808875733">
    <name>Splitsing B voertuigen 55</name>
  </wpt>
  <wpt lat="51.511395000004867" lon="4.2790085170621994">
    <name>Splitsing B voertuigen 56</name>
  </wpt>
  <wpt lat="51.521199099297533" lon="4.2751936846492935">
    <name>Splitsing B voertuigen 57</name>
  </wpt>
  <wpt lat="51.578105157287091" lon="4.3170684812553217">
    <name>Splitsing B voertuigen 58</name>
  </wpt>
  <wpt lat="51.585351599720973" lon="4.3159665997104435">
    <name>Splitsing B voertuigen 59</name>
  </wpt>
  <wpt lat="51.6280602971324" lon="4.364050599080036">
    <name>Splitsing B voertuigen 60</name>
  </wpt>
  <wpt lat="51.646176586156393" lon="4.3924069999999569">
    <name>Splitsing B voertuigen 61</name>
  </wpt>
  <wpt lat="51.81299333167523" lon="4.413417390076793">
    <name>Splitsing B voertuigen 62</name>
  </wpt>
  <wpt lat="51.823239164747136" lon="4.4169958037013144">
    <name>Splitsing B voertuigen 63</name>
  </wpt>
</gpx>