<?xml version="1.0" encoding="utf-8"?>
<gpx xmlns:xsi="http://www.w3.org/2001/XMLSchema-instance" xsi:schemaLocation="http://www.topografix.com/GPX/1/1 http://www.topografix.com/GPX/1/1/gpx.xsd" version="1.1" creator="Roparun" xmlns="http://www.topografix.com/GPX/1/1">
  <wpt lat="49.773551150339379" lon="3.2790653671180858">
    <name>Samenkomst B voertuigen 1</name>
  </wpt>
  <wpt lat="49.802401299745817" lon="3.3263585306540708">
    <name>Samenkomst B voertuigen 2</name>
  </wpt>
  <wpt lat="50.027432509590653" lon="3.4608183723029238">
    <name>Samenkomst B voertuigen 3</name>
  </wpt>
  <wpt lat="50.743693888692981" lon="3.9225932369819683">
    <name>Samenkomst B voertuigen 4</name>
  </wpt>
  <wpt lat="50.774187554806723" lon="3.89196545935069">
    <name>Samenkomst B voertuigen 5</name>
  </wpt>
  <wpt lat="50.785484220101857" lon="3.91642241763778">
    <name>Samenkomst B voertuigen 6</name>
  </wpt>
  <wpt lat="50.833020750686394" lon="4.0242723476327447">
    <name>Samenkomst B voertuigen 7</name>
  </wpt>
  <wpt lat="50.875576134134434" lon="4.0205469764048685">
    <name>Samenkomst B voertuigen 8</name>
  </wpt>
  <wpt lat="50.926229047832415" lon="4.0514749043421032">
    <name>Samenkomst B voertuigen 9</name>
  </wpt>
  <wpt lat="50.943179513858112" lon="4.0576157933461721">
    <name>Samenkomst B voertuigen 10</name>
  </wpt>
  <wpt lat="50.949577506869119" lon="4.1002953250797818">
    <name>Samenkomst B voertuigen 11</name>
  </wpt>
  <wpt lat="50.972533840629367" lon="4.1692323026344207">
    <name>Samenkomst B voertuigen 12</name>
  </wpt>
  <wpt lat="50.999894261898518" lon="4.1756365629166439">
    <name>Samenkomst B voertuigen 13</name>
  </wpt>
  <wpt lat="51.021774000031655" lon="4.1142493478293085">
    <name>Samenkomst B voertuigen 14</name>
  </wpt>
  <wpt lat="51.039017444110321" lon="4.1020632251558817">
    <name>Samenkomst B voertuigen 15</name>
  </wpt>
  <wpt lat="51.071278681757128" lon="4.0351970584042141">
    <name>Samenkomst B voertuigen 16</name>
  </wpt>
  <wpt lat="51.110442343517875" lon="4.1423648987037707">
    <name>Samenkomst B voertuigen 17</name>
  </wpt>
  <wpt lat="51.113931782464995" lon="4.1431917111770842">
    <name>Samenkomst B voertuigen 18</name>
  </wpt>
  <wpt lat="51.175402234581348" lon="4.3178325309602856">
    <name>Samenkomst B voertuigen 19</name>
  </wpt>
  <wpt lat="51.191692174443176" lon="4.3225882896859282">
    <name>Samenkomst B voertuigen 20</name>
  </wpt>
  <wpt lat="51.234934000071853" lon="4.4203986391330492">
    <name>Samenkomst B voertuigen 21</name>
  </wpt>
  <wpt lat="51.471016633608443" lon="4.6677895230762108">
    <name>Samenkomst B voertuigen 22</name>
  </wpt>
  <wpt lat="51.4735650031817" lon="4.6751146472130385">
    <name>Samenkomst B voertuigen 23</name>
  </wpt>
  <wpt lat="51.476263005914916" lon="4.6695920059035974">
    <name>Samenkomst B voertuigen 24</name>
  </wpt>
  <wpt lat="51.518629637957304" lon="4.7058634694645427">
    <name>Samenkomst B voertuigen 25</name>
  </wpt>
  <wpt lat="51.544292735820513" lon="4.9414239638910153">
    <name>Samenkomst B voertuigen 26</name>
  </wpt>
  <wpt lat="51.576591583684625" lon="4.9827678710059118">
    <name>Samenkomst B voertuigen 27</name>
  </wpt>
  <wpt lat="51.608649932677537" lon="4.9877098274821323">
    <name>Samenkomst B voertuigen 28</name>
  </wpt>
  <wpt lat="51.618327651397394" lon="4.9512480980591942">
    <name>Samenkomst B voertuigen 29</name>
  </wpt>
  <wpt lat="51.629199171935717" lon="4.9386431445965151">
    <name>Samenkomst B voertuigen 30</name>
  </wpt>
  <wpt lat="51.623444683456441" lon="4.9236769999999588">
    <name>Samenkomst B voertuigen 31</name>
  </wpt>
  <wpt lat="51.625124880455779" lon="4.9232902382262234">
    <name>Samenkomst B voertuigen 32</name>
  </wpt>
  <wpt lat="51.619349020065755" lon="4.9134639589130424">
    <name>Samenkomst B voertuigen 33</name>
  </wpt>
  <wpt lat="51.582661733781265" lon="4.9072054879262641">
    <name>Samenkomst B voertuigen 34</name>
  </wpt>
  <wpt lat="51.568343517053" lon="4.81969116816415">
    <name>Samenkomst B voertuigen 35</name>
  </wpt>
  <wpt lat="51.5737050456821" lon="4.7833439999999987">
    <name>Samenkomst B voertuigen 36</name>
  </wpt>
  <wpt lat="51.572013000020014" lon="4.7774957183685292">
    <name>Samenkomst B voertuigen 37</name>
  </wpt>
  <wpt lat="51.562930013792929" lon="4.7570815351601752">
    <name>Samenkomst B voertuigen 38</name>
  </wpt>
  <wpt lat="51.56706450346406" lon="4.7432963716863528">
    <name>Samenkomst B voertuigen 39</name>
  </wpt>
  <wpt lat="51.5773334638379" lon="4.73913882981599">
    <name>Samenkomst B voertuigen 40</name>
  </wpt>
  <wpt lat="51.577999861868882" lon="4.7225032379550154">
    <name>Samenkomst B voertuigen 41</name>
  </wpt>
  <wpt lat="51.57020342444757" lon="4.6380276358426258">
    <name>Samenkomst B voertuigen 42</name>
  </wpt>
  <wpt lat="51.550299329349123" lon="4.586518317376501">
    <name>Samenkomst B voertuigen 43</name>
  </wpt>
  <wpt lat="51.58778851651406" lon="4.4597205818834862">
    <name>Samenkomst B voertuigen 44</name>
  </wpt>
  <wpt lat="51.566381879543542" lon="4.4714286361219528">
    <name>Samenkomst B voertuigen 45</name>
  </wpt>
  <wpt lat="51.520205366706477" lon="4.4791199676982947">
    <name>Samenkomst B voertuigen 46</name>
  </wpt>
  <wpt lat="51.525978696574214" lon="4.4657926808746522">
    <name>Samenkomst B voertuigen 47</name>
  </wpt>
  <wpt lat="51.530229949126522" lon="4.4469514937305386">
    <name>Samenkomst B voertuigen 48</name>
  </wpt>
  <wpt lat="51.507298694652931" lon="4.4162905749563164">
    <name>Samenkomst B voertuigen 49</name>
  </wpt>
  <wpt lat="51.434757355587507" lon="4.3186338577521388">
    <name>Samenkomst B voertuigen 50</name>
  </wpt>
  <wpt lat="51.446118375827439" lon="4.3117427509236723">
    <name>Samenkomst B voertuigen 51</name>
  </wpt>
  <wpt lat="51.48304416456115" lon="4.2799259193330936">
    <name>Samenkomst B voertuigen 52</name>
  </wpt>
  <wpt lat="51.489859755884872" lon="4.2854868362163749">
    <name>Samenkomst B voertuigen 53</name>
  </wpt>
  <wpt lat="51.497354145079214" lon="4.2840538549854719">
    <name>Samenkomst B voertuigen 54</name>
  </wpt>
  <wpt lat="51.499457039934519" lon="4.2818486023004878">
    <name>Samenkomst B voertuigen 55</name>
  </wpt>
  <wpt lat="51.512148576720037" lon="4.2787024702083656">
    <name>Samenkomst B voertuigen 56</name>
  </wpt>
  <wpt lat="51.573119079923117" lon="4.3107038584256454">
    <name>Samenkomst B voertuigen 57</name>
  </wpt>
  <wpt lat="51.578914440926653" lon="4.31704747007732">
    <name>Samenkomst B voertuigen 58</name>
  </wpt>
  <wpt lat="51.586248784446688" lon="4.3157459402820679">
    <name>Samenkomst B voertuigen 59</name>
  </wpt>
  <wpt lat="51.645961165434883" lon="4.392203361134392">
    <name>Samenkomst B voertuigen 60</name>
  </wpt>
  <wpt lat="51.777904588023233" lon="4.4025344099405483">
    <name>Samenkomst B voertuigen 61</name>
  </wpt>
  <wpt lat="51.823268672763" lon="4.429526616360544">
    <name>Samenkomst B voertuigen 63</name>
  </wpt>
</gpx>