<?xml version="1.0" encoding="utf-8"?>
<gpx xmlns:xsi="http://www.w3.org/2001/XMLSchema-instance" xsi:schemaLocation="http://www.topografix.com/GPX/1/1 http://www.topografix.com/GPX/1/1/gpx.xsd" version="1.1" creator="Roparun" xmlns="http://www.topografix.com/GPX/1/1">
  <wpt lat="50.33157181367811" lon="3.5752197229177209">
    <name>94.79</name>
  </wpt>
  <wpt lat="50.331826482762708" lon="3.5752835757604768">
    <name>94.8</name>
  </wpt>
  <wpt lat="50.33271071681088" lon="3.5751137216743412">
    <name>94.9</name>
  </wpt>
  <wpt lat="50.333601200935796" lon="3.5749210472842372">
    <name>95.0</name>
  </wpt>
  <wpt lat="50.334466687102783" lon="3.5745473854862011">
    <name>95.1</name>
  </wpt>
  <wpt lat="50.335364452624127" lon="3.5744864440627442">
    <name>95.2</name>
  </wpt>
  <wpt lat="50.336256625670963" lon="3.5743480863213977">
    <name>95.3</name>
  </wpt>
  <wpt lat="50.336547325600321" lon="3.5754462443257724">
    <name>95.4</name>
  </wpt>
  <wpt lat="50.336472522524673" lon="3.5768245293353318">
    <name>95.5</name>
  </wpt>
  <wpt lat="50.336346785930687" lon="3.5781701134947319">
    <name>95.6</name>
  </wpt>
  <wpt lat="50.336429127894434" lon="3.5795444851858407">
    <name>95.7</name>
  </wpt>
  <wpt lat="50.3361517732021" lon="3.5808845946052732">
    <name>95.8</name>
  </wpt>
  <wpt lat="50.336017779127047" lon="3.5822770410824893">
    <name>95.9</name>
  </wpt>
  <wpt lat="50.335741396878753" lon="3.583605277961611">
    <name>96.0</name>
  </wpt>
  <wpt lat="50.335395849237884" lon="3.5849060735379772">
    <name>96.1</name>
  </wpt>
  <wpt lat="50.335051338643446" lon="3.5862074778709823">
    <name>96.2</name>
  </wpt>
  <wpt lat="50.334697701957154" lon="3.5874996278321705">
    <name>96.3</name>
  </wpt>
  <wpt lat="50.334327631693625" lon="3.5887787730104912">
    <name>96.4</name>
  </wpt>
  <wpt lat="51.033882761583634" lon="4.1076187227920888">
    <name>216.21</name>
  </wpt>
  <wpt lat="51.033959113896131" lon="4.1075930083412189">
    <name>216.2</name>
  </wpt>
  <wpt lat="51.034721747626307" lon="4.1068736407663788">
    <name>216.3</name>
  </wpt>
  <wpt lat="51.035417536468813" lon="4.105967555203585">
    <name>216.4</name>
  </wpt>
  <wpt lat="51.03610911162464" lon="4.1050538326244892">
    <name>216.5</name>
  </wpt>
  <wpt lat="51.0366152062306" lon="4.1038926884630387">
    <name>216.6</name>
  </wpt>
  <wpt lat="51.037108624044023" lon="4.1027169114573061">
    <name>216.7</name>
  </wpt>
  <wpt lat="51.037937287732532" lon="4.1022091130935081">
    <name>216.8</name>
  </wpt>
  <wpt lat="51.0388330234553" lon="4.1020815206455135">
    <name>216.9</name>
  </wpt>
  <wpt lat="51.136252641947451" lon="4.2835665693445719">
    <name>247.39</name>
  </wpt>
  <wpt lat="51.1364125101727" lon="4.2837907325335607">
    <name>247.4</name>
  </wpt>
  <wpt lat="51.13708962660494" lon="4.2847339827221882">
    <name>247.5</name>
  </wpt>
  <wpt lat="51.137770585813492" lon="4.2856701613547967">
    <name>247.6</name>
  </wpt>
  <wpt lat="51.138435615953618" lon="4.2866333634415072">
    <name>247.7</name>
  </wpt>
  <wpt lat="51.139116490769347" lon="4.2875697077679868">
    <name>247.8</name>
  </wpt>
  <wpt lat="51.139721999828708" lon="4.2886249868026027">
    <name>247.9</name>
  </wpt>
  <wpt lat="51.140299085689762" lon="4.2897242784530487">
    <name>248.0</name>
  </wpt>
  <wpt lat="51.683079894876386" lon="4.4180555329233595">
    <name>495.25</name>
  </wpt>
  <wpt lat="51.682683813356888" lon="4.4172918972479414">
    <name>495.3</name>
  </wpt>
  <wpt lat="51.777918531844591" lon="4.4024805360925834">
    <name>511.66</name>
  </wpt>
  <wpt lat="51.778388125077193" lon="4.40258871424682">
    <name>511.7</name>
  </wpt>
  <wpt lat="51.779269339934665" lon="4.40287874662698">
    <name>511.8</name>
  </wpt>
  <wpt lat="51.780150942226022" lon="4.4031658734818917">
    <name>511.9</name>
  </wpt>
  <wpt lat="51.781032605762853" lon="4.4034525152649637">
    <name>512.0</name>
  </wpt>
  <wpt lat="51.781914269299669" lon="4.4037391626494768">
    <name>512.1</name>
  </wpt>
  <wpt lat="51.78279625471842" lon="4.4040232113588864">
    <name>512.2</name>
  </wpt>
  <wpt lat="51.78367837385148" lon="4.4043061839288917">
    <name>512.3</name>
  </wpt>
  <wpt lat="51.784560540816116" lon="4.4045887720665249">
    <name>512.4</name>
  </wpt>
  <wpt lat="51.785442719489517" lon="4.4048712702752724">
    <name>512.5</name>
  </wpt>
  <wpt lat="51.78632489816291" lon="4.4051537740086175">
    <name>512.6</name>
  </wpt>
  <wpt lat="51.7872070768363" lon="4.4054362832668659">
    <name>512.7</name>
  </wpt>
  <wpt lat="51.788089255509675" lon="4.405718798050323">
    <name>512.8</name>
  </wpt>
  <wpt lat="51.788972087756058" lon="4.4059959222989225">
    <name>512.9</name>
  </wpt>
  <wpt lat="51.7898573452702" lon="4.406248618100757">
    <name>513.0</name>
  </wpt>
  <wpt lat="51.790733340610259" lon="4.4065564631895224">
    <name>513.1</name>
  </wpt>
  <wpt lat="51.791614281521632" lon="4.4068458064877021">
    <name>513.2</name>
  </wpt>
  <wpt lat="51.79249638266068" lon="4.4071289809380474">
    <name>513.3</name>
  </wpt>
  <wpt lat="51.793378483799707" lon="4.4074121609271373">
    <name>513.4</name>
  </wpt>
  <wpt lat="51.794260584938733" lon="4.4076953464552782">
    <name>513.5</name>
  </wpt>
  <wpt lat="51.795142686077732" lon="4.4079785375227738">
    <name>513.6</name>
  </wpt>
  <wpt lat="51.796024787216723" lon="4.40826173412983">
    <name>513.7</name>
  </wpt>
  <wpt lat="51.796906888355707" lon="4.4085449362768516">
    <name>513.8</name>
  </wpt>
  <wpt lat="51.797788989494684" lon="4.408828143964044">
    <name>513.9</name>
  </wpt>
  <wpt lat="51.798671090633654" lon="4.40911135719161">
    <name>514.0</name>
  </wpt>
  <wpt lat="51.799553188698965" lon="4.4093945992299126">
    <name>514.1</name>
  </wpt>
  <wpt lat="51.8004358067382" lon="4.40967358090209">
    <name>514.2</name>
  </wpt>
  <wpt lat="51.801318424777413" lon="4.409952568035763">
    <name>514.3</name>
  </wpt>
  <wpt lat="51.8022010428166" lon="4.410231560631237">
    <name>514.4</name>
  </wpt>
  <wpt lat="51.803083660855791" lon="4.4105105586888174">
    <name>514.5</name>
  </wpt>
  <wpt lat="51.803966252040638" lon="4.4107897842246562">
    <name>514.6</name>
  </wpt>
  <wpt lat="51.804848811298235" lon="4.4110692790962771">
    <name>514.7</name>
  </wpt>
  <wpt lat="51.805731370555819" lon="4.4113487794399795">
    <name>514.8</name>
  </wpt>
  <wpt lat="51.806613929813395" lon="4.411628285255965">
    <name>514.9</name>
  </wpt>
  <wpt lat="51.807496489070964" lon="4.4119077965446429">
    <name>515.0</name>
  </wpt>
</gpx>