<?xml version="1.0" encoding="utf-8"?>
<gpx xmlns:xsi="http://www.w3.org/2001/XMLSchema-instance" xsi:schemaLocation="http://www.topografix.com/GPX/1/1 http://www.topografix.com/GPX/1/1/gpx.xsd" version="1.1" creator="Roparun" xmlns="http://www.topografix.com/GPX/1/1">
  <wpt lat="50.331591686975671" lon="3.5752247056978361">
    <name>94.75</name>
  </wpt>
  <wpt lat="50.332176420307633" lon="3.5752881230960925">
    <name>94.8</name>
  </wpt>
  <wpt lat="50.3330573017337" lon="3.575028038757746">
    <name>94.9</name>
  </wpt>
  <wpt lat="50.333939274292504" lon="3.5747775842301">
    <name>95.0</name>
  </wpt>
  <wpt lat="50.334816218291238" lon="3.5745040003013941">
    <name>95.1</name>
  </wpt>
  <wpt lat="50.335712829628363" lon="3.5744306128885026">
    <name>95.2</name>
  </wpt>
  <wpt lat="50.336459000113777" lon="3.574601130551013">
    <name>95.3</name>
  </wpt>
  <wpt lat="50.336587000083334" lon="3.5759914434564766">
    <name>95.4</name>
  </wpt>
  <wpt lat="50.336324513950785" lon="3.577321127892545">
    <name>95.5</name>
  </wpt>
  <wpt lat="50.336443188863171" lon="3.57869853273535">
    <name>95.6</name>
  </wpt>
  <wpt lat="50.336319041059056" lon="3.5800665857797909">
    <name>95.7</name>
  </wpt>
  <wpt lat="50.336095007464969" lon="3.5814265048172027">
    <name>95.8</name>
  </wpt>
  <wpt lat="50.335961660514961" lon="3.5828191774891573">
    <name>95.9</name>
  </wpt>
  <wpt lat="50.335607008061" lon="3.5841132370138511">
    <name>96.0</name>
  </wpt>
  <wpt lat="50.335260099555178" lon="3.5854131399212874">
    <name>96.1</name>
  </wpt>
  <wpt lat="50.334923256330136" lon="3.5867194131392028">
    <name>96.2</name>
  </wpt>
  <wpt lat="50.334569709248569" lon="3.588010608974189">
    <name>96.3</name>
  </wpt>
  <wpt lat="50.743514624049453" lon="3.9228894061238151">
    <name>160.33</name>
  </wpt>
  <wpt lat="50.743721480666174" lon="3.9227195487548379">
    <name>160.4</name>
  </wpt>
  <wpt lat="50.773885143623573" lon="3.8868528563957288">
    <name>166.29</name>
  </wpt>
  <wpt lat="50.773725782654509" lon="3.8869980253169096">
    <name>166.3</name>
  </wpt>
  <wpt lat="50.773074938947985" lon="3.8879028206712594">
    <name>166.4</name>
  </wpt>
  <wpt lat="50.772350549256515" lon="3.8884301697296269">
    <name>166.5</name>
  </wpt>
  <wpt lat="50.771559735296243" lon="3.888341787653367">
    <name>166.6</name>
  </wpt>
  <wpt lat="50.771868919882344" lon="3.8893545691430624">
    <name>166.7</name>
  </wpt>
  <wpt lat="50.772259711295895" lon="3.890332594882604">
    <name>166.8</name>
  </wpt>
  <wpt lat="50.772889253624" lon="3.8908125383280314">
    <name>166.9</name>
  </wpt>
  <wpt lat="50.773481231884261" lon="3.8912291941217831">
    <name>167.0</name>
  </wpt>
  <wpt lat="50.9431096359758" lon="4.0574725372374463">
    <name>196.08</name>
  </wpt>
  <wpt lat="50.9432961169433" lon="4.0572060994554331">
    <name>196.1</name>
  </wpt>
  <wpt lat="50.943749705546011" lon="4.0563182180111941">
    <name>196.2</name>
  </wpt>
  <wpt lat="50.944001792845704" lon="4.055293100491931">
    <name>196.3</name>
  </wpt>
  <wpt lat="50.9443633852233" lon="4.0563403836131968">
    <name>196.4</name>
  </wpt>
  <wpt lat="50.944036241399807" lon="4.0572102197297779">
    <name>196.5</name>
  </wpt>
  <wpt lat="50.94343650475524" lon="4.0576907523569306">
    <name>196.6</name>
  </wpt>
  <wpt lat="50.971699986861168" lon="4.16827620124728">
    <name>206.75</name>
  </wpt>
  <wpt lat="50.972018752242427" lon="4.1687002744027311">
    <name>206.8</name>
  </wpt>
  <wpt lat="51.031494000007534" lon="4.0987570618353724">
    <name>219.06</name>
  </wpt>
  <wpt lat="51.031724849745906" lon="4.09935964498421">
    <name>219.1</name>
  </wpt>
  <wpt lat="51.032081745307536" lon="4.1006504688668111">
    <name>219.2</name>
  </wpt>
  <wpt lat="51.03221596296823" lon="4.102061739605098">
    <name>219.3</name>
  </wpt>
  <wpt lat="51.0330554304728" lon="4.1018060000000158">
    <name>219.4</name>
  </wpt>
  <wpt lat="51.033610974095886" lon="4.1023707727876726">
    <name>219.5</name>
  </wpt>
  <wpt lat="51.033638192423538" lon="4.1037874640494278">
    <name>219.6</name>
  </wpt>
  <wpt lat="51.033865643977521" lon="4.1051702364684743">
    <name>219.7</name>
  </wpt>
  <wpt lat="51.034087209291044" lon="4.1063549999999625">
    <name>219.8</name>
  </wpt>
  <wpt lat="51.033579894112478" lon="4.107232934045804">
    <name>219.9</name>
  </wpt>
  <wpt lat="51.068466000005905" lon="4.0478281322850851">
    <name>226.46</name>
  </wpt>
  <wpt lat="51.068423004431374" lon="4.047110057503029">
    <name>226.5</name>
  </wpt>
  <wpt lat="51.068325562109635" lon="4.0456992920137154">
    <name>226.6</name>
  </wpt>
  <wpt lat="51.068404652041515" lon="4.0445703795807866">
    <name>226.7</name>
  </wpt>
  <wpt lat="51.068687065039555" lon="4.0438783875177329">
    <name>226.8</name>
  </wpt>
  <wpt lat="51.068251000020553" lon="4.0426939804430688">
    <name>226.9</name>
  </wpt>
  <wpt lat="51.068339293080193" lon="4.041275554067008">
    <name>227.0</name>
  </wpt>
  <wpt lat="51.068463477579833" lon="4.03987406981151">
    <name>227.1</name>
  </wpt>
  <wpt lat="51.068165609326279" lon="4.0387122900481138">
    <name>227.2</name>
  </wpt>
  <wpt lat="51.068427901733884" lon="4.0376964694097728">
    <name>227.3</name>
  </wpt>
  <wpt lat="51.069260114281363" lon="4.0372196958654412">
    <name>227.4</name>
  </wpt>
  <wpt lat="51.070072739770964" lon="4.0366085511014527">
    <name>227.5</name>
  </wpt>
  <wpt lat="51.070660455560024" lon="4.0358784566899839">
    <name>227.6</name>
  </wpt>
  <wpt lat="51.0713568201591" lon="4.0350139219081029">
    <name>227.7</name>
  </wpt>
  <wpt lat="51.072155479102385" lon="4.0344011312848256">
    <name>227.8</name>
  </wpt>
  <wpt lat="51.072923959834718" lon="4.0336610425412687">
    <name>227.9</name>
  </wpt>
  <wpt lat="51.07371129724789" lon="4.0330667029349145">
    <name>228.0</name>
  </wpt>
  <wpt lat="51.074482004419139" lon="4.03235631356326">
    <name>228.1</name>
  </wpt>
  <wpt lat="51.07506907488515" lon="4.0315018380398344">
    <name>228.2</name>
  </wpt>
  <wpt lat="51.075872542039555" lon="4.0308592771372158">
    <name>228.3</name>
  </wpt>
  <wpt lat="51.076664777315337" lon="4.030291926076111">
    <name>228.4</name>
  </wpt>
  <wpt lat="51.077275253647713" lon="4.0313412762642908">
    <name>228.5</name>
  </wpt>
  <wpt lat="51.077901389625872" lon="4.0323685298726781">
    <name>228.6</name>
  </wpt>
  <wpt lat="51.078514077971747" lon="4.03341638360184">
    <name>228.7</name>
  </wpt>
  <wpt lat="51.079123679164546" lon="4.0344682086712176">
    <name>228.8</name>
  </wpt>
  <wpt lat="51.079702443065365" lon="4.0355637915457532">
    <name>228.9</name>
  </wpt>
  <wpt lat="51.080448961405104" lon="4.0355134677255489">
    <name>229.0</name>
  </wpt>
  <wpt lat="51.0812587825835" lon="4.0349380815069171">
    <name>229.1</name>
  </wpt>
  <wpt lat="51.081780134714919" lon="4.0360947478137756">
    <name>229.2</name>
  </wpt>
  <wpt lat="51.170260780349174" lon="4.3122207394148546">
    <name>255.62</name>
  </wpt>
  <wpt lat="51.169892237908087" lon="4.3134574417367988">
    <name>255.7</name>
  </wpt>
  <wpt lat="51.169600220233406" lon="4.3147777055529994">
    <name>255.8</name>
  </wpt>
  <wpt lat="51.169310992928764" lon="4.3161327583284157">
    <name>255.9</name>
  </wpt>
  <wpt lat="51.169664135977214" lon="4.316896478319066">
    <name>256.0</name>
  </wpt>
  <wpt lat="51.1705450000395" lon="4.3171801082540515">
    <name>256.1</name>
  </wpt>
  <wpt lat="51.171438178509312" lon="4.3173474708080484">
    <name>256.2</name>
  </wpt>
  <wpt lat="51.172331731266524" lon="4.3175067425448113">
    <name>256.3</name>
  </wpt>
  <wpt lat="51.173221056553523" lon="4.3177178017022584">
    <name>256.4</name>
  </wpt>
  <wpt lat="51.174099007195693" lon="4.3180276250024">
    <name>256.5</name>
  </wpt>
  <wpt lat="51.17494826970939" lon="4.3184380870606036">
    <name>256.6</name>
  </wpt>
  <wpt lat="51.175196000598248" lon="4.3196449948890594">
    <name>256.7</name>
  </wpt>
  <wpt lat="51.175196010239624" lon="4.3210794542870756">
    <name>256.8</name>
  </wpt>
  <wpt lat="51.175196020887682" lon="4.3225139136854995">
    <name>256.9</name>
  </wpt>
  <wpt lat="51.175553390338344" lon="4.3234210000000015">
    <name>257.0</name>
  </wpt>
  <wpt lat="51.175558464998822" lon="4.3219986958636847">
    <name>257.1</name>
  </wpt>
  <wpt lat="51.175545668786512" lon="4.3205643706046715">
    <name>257.2</name>
  </wpt>
  <wpt lat="51.175539000650872" lon="4.3191299783190047">
    <name>257.3</name>
  </wpt>
  <wpt lat="51.176126162559974" lon="4.3157749731048707">
    <name>257.61</name>
  </wpt>
  <wpt lat="51.17613016251412" lon="4.3157770043514105">
    <name>257.6</name>
  </wpt>
  <wpt lat="51.176992091946481" lon="4.3161645458518159">
    <name>257.7</name>
  </wpt>
  <wpt lat="51.177860969948249" lon="4.3165336548138615">
    <name>257.8</name>
  </wpt>
  <wpt lat="51.178692986662114" lon="4.3170736038410178">
    <name>257.9</name>
  </wpt>
  <wpt lat="51.179555208541174" lon="4.3174516551049624">
    <name>258.0</name>
  </wpt>
  <wpt lat="51.180453162403" lon="4.3175144887147994">
    <name>258.1</name>
  </wpt>
  <wpt lat="51.181286364550687" lon="4.3180371850403816">
    <name>258.2</name>
  </wpt>
  <wpt lat="51.182102236566031" lon="4.3186407154471524">
    <name>258.3</name>
  </wpt>
  <wpt lat="51.182904862329274" lon="4.3192845557095207">
    <name>258.4</name>
  </wpt>
  <wpt lat="51.183428183601123" lon="4.3204391645729592">
    <name>258.5</name>
  </wpt>
  <wpt lat="51.183911114152366" lon="4.3216490648146335">
    <name>258.6</name>
  </wpt>
  <wpt lat="51.184510115143183" lon="4.3226966513733345">
    <name>258.7</name>
  </wpt>
  <wpt lat="51.185240193340974" lon="4.3235344393600075">
    <name>258.8</name>
  </wpt>
  <wpt lat="51.185971348551064" lon="4.324369843711577">
    <name>258.9</name>
  </wpt>
  <wpt lat="51.186701323366464" lon="4.325206767161708">
    <name>259.0</name>
  </wpt>
  <wpt lat="51.187473070302723" lon="4.3259100000000466">
    <name>259.1</name>
  </wpt>
  <wpt lat="51.188361524024124" lon="4.3257187644600066">
    <name>259.2</name>
  </wpt>
  <wpt lat="51.189247335475144" lon="4.32547098648332">
    <name>259.3</name>
  </wpt>
  <wpt lat="51.19012893282391" lon="4.3251964381389865">
    <name>259.4</name>
  </wpt>
  <wpt lat="51.190744743424219" lon="4.3242151803879691">
    <name>259.5</name>
  </wpt>
  <wpt lat="51.191235510378071" lon="4.3230290305887715">
    <name>259.6</name>
  </wpt>
  <wpt lat="51.192007131307541" lon="4.3228230448268175">
    <name>259.7</name>
  </wpt>
  <wpt lat="51.192759928036565" lon="4.32357784278929">
    <name>259.8</name>
  </wpt>
  <wpt lat="51.193544631313927" lon="4.3242677406821173">
    <name>259.9</name>
  </wpt>
  <wpt lat="51.194337359002354" lon="4.3249082999778095">
    <name>260.0</name>
  </wpt>
  <wpt lat="51.19504814702055" lon="4.3257850004231768">
    <name>260.1</name>
  </wpt>
  <wpt lat="51.195764298174076" lon="4.3266514935429035">
    <name>260.2</name>
  </wpt>
  <wpt lat="51.19649978320102" lon="4.3274771008565169">
    <name>260.3</name>
  </wpt>
  <wpt lat="51.1972385635977" lon="4.3282950648503258">
    <name>260.4</name>
  </wpt>
  <wpt lat="51.19797011939113" lon="4.3291274899688954">
    <name>260.5</name>
  </wpt>
  <wpt lat="51.198529241599843" lon="4.3302305008889457">
    <name>260.6</name>
  </wpt>
  <wpt lat="51.198941299763128" lon="4.331505956869222">
    <name>260.7</name>
  </wpt>
  <wpt lat="51.1993972219504" lon="4.3327412629641993">
    <name>260.8</name>
  </wpt>
  <wpt lat="51.199866884652572" lon="4.3339652123420382">
    <name>260.9</name>
  </wpt>
  <wpt lat="51.200337059703259" lon="4.3351885543570843">
    <name>261.0</name>
  </wpt>
  <wpt lat="51.200816279818341" lon="4.336401889664784">
    <name>261.1</name>
  </wpt>
  <wpt lat="51.201388189917083" lon="4.3375094931713463">
    <name>261.2</name>
  </wpt>
  <wpt lat="51.201801393989861" lon="4.3387471396967729">
    <name>261.3</name>
  </wpt>
  <wpt lat="51.202091114316374" lon="4.3400897624677635">
    <name>261.4</name>
  </wpt>
  <wpt lat="51.202144244789693" lon="4.3415154403138994">
    <name>261.5</name>
  </wpt>
  <wpt lat="51.202126000091681" lon="4.3429503775333114">
    <name>261.6</name>
  </wpt>
  <wpt lat="51.220680873013734" lon="4.3877259167486482">
    <name>265.61</name>
  </wpt>
  <wpt lat="51.220684801368421" lon="4.3877282791705206">
    <name>265.6</name>
  </wpt>
  <wpt lat="51.220508978702085" lon="4.388921177509113">
    <name>265.7</name>
  </wpt>
  <wpt lat="51.220165210296344" lon="4.3902480001686914">
    <name>265.8</name>
  </wpt>
  <wpt lat="51.219821441890709" lon="4.3915748129200027">
    <name>265.9</name>
  </wpt>
  <wpt lat="51.219477673485159" lon="4.39290161576325">
    <name>266.0</name>
  </wpt>
  <wpt lat="51.2191339050797" lon="4.3942284086986376">
    <name>266.1</name>
  </wpt>
  <wpt lat="51.218790136674322" lon="4.3955551917262659">
    <name>266.2</name>
  </wpt>
  <wpt lat="51.21894569020025" lon="4.395477111646156">
    <name>266.3</name>
  </wpt>
  <wpt lat="51.219730609275651" lon="4.3958854656675248">
    <name>266.4</name>
  </wpt>
  <wpt lat="51.2205513231536" lon="4.3964721952957522">
    <name>266.5</name>
  </wpt>
  <wpt lat="51.221371199914834" lon="4.3970618061556923">
    <name>266.6</name>
  </wpt>
  <wpt lat="51.222198617011152" lon="4.3976235289077419">
    <name>266.7</name>
  </wpt>
  <wpt lat="51.223035047895117" lon="4.3981505636678691">
    <name>266.8</name>
  </wpt>
  <wpt lat="51.223876248643982" lon="4.3986537563135863">
    <name>266.9</name>
  </wpt>
  <wpt lat="51.2247114861063" lon="4.3991860918961674">
    <name>267.0</name>
  </wpt>
  <wpt lat="51.225555826145708" lon="4.3994442448151521">
    <name>267.1</name>
  </wpt>
  <wpt lat="51.226393460259835" lon="4.399966935346832">
    <name>267.2</name>
  </wpt>
  <wpt lat="51.227077764909311" lon="4.4008575646824317">
    <name>267.3</name>
  </wpt>
  <wpt lat="51.227831837922068" lon="4.401627619127769">
    <name>267.4</name>
  </wpt>
  <wpt lat="51.2279958509793" lon="4.4028042078963452">
    <name>267.5</name>
  </wpt>
  <wpt lat="51.228025000005722" lon="4.4042395532938974">
    <name>267.6</name>
  </wpt>
  <wpt lat="51.2280588072881" lon="4.4056743353856991">
    <name>267.7</name>
  </wpt>
  <wpt lat="51.228101003962649" lon="4.407108860860375">
    <name>267.8</name>
  </wpt>
  <wpt lat="51.228128871668716" lon="4.4085442230633669">
    <name>267.9</name>
  </wpt>
  <wpt lat="51.228166235790006" lon="4.4099786466066089">
    <name>268.0</name>
  </wpt>
  <wpt lat="51.228288266524345" lon="4.4112631848720687">
    <name>268.1</name>
  </wpt>
  <wpt lat="51.229187097693291" lon="4.4112157625377568">
    <name>268.2</name>
  </wpt>
  <wpt lat="51.23001849541933" lon="4.4110540000000258">
    <name>268.3</name>
  </wpt>
  <wpt lat="51.230857000021878" lon="4.4111511232495744">
    <name>268.4</name>
  </wpt>
  <wpt lat="51.231093000188743" lon="4.4122104362226073">
    <name>268.5</name>
  </wpt>
  <wpt lat="51.231436056466869" lon="4.4133639901092883">
    <name>268.6</name>
  </wpt>
  <wpt lat="51.231780001275943" lon="4.4146042746454937">
    <name>268.7</name>
  </wpt>
  <wpt lat="51.231780001485582" lon="4.4160404972902034">
    <name>268.8</name>
  </wpt>
  <wpt lat="51.231780000728186" lon="4.4174767199349123">
    <name>268.9</name>
  </wpt>
  <wpt lat="51.231780000317393" lon="4.4189129425796212">
    <name>269.0</name>
  </wpt>
  <wpt lat="51.232139414672979" lon="4.4200737073185055">
    <name>269.1</name>
  </wpt>
  <wpt lat="51.233036901162336" lon="4.4201299999999843">
    <name>269.2</name>
  </wpt>
  <wpt lat="51.233936222768264" lon="4.4201299999999843">
    <name>269.3</name>
  </wpt>
  <wpt lat="51.234832278678866" lon="4.4200790830271961">
    <name>269.4</name>
  </wpt>
  <wpt lat="51.542314443888813" lon="4.9394714469598053">
    <name>332.61</name>
  </wpt>
  <wpt lat="51.542315000033433" lon="4.9395504771542429">
    <name>332.6</name>
  </wpt>
  <wpt lat="51.542406230283483" lon="4.9407803176996818">
    <name>332.7</name>
  </wpt>
  <wpt lat="51.543290733205275" lon="4.9410405783522044">
    <name>332.8</name>
  </wpt>
  <wpt lat="51.544165883063968" lon="4.9413733528814809">
    <name>332.9</name>
  </wpt>
  <wpt lat="51.618254291679" lon="4.9514441254044952">
    <name>346.05</name>
  </wpt>
  <wpt lat="51.548605453294968" lon="4.58742655781486">
    <name>392.62</name>
  </wpt>
  <wpt lat="51.549364176545552" lon="4.5869989151715389">
    <name>392.7</name>
  </wpt>
  <wpt lat="51.550219755216766" lon="4.5865533558709437">
    <name>392.8</name>
  </wpt>
  <wpt lat="51.422652177976921" lon="4.3245851779709383">
    <name>450.17</name>
  </wpt>
  <wpt lat="51.4226030000456" lon="4.3239410440758945">
    <name>450.2</name>
  </wpt>
  <wpt lat="51.4230974657882" lon="4.3233418446688026">
    <name>450.3</name>
  </wpt>
  <wpt lat="51.423989608179866" lon="4.3235060000000063">
    <name>450.4</name>
  </wpt>
  <wpt lat="51.42484248387737" lon="4.3231002770783">
    <name>450.5</name>
  </wpt>
  <wpt lat="51.42565401367473" lon="4.3224841016678157">
    <name>450.6</name>
  </wpt>
  <wpt lat="51.426435194711324" lon="4.3217715350085237">
    <name>450.7</name>
  </wpt>
  <wpt lat="51.427201802838304" lon="4.3210226231824711">
    <name>450.8</name>
  </wpt>
  <wpt lat="51.4278913507941" lon="4.3200967354797175">
    <name>450.9</name>
  </wpt>
  <wpt lat="51.428609299443252" lon="4.3192530664074464">
    <name>451.0</name>
  </wpt>
  <wpt lat="51.4294078318759" lon="4.3188925391145334">
    <name>451.1</name>
  </wpt>
  <wpt lat="51.430306796625509" lon="4.3188519079771144">
    <name>451.2</name>
  </wpt>
  <wpt lat="51.431205838019878" lon="4.3188183334434438">
    <name>451.3</name>
  </wpt>
  <wpt lat="51.432104844777264" lon="4.3187859999999691">
    <name>451.4</name>
  </wpt>
  <wpt lat="51.433003855728067" lon="4.3187547381884679">
    <name>451.5</name>
  </wpt>
  <wpt lat="51.433902867677759" lon="4.3187174189034039">
    <name>451.6</name>
  </wpt>
  <wpt lat="51.475546824575" lon="4.29075640912256">
    <name>458.39</name>
  </wpt>
  <wpt lat="51.475500431863125" lon="4.2903963236992748">
    <name>458.4</name>
  </wpt>
  <wpt lat="51.475410000089596" lon="4.2889671902079582">
    <name>458.5</name>
  </wpt>
  <wpt lat="51.475695371674959" lon="4.287609959155116">
    <name>458.6</name>
  </wpt>
  <wpt lat="51.475262276161018" lon="4.2866003699083608">
    <name>458.7</name>
  </wpt>
  <wpt lat="51.474678099496757" lon="4.2855449620444874">
    <name>458.8</name>
  </wpt>
  <wpt lat="51.474813097462189" lon="4.2844855971544211">
    <name>458.9</name>
  </wpt>
  <wpt lat="51.475663214527934" lon="4.2840150960493535">
    <name>459.0</name>
  </wpt>
  <wpt lat="51.476520106758358" lon="4.2835768780972368">
    <name>459.1</name>
  </wpt>
  <wpt lat="51.477371051478407" lon="4.2831097198867383">
    <name>459.2</name>
  </wpt>
  <wpt lat="51.478225487459653" lon="4.2826594417072856">
    <name>459.3</name>
  </wpt>
  <wpt lat="51.478482009520548" lon="4.2817320072856253">
    <name>459.4</name>
  </wpt>
  <wpt lat="51.478673648562385" lon="4.2807527845549647">
    <name>459.5</name>
  </wpt>
  <wpt lat="51.479528033523117" lon="4.2803025571973157">
    <name>459.6</name>
  </wpt>
  <wpt lat="51.4803845996738" lon="4.2798632001665355">
    <name>459.7</name>
  </wpt>
  <wpt lat="51.483111208324736" lon="4.2801939182437065">
    <name>460.09</name>
  </wpt>
  <wpt lat="51.483171755784973" lon="4.2804722010344367">
    <name>460.1</name>
  </wpt>
  <wpt lat="51.483476007110028" lon="4.2818298439718578">
    <name>460.2</name>
  </wpt>
  <wpt lat="51.4840625469093" lon="4.282585089247541">
    <name>460.3</name>
  </wpt>
  <wpt lat="51.484942534303848" lon="4.2822947216527947">
    <name>460.4</name>
  </wpt>
  <wpt lat="51.48584077246182" lon="4.2822570321564584">
    <name>460.5</name>
  </wpt>
  <wpt lat="51.486719493764" lon="4.2825183943506859">
    <name>460.6</name>
  </wpt>
  <wpt lat="51.487526175113686" lon="4.2831566650413624">
    <name>460.7</name>
  </wpt>
  <wpt lat="51.4882613445866" lon="4.2839782687611887">
    <name>460.8</name>
  </wpt>
  <wpt lat="51.488936653843965" lon="4.284931726606847">
    <name>460.9</name>
  </wpt>
  <wpt lat="51.489556011324204" lon="4.2858647854756056">
    <name>461.0</name>
  </wpt>
  <wpt lat="51.4903409944025" lon="4.2856976836304037">
    <name>461.1</name>
  </wpt>
  <wpt lat="51.490367573879794" lon="4.2868619235145777">
    <name>461.2</name>
  </wpt>
  <wpt lat="51.490324000195329" lon="4.2883029465715872">
    <name>461.3</name>
  </wpt>
  <wpt lat="51.49068755291308" lon="4.2892447572690537">
    <name>461.4</name>
  </wpt>
  <wpt lat="51.4914880743507" lon="4.2885949999999537">
    <name>461.5</name>
  </wpt>
  <wpt lat="51.492211623336829" lon="4.2878277203956054">
    <name>461.6</name>
  </wpt>
  <wpt lat="51.492993859302246" lon="4.2871153164026028">
    <name>461.7</name>
  </wpt>
  <wpt lat="51.493682506873512" lon="4.2870570166283768">
    <name>461.8</name>
  </wpt>
  <wpt lat="51.494386116236761" lon="4.2867074519240678">
    <name>461.9</name>
  </wpt>
  <wpt lat="51.494956988742778" lon="4.2855937102598354">
    <name>462.0</name>
  </wpt>
  <wpt lat="51.495652635612252" lon="4.2847259274995855">
    <name>462.1</name>
  </wpt>
  <wpt lat="51.4965057386561" lon="4.28427390538475">
    <name>462.2</name>
  </wpt>
  <wpt lat="51.4973195355715" lon="4.2840884644769286">
    <name>462.3</name>
  </wpt>
  <wpt lat="51.498070177649183" lon="4.2833000705953461">
    <name>462.4</name>
  </wpt>
  <wpt lat="51.498797153631145" lon="4.2825712974014563">
    <name>462.5</name>
  </wpt>
  <wpt lat="51.499543859000589" lon="4.2826886246203113">
    <name>462.6</name>
  </wpt>
  <wpt lat="51.4996112714695" lon="4.28158884664565">
    <name>462.7</name>
  </wpt>
  <wpt lat="51.500249828473621" lon="4.280627436599473">
    <name>462.8</name>
  </wpt>
  <wpt lat="51.5010512677979" lon="4.2799735758959709">
    <name>462.9</name>
  </wpt>
  <wpt lat="51.501914888396975" lon="4.2796240505094252">
    <name>463.0</name>
  </wpt>
  <wpt lat="51.502807833302377" lon="4.2794750000000246">
    <name>463.1</name>
  </wpt>
  <wpt lat="51.50370634777704" lon="4.2795258245289984">
    <name>463.2</name>
  </wpt>
  <wpt lat="51.50460508700219" lon="4.2795777133165549">
    <name>463.3</name>
  </wpt>
  <wpt lat="51.505503758995921" lon="4.279632379202531">
    <name>463.4</name>
  </wpt>
  <wpt lat="51.506401982650459" lon="4.27968820520687">
    <name>463.5</name>
  </wpt>
  <wpt lat="51.507299473945324" lon="4.2796200262428457">
    <name>463.6</name>
  </wpt>
  <wpt lat="51.508192330547992" lon="4.2794482969061471">
    <name>463.7</name>
  </wpt>
  <wpt lat="51.509084467660195" lon="4.27926694512868">
    <name>463.8</name>
  </wpt>
  <wpt lat="51.509975322626239" lon="4.27906992060702">
    <name>463.9</name>
  </wpt>
  <wpt lat="51.510867374711147" lon="4.2788933116470451">
    <name>464.0</name>
  </wpt>
  <wpt lat="51.511657203111163" lon="4.2789820000000338">
    <name>464.1</name>
  </wpt>
  <wpt lat="51.512510601346726" lon="4.2786545357031756">
    <name>464.2</name>
  </wpt>
  <wpt lat="51.513398543546252" lon="4.2784325806379373">
    <name>464.3</name>
  </wpt>
  <wpt lat="51.514261276659745" lon="4.27803279386237">
    <name>464.4</name>
  </wpt>
  <wpt lat="51.515118094348608" lon="4.2775951320566508">
    <name>464.5</name>
  </wpt>
  <wpt lat="51.515968614709038" lon="4.2771260312255386">
    <name>464.6</name>
  </wpt>
  <wpt lat="51.516817801834293" lon="4.276650287532803">
    <name>464.7</name>
  </wpt>
  <wpt lat="51.517674934913607" lon="4.2762280325614341">
    <name>464.8</name>
  </wpt>
  <wpt lat="51.518542527530492" lon="4.27589679438266">
    <name>464.9</name>
  </wpt>
  <wpt lat="51.519431621535063" lon="4.27567949317994">
    <name>465.0</name>
  </wpt>
  <wpt lat="51.520313876412608" lon="4.2754278688770544">
    <name>465.1</name>
  </wpt>
  <wpt lat="51.521163681434331" lon="4.2753152881181151">
    <name>465.2</name>
  </wpt>
  <wpt lat="51.521129018882796" lon="4.2739759589504231">
    <name>465.3</name>
  </wpt>
  <wpt lat="51.521717418683949" lon="4.2731179004198889">
    <name>465.4</name>
  </wpt>
  <wpt lat="51.522452419666848" lon="4.2722868505100617">
    <name>465.5</name>
  </wpt>
  <wpt lat="51.523197085559289" lon="4.2714792003793827">
    <name>465.6</name>
  </wpt>
  <wpt lat="51.523953972289071" lon="4.2707007198542879">
    <name>465.7</name>
  </wpt>
  <wpt lat="51.524750771271442" lon="4.2700305262161624">
    <name>465.8</name>
  </wpt>
  <wpt lat="51.525577256959181" lon="4.2694743255830474">
    <name>465.9</name>
  </wpt>
  <wpt lat="51.526434374947023" lon="4.2690368585533776">
    <name>466.0</name>
  </wpt>
  <wpt lat="51.527254909288381" lon="4.2684497757145277">
    <name>466.1</name>
  </wpt>
  <wpt lat="51.528075184766116" lon="4.2678607028537066">
    <name>466.2</name>
  </wpt>
  <wpt lat="51.528909536280189" lon="4.2676355362316736">
    <name>466.3</name>
  </wpt>
  <wpt lat="51.529616831014764" lon="4.2685163169352247">
    <name>466.4</name>
  </wpt>
  <wpt lat="51.530313921257068" lon="4.2693397128791917">
    <name>466.5</name>
  </wpt>
  <wpt lat="51.530790978786627" lon="4.2705073731919194">
    <name>466.6</name>
  </wpt>
  <wpt lat="51.531205680050881" lon="4.2717900393011661">
    <name>466.7</name>
  </wpt>
  <wpt lat="51.531877827684077" lon="4.2722418244191829">
    <name>466.8</name>
  </wpt>
  <wpt lat="51.532762393412547" lon="4.2719815017599911">
    <name>466.9</name>
  </wpt>
  <wpt lat="51.533648652645766" lon="4.2717368166445464">
    <name>467.0</name>
  </wpt>
  <wpt lat="51.534535365523688" lon="4.2714962992342187">
    <name>467.1</name>
  </wpt>
  <wpt lat="51.535432845080933" lon="4.2714483254425115">
    <name>467.2</name>
  </wpt>
  <wpt lat="51.536331952161085" lon="4.2714167481521477">
    <name>467.3</name>
  </wpt>
  <wpt lat="51.537230566533708" lon="4.2713639999999877">
    <name>467.4</name>
  </wpt>
  <wpt lat="51.538129678593393" lon="4.2713430000000319">
    <name>467.5</name>
  </wpt>
  <wpt lat="51.539028206497647" lon="4.2713029478905824">
    <name>467.6</name>
  </wpt>
  <wpt lat="51.539927208936213" lon="4.2712653303175276">
    <name>467.7</name>
  </wpt>
  <wpt lat="51.540812659081723" lon="4.27106415762984">
    <name>467.8</name>
  </wpt>
  <wpt lat="51.541603326076391" lon="4.270392068865382">
    <name>467.9</name>
  </wpt>
  <wpt lat="51.542283284940936" lon="4.2694457099976217">
    <name>468.0</name>
  </wpt>
  <wpt lat="51.542962181282157" lon="4.2684973609388361">
    <name>468.1</name>
  </wpt>
  <wpt lat="51.543641901728755" lon="4.26755059269715">
    <name>468.2</name>
  </wpt>
  <wpt lat="51.544340854647963" lon="4.2666407782514373">
    <name>468.3</name>
  </wpt>
  <wpt lat="51.545053468225561" lon="4.2657621979596314">
    <name>468.4</name>
  </wpt>
  <wpt lat="51.545748398135565" lon="4.2664925694397526">
    <name>468.5</name>
  </wpt>
  <wpt lat="51.546301360058074" lon="4.26762965915164">
    <name>468.6</name>
  </wpt>
  <wpt lat="51.546717311393635" lon="4.2689019809143041">
    <name>468.7</name>
  </wpt>
  <wpt lat="51.547312235129191" lon="4.2699841195433885">
    <name>468.8</name>
  </wpt>
  <wpt lat="51.547616000520016" lon="4.2713167573507311">
    <name>468.9</name>
  </wpt>
  <wpt lat="51.547822741324545" lon="4.2726888209788516">
    <name>469.0</name>
  </wpt>
  <wpt lat="51.548678748401855" lon="4.2728774438463963">
    <name>469.1</name>
  </wpt>
  <wpt lat="51.549527902482971" lon="4.2725480840884593">
    <name>469.2</name>
  </wpt>
  <wpt lat="51.550101263906477" lon="4.2734357853268463">
    <name>469.3</name>
  </wpt>
  <wpt lat="51.550685059292476" lon="4.27453576735755">
    <name>469.4</name>
  </wpt>
  <wpt lat="51.551284855634705" lon="4.27561282106695">
    <name>469.5</name>
  </wpt>
  <wpt lat="51.551918500498708" lon="4.276638537746229">
    <name>469.6</name>
  </wpt>
  <wpt lat="51.552479000116556" lon="4.2777609286173766">
    <name>469.7</name>
  </wpt>
  <wpt lat="51.552995926786849" lon="4.2789444584706331">
    <name>469.8</name>
  </wpt>
  <wpt lat="51.553710781154976" lon="4.2797829030651613">
    <name>469.9</name>
  </wpt>
  <wpt lat="51.554503598761734" lon="4.2804656559527325">
    <name>470.0</name>
  </wpt>
  <wpt lat="51.55503977556328" lon="4.2816070010443479">
    <name>470.1</name>
  </wpt>
  <wpt lat="51.555510147984052" lon="4.282839799965676">
    <name>470.2</name>
  </wpt>
  <wpt lat="51.555981488546884" lon="4.284071655152311">
    <name>470.3</name>
  </wpt>
  <wpt lat="51.556682133977638" lon="4.2848826523315156">
    <name>470.4</name>
  </wpt>
  <wpt lat="51.557523079711693" lon="4.2853953009685339">
    <name>470.5</name>
  </wpt>
  <wpt lat="51.558344705876507" lon="4.2859805727955784">
    <name>470.6</name>
  </wpt>
  <wpt lat="51.55915909686847" lon="4.2865941433415493">
    <name>470.7</name>
  </wpt>
  <wpt lat="51.559970964844673" lon="4.287216381484555">
    <name>470.8</name>
  </wpt>
  <wpt lat="51.560780410022424" lon="4.2878462045863754">
    <name>470.9</name>
  </wpt>
  <wpt lat="51.5614905433302" lon="4.287317566231188">
    <name>471.0</name>
  </wpt>
  <wpt lat="51.56229053546668" lon="4.2866574561465782">
    <name>471.1</name>
  </wpt>
  <wpt lat="51.563121947835221" lon="4.2861092649794363">
    <name>471.2</name>
  </wpt>
  <wpt lat="51.563979796332205" lon="4.2856796498447505">
    <name>471.3</name>
  </wpt>
  <wpt lat="51.564857949570175" lon="4.2853722140967312">
    <name>471.4</name>
  </wpt>
  <wpt lat="51.565755426724763" lon="4.2852806113648478">
    <name>471.5</name>
  </wpt>
  <wpt lat="51.566653523195534" lon="4.2852051197682233">
    <name>471.6</name>
  </wpt>
  <wpt lat="51.567551619666311" lon="4.2851296266803516">
    <name>471.7</name>
  </wpt>
  <wpt lat="51.568450184049624" lon="4.2850706461559778">
    <name>471.8</name>
  </wpt>
  <wpt lat="51.569348825177968" lon="4.28501437250989">
    <name>471.9</name>
  </wpt>
  <wpt lat="51.570247443831065" lon="4.2849571818782346">
    <name>472.0</name>
  </wpt>
  <wpt lat="51.571145775989066" lon="4.2848901118102738">
    <name>472.1</name>
  </wpt>
  <wpt lat="51.572043867110935" lon="4.2848157912445206">
    <name>472.2</name>
  </wpt>
  <wpt lat="51.57294303344294" lon="4.284788904070215">
    <name>472.3</name>
  </wpt>
  <wpt lat="51.57338647179143" lon="4.2840771194992433">
    <name>472.4</name>
  </wpt>
  <wpt lat="51.573817388030015" lon="4.283374114474011">
    <name>472.5</name>
  </wpt>
  <wpt lat="51.574714606568484" lon="4.283427159623721">
    <name>472.6</name>
  </wpt>
  <wpt lat="51.574999078285153" lon="4.2846009254233595">
    <name>472.7</name>
  </wpt>
  <wpt lat="51.574938885385436" lon="4.2860446390714673">
    <name>472.8</name>
  </wpt>
  <wpt lat="51.574517634055127" lon="4.2870985265824686">
    <name>472.9</name>
  </wpt>
  <wpt lat="51.573619381914078" lon="4.2871690744357318">
    <name>473.0</name>
  </wpt>
  <wpt lat="51.573533460405741" lon="4.288420700569584">
    <name>473.1</name>
  </wpt>
  <wpt lat="51.573579679624039" lon="4.289865782323262">
    <name>473.2</name>
  </wpt>
  <wpt lat="51.573616359100654" lon="4.2913115755852411">
    <name>473.3</name>
  </wpt>
  <wpt lat="51.573669457260564" lon="4.29275589919239">
    <name>473.4</name>
  </wpt>
  <wpt lat="51.57370953442863" lon="4.29420134281523">
    <name>473.5</name>
  </wpt>
  <wpt lat="51.573750334932122" lon="4.2956467637902813">
    <name>473.6</name>
  </wpt>
  <wpt lat="51.573805520022418" lon="4.2970909802335">
    <name>473.7</name>
  </wpt>
  <wpt lat="51.573848763075475" lon="4.2985363110495456">
    <name>473.8</name>
  </wpt>
  <wpt lat="51.573897011593914" lon="4.2999811737068727">
    <name>473.9</name>
  </wpt>
  <wpt lat="51.573948121865776" lon="4.3014258360365814">
    <name>474.0</name>
  </wpt>
  <wpt lat="51.573998518636159" lon="4.302870571438338">
    <name>474.1</name>
  </wpt>
  <wpt lat="51.574052470700636" lon="4.3043148989558908">
    <name>474.2</name>
  </wpt>
  <wpt lat="51.574075362065535" lon="4.30576140577007">
    <name>474.3</name>
  </wpt>
  <wpt lat="51.574127523041234" lon="4.3072059831238061">
    <name>474.4</name>
  </wpt>
  <wpt lat="51.574187583538588" lon="4.3086483960044353">
    <name>474.5</name>
  </wpt>
  <wpt lat="51.574219385150556" lon="4.3100945008851523">
    <name>474.6</name>
  </wpt>
  <wpt lat="51.57343446592688" lon="4.310458255751624">
    <name>474.7</name>
  </wpt>
  <wpt lat="51.573132477331882" lon="4.3114870840195563">
    <name>474.8</name>
  </wpt>
  <wpt lat="51.573096066256433" lon="4.3129325537114429">
    <name>474.9</name>
  </wpt>
  <wpt lat="51.57269381699048" lon="4.3141534142468361">
    <name>475.0</name>
  </wpt>
  <wpt lat="51.572331539505754" lon="4.3151410742008993">
    <name>475.1</name>
  </wpt>
  <wpt lat="51.572934288501266" lon="4.3162149502615765">
    <name>475.2</name>
  </wpt>
  <wpt lat="51.573630955641129" lon="4.3158240895772568">
    <name>475.3</name>
  </wpt>
  <wpt lat="51.574512198491327" lon="4.3155355192796616">
    <name>475.4</name>
  </wpt>
  <wpt lat="51.57531700047425" lon="4.3153647254971688">
    <name>475.5</name>
  </wpt>
  <wpt lat="51.575317000100938" lon="4.31681177750585">
    <name>475.6</name>
  </wpt>
  <wpt lat="51.576039135196936" lon="4.3169757405081493">
    <name>475.7</name>
  </wpt>
  <wpt lat="51.5769347957785" lon="4.3168467126080428">
    <name>475.8</name>
  </wpt>
  <wpt lat="51.577833080674921" lon="4.3167900000000152">
    <name>475.9</name>
  </wpt>
  <wpt lat="51.57855895782231" lon="4.3170568026478318">
    <name>476.0</name>
  </wpt>
  <wpt lat="51.579458068509823" lon="4.3170260367258217">
    <name>476.1</name>
  </wpt>
  <wpt lat="51.580354454989227" lon="4.3169098045375431">
    <name>476.2</name>
  </wpt>
  <wpt lat="51.580633610603918" lon="4.3158950820558815">
    <name>476.3</name>
  </wpt>
  <wpt lat="51.580813565058833" lon="4.3155425796169231">
    <name>476.4</name>
  </wpt>
  <wpt lat="51.581538325815615" lon="4.3157599999999636">
    <name>476.5</name>
  </wpt>
  <wpt lat="51.582436788826215" lon="4.3157049495531714">
    <name>476.6</name>
  </wpt>
  <wpt lat="51.583320078815419" lon="4.3154411505027275">
    <name>476.7</name>
  </wpt>
  <wpt lat="51.584185339767188" lon="4.3152775598164652">
    <name>476.8</name>
  </wpt>
  <wpt lat="51.585021875256132" lon="4.3158020303174309">
    <name>476.9</name>
  </wpt>
  <wpt lat="51.58586884082947" lon="4.3159485245456217">
    <name>477.0</name>
  </wpt>
  <wpt lat="51.5864750518475" lon="4.3164371873901084">
    <name>477.1</name>
  </wpt>
  <wpt lat="51.586877211747492" lon="4.3177304771609268">
    <name>477.2</name>
  </wpt>
  <wpt lat="51.587250136463105" lon="4.319043339648883">
    <name>477.3</name>
  </wpt>
  <wpt lat="51.587550247029768" lon="4.3204076384918659">
    <name>477.4</name>
  </wpt>
  <wpt lat="51.587475710906944" lon="4.3215123396464064">
    <name>477.5</name>
  </wpt>
  <wpt lat="51.587814340318211" lon="4.322852961857663">
    <name>477.6</name>
  </wpt>
  <wpt lat="51.588194147458786" lon="4.324158589803627">
    <name>477.7</name>
  </wpt>
  <wpt lat="51.588256001340866" lon="4.32558532424621">
    <name>477.8</name>
  </wpt>
  <wpt lat="51.588256001795074" lon="4.3270327883445523">
    <name>477.9</name>
  </wpt>
  <wpt lat="51.588257590492354" lon="4.3284800614673289">
    <name>478.0</name>
  </wpt>
  <wpt lat="51.588371273280387" lon="4.3299124645233631">
    <name>478.1</name>
  </wpt>
  <wpt lat="51.588449000052805" lon="4.3313388892421063">
    <name>478.2</name>
  </wpt>
  <wpt lat="51.6280602971324" lon="4.364050599080036">
    <name>483.31</name>
  </wpt>
  <wpt lat="51.628108157797314" lon="4.364033308479379">
    <name>483.3</name>
  </wpt>
  <wpt lat="51.628892294226482" lon="4.36370514709226">
    <name>483.4</name>
  </wpt>
  <wpt lat="51.629727171324816" lon="4.3642402493423633">
    <name>483.5</name>
  </wpt>
  <wpt lat="51.630557176956714" lon="4.3647961424204205">
    <name>483.6</name>
  </wpt>
  <wpt lat="51.631384480599067" lon="4.36536423730131">
    <name>483.7</name>
  </wpt>
  <wpt lat="51.632215655221437" lon="4.3659166919744194">
    <name>483.8</name>
  </wpt>
  <wpt lat="51.6330403157262" lon="4.3664945423388337">
    <name>483.9</name>
  </wpt>
  <wpt lat="51.633870540515019" lon="4.3670503862329957">
    <name>484.0</name>
  </wpt>
  <wpt lat="51.634458689463564" lon="4.36811733828618">
    <name>484.1</name>
  </wpt>
  <wpt lat="51.635052522437405" lon="4.3691856530257791">
    <name>484.2</name>
  </wpt>
  <wpt lat="51.635527713081487" lon="4.3702407614329486">
    <name>484.3</name>
  </wpt>
  <wpt lat="51.636070846810121" lon="4.371395116959456">
    <name>484.4</name>
  </wpt>
  <wpt lat="51.6367432899252" lon="4.3723138593651569">
    <name>484.5</name>
  </wpt>
  <wpt lat="51.637486211726262" lon="4.3731297296797145">
    <name>484.6</name>
  </wpt>
  <wpt lat="51.638061017431021" lon="4.3734155446693022">
    <name>484.7</name>
  </wpt>
  <wpt lat="51.638500286616953" lon="4.3746731242724772">
    <name>484.8</name>
  </wpt>
  <wpt lat="51.639024167132092" lon="4.3758499270860742">
    <name>484.9</name>
  </wpt>
  <wpt lat="51.639559632440573" lon="4.3770141596527328">
    <name>485.0</name>
  </wpt>
  <wpt lat="51.640074279587139" lon="4.3782024952280345">
    <name>485.1</name>
  </wpt>
  <wpt lat="51.640560076556753" lon="4.3794219041711973">
    <name>485.2</name>
  </wpt>
  <wpt lat="51.641096566713458" lon="4.3805848526015749">
    <name>485.3</name>
  </wpt>
  <wpt lat="51.641634653015444" lon="4.38174599639917">
    <name>485.4</name>
  </wpt>
  <wpt lat="51.642224191574954" lon="4.38283919804646">
    <name>485.5</name>
  </wpt>
  <wpt lat="51.642780295032843" lon="4.3839299079963236">
    <name>485.6</name>
  </wpt>
  <wpt lat="51.643171520082554" lon="4.3852348053674524">
    <name>485.7</name>
  </wpt>
  <wpt lat="51.643567848962462" lon="4.3865356489220533">
    <name>485.8</name>
  </wpt>
  <wpt lat="51.643902093756473" lon="4.3878533581172423">
    <name>485.9</name>
  </wpt>
  <wpt lat="51.643660000011508" lon="4.3892245885983012">
    <name>486.0</name>
  </wpt>
  <wpt lat="51.644295227171291" lon="4.3902225549300455">
    <name>486.1</name>
  </wpt>
  <wpt lat="51.644939773054396" lon="4.3912079747001629">
    <name>486.2</name>
  </wpt>
  <wpt lat="51.645670061142866" lon="4.3920292068459128">
    <name>486.3</name>
  </wpt>
  <wpt lat="51.646472339838674" lon="4.3925583395375645">
    <name>486.4</name>
  </wpt>
  <wpt lat="51.647057771546173" lon="4.39364052467898">
    <name>486.5</name>
  </wpt>
  <wpt lat="51.64779814895153" lon="4.3944455881687565">
    <name>486.6</name>
  </wpt>
  <wpt lat="51.648467340727237" lon="4.3953740556572738">
    <name>486.7</name>
  </wpt>
  <wpt lat="51.648822002658626" lon="4.3966869814816256">
    <name>486.8</name>
  </wpt>
  <wpt lat="51.64901755521376" lon="4.398101701498895">
    <name>486.9</name>
  </wpt>
  <wpt lat="51.64921310776883" lon="4.3995164276189618">
    <name>487.0</name>
  </wpt>
  <wpt lat="51.649014339069772" lon="4.40054488072444">
    <name>487.1</name>
  </wpt>
  <wpt lat="51.64931769089867" lon="4.4018844464413318">
    <name>487.2</name>
  </wpt>
  <wpt lat="51.649298164970496" lon="4.4033326360853655">
    <name>487.3</name>
  </wpt>
  <wpt lat="51.649382471331755" lon="4.4047529425589493">
    <name>487.4</name>
  </wpt>
  <wpt lat="51.650069386113053" lon="4.4056783543630926">
    <name>487.5</name>
  </wpt>
  <wpt lat="51.650742125242346" lon="4.4066398959335">
    <name>487.6</name>
  </wpt>
  <wpt lat="51.651410906890973" lon="4.4076089457541556">
    <name>487.7</name>
  </wpt>
  <wpt lat="51.652076379333053" lon="4.4085839283676789">
    <name>487.8</name>
  </wpt>
  <wpt lat="51.652741851775033" lon="4.4095589252956326">
    <name>487.9</name>
  </wpt>
  <wpt lat="51.653420129532634" lon="4.4105019487467407">
    <name>488.0</name>
  </wpt>
  <wpt lat="51.654301615844162" lon="4.4102590599689888">
    <name>488.1</name>
  </wpt>
  <wpt lat="51.6551804607356" lon="4.4099515039263864">
    <name>488.2</name>
  </wpt>
  <wpt lat="51.656072150443464" lon="4.4097978078362248">
    <name>488.3</name>
  </wpt>
  <wpt lat="51.65694607099406" lon="4.4100903530071482">
    <name>488.4</name>
  </wpt>
  <wpt lat="51.656854682986726" lon="4.4111658459480383">
    <name>488.5</name>
  </wpt>
  <wpt lat="51.65644413319275" lon="4.4124524947377806">
    <name>488.6</name>
  </wpt>
  <wpt lat="51.65611700557232" lon="4.4137941624773589">
    <name>488.7</name>
  </wpt>
  <wpt lat="51.655562238113731" lon="4.4149340950921721">
    <name>488.8</name>
  </wpt>
  <wpt lat="51.655013314390978" lon="4.4160823442403982">
    <name>488.9</name>
  </wpt>
  <wpt lat="51.6544686778794" lon="4.4172355098037439">
    <name>489.0</name>
  </wpt>
  <wpt lat="51.653977002302234" lon="4.4184486721547129">
    <name>489.1</name>
  </wpt>
  <wpt lat="51.653502052344209" lon="4.4196795046678305">
    <name>489.2</name>
  </wpt>
  <wpt lat="51.653136964402655" lon="4.4208362939090815">
    <name>489.3</name>
  </wpt>
  <wpt lat="51.653614106295926" lon="4.421687914564691">
    <name>489.4</name>
  </wpt>
  <wpt lat="51.654411571824895" lon="4.4223579985891979">
    <name>489.5</name>
  </wpt>
  <wpt lat="51.655196592897809" lon="4.4230647298882761">
    <name>489.6</name>
  </wpt>
  <wpt lat="51.655970704338451" lon="4.4238018145160058">
    <name>489.7</name>
  </wpt>
  <wpt lat="51.656686819853036" lon="4.4246734112464932">
    <name>489.8</name>
  </wpt>
  <wpt lat="51.657344158919678" lon="4.4256626905238416">
    <name>489.9</name>
  </wpt>
  <wpt lat="51.658013606008915" lon="4.4266306592425124">
    <name>490.0</name>
  </wpt>
  <wpt lat="51.658685827596351" lon="4.4275936794826114">
    <name>490.1</name>
  </wpt>
  <wpt lat="51.659378392429943" lon="4.42851501750245">
    <name>490.2</name>
  </wpt>
  <wpt lat="51.660160640104728" lon="4.4292259315008495">
    <name>490.3</name>
  </wpt>
  <wpt lat="51.66098275165033" lon="4.42981189124401">
    <name>490.4</name>
  </wpt>
  <wpt lat="51.661810189460112" lon="4.4303792732749647">
    <name>490.5</name>
  </wpt>
  <wpt lat="51.662575536880553" lon="4.4311388834791625">
    <name>490.6</name>
  </wpt>
  <wpt lat="51.663335463536242" lon="4.4319141891588991">
    <name>490.7</name>
  </wpt>
  <wpt lat="51.664092968096142" lon="4.4326956289017883">
    <name>490.8</name>
  </wpt>
  <wpt lat="51.664853042026337" lon="4.4334706103278947">
    <name>490.9</name>
  </wpt>
  <wpt lat="51.665613115956461" lon="4.4342456047555991">
    <name>491.0</name>
  </wpt>
  <wpt lat="51.666373189886528" lon="4.4350206121854114">
    <name>491.1</name>
  </wpt>
  <wpt lat="51.667133033559679" lon="4.435796218328333">
    <name>491.2</name>
  </wpt>
  <wpt lat="51.667886777701" lon="4.4365853704908931">
    <name>491.3</name>
  </wpt>
  <wpt lat="51.668493264158343" lon="4.43569328818886">
    <name>491.4</name>
  </wpt>
  <wpt lat="51.6691567701911" lon="4.4347391660243591">
    <name>491.5</name>
  </wpt>
  <wpt lat="51.669974583512548" lon="4.4341362339600225">
    <name>491.6</name>
  </wpt>
  <wpt lat="51.670793626978714" lon="4.4335373760253214">
    <name>491.7</name>
  </wpt>
  <wpt lat="51.671614031487366" lon="4.43294337002404">
    <name>491.8</name>
  </wpt>
  <wpt lat="51.672434787215515" lon="4.432350659480389">
    <name>491.9</name>
  </wpt>
  <wpt lat="51.67328147191575" lon="4.4318660797154665">
    <name>492.0</name>
  </wpt>
  <wpt lat="51.674124322854318" lon="4.43204061005604">
    <name>492.1</name>
  </wpt>
  <wpt lat="51.674906859407876" lon="4.4327551906985345">
    <name>492.2</name>
  </wpt>
  <wpt lat="51.675512958866314" lon="4.4325204529213371">
    <name>492.3</name>
  </wpt>
  <wpt lat="51.676022330664196" lon="4.4317697363210309">
    <name>492.4</name>
  </wpt>
  <wpt lat="51.6766696153634" lon="4.4317551440578784">
    <name>492.5</name>
  </wpt>
  <wpt lat="51.677445970648677" lon="4.43248606047429">
    <name>492.6</name>
  </wpt>
  <wpt lat="51.6776677593074" lon="4.433438312297886">
    <name>492.7</name>
  </wpt>
  <wpt lat="51.677521460284623" lon="4.434579869579113">
    <name>492.8</name>
  </wpt>
  <wpt lat="51.678043457597681" lon="4.4354948438203659">
    <name>492.9</name>
  </wpt>
  <wpt lat="51.678674982521905" lon="4.43615979343189">
    <name>493.0</name>
  </wpt>
  <wpt lat="51.679451132989271" lon="4.4368922614563058">
    <name>493.1</name>
  </wpt>
  <wpt lat="51.68023074884109" lon="4.4376152601928718">
    <name>493.2</name>
  </wpt>
  <wpt lat="51.681007838139642" lon="4.4383453233248833">
    <name>493.3</name>
  </wpt>
  <wpt lat="51.681784927438137" lon="4.4390753989863461">
    <name>493.4</name>
  </wpt>
  <wpt lat="51.682562016736583" lon="4.439805487177872">
    <name>493.5</name>
  </wpt>
  <wpt lat="51.68333910603495" lon="4.4405355878999684">
    <name>493.6</name>
  </wpt>
  <wpt lat="51.68411927638131" lon="4.4411902355902519">
    <name>493.7</name>
  </wpt>
  <wpt lat="51.684885150549661" lon="4.4418717597479231">
    <name>493.8</name>
  </wpt>
  <wpt lat="51.685666188859862" lon="4.4425908414026019">
    <name>493.9</name>
  </wpt>
  <wpt lat="51.68635374327706" lon="4.4433276289747674">
    <name>494.0</name>
  </wpt>
  <wpt lat="51.68720189429483" lon="4.4437722452933155">
    <name>494.1</name>
  </wpt>
  <wpt lat="51.688087185083013" lon="4.443629764562397">
    <name>494.2</name>
  </wpt>
  <wpt lat="51.688873454928959" lon="4.442944348845951">
    <name>494.3</name>
  </wpt>
  <wpt lat="51.688823878467126" lon="4.4419878572763">
    <name>494.4</name>
  </wpt>
  <wpt lat="51.689474592085489" lon="4.441586493748332">
    <name>494.5</name>
  </wpt>
  <wpt lat="51.690158329827483" lon="4.4414079905431159">
    <name>494.6</name>
  </wpt>
  <wpt lat="51.690888820257854" lon="4.441432384934128">
    <name>494.7</name>
  </wpt>
  <wpt lat="51.691514667231658" lon="4.4404271152312544">
    <name>494.8</name>
  </wpt>
  <wpt lat="51.692022439959928" lon="4.4392302738279339">
    <name>494.9</name>
  </wpt>
  <wpt lat="51.691852017279082" lon="4.4382559882863513">
    <name>495.0</name>
  </wpt>
  <wpt lat="51.692471320769975" lon="4.4385726445784188">
    <name>495.1</name>
  </wpt>
  <wpt lat="51.693207180932227" lon="4.4394065673809013">
    <name>495.2</name>
  </wpt>
  <wpt lat="51.693954706895134" lon="4.4402127068926314">
    <name>495.3</name>
  </wpt>
  <wpt lat="51.69360026878168" lon="4.4413658988953939">
    <name>495.4</name>
  </wpt>
  <wpt lat="51.694148675639688" lon="4.4407426964574688">
    <name>495.5</name>
  </wpt>
  <wpt lat="51.694748851679435" lon="4.4403039201894607">
    <name>495.6</name>
  </wpt>
  <wpt lat="51.695479759997959" lon="4.4411413392190688">
    <name>495.7</name>
  </wpt>
  <wpt lat="51.696074200629319" lon="4.4407280638165387">
    <name>495.8</name>
  </wpt>
  <wpt lat="51.696262063636091" lon="4.4394749209338675">
    <name>495.9</name>
  </wpt>
  <wpt lat="51.695806360513274" lon="4.4382613688043451">
    <name>496.0</name>
  </wpt>
  <wpt lat="51.69575972982252" lon="4.4368221839336988">
    <name>496.1</name>
  </wpt>
  <wpt lat="51.696219706301676" lon="4.435580612866076">
    <name>496.2</name>
  </wpt>
  <wpt lat="51.696465014555464" lon="4.4342256362505426">
    <name>496.3</name>
  </wpt>
  <wpt lat="51.696414573760293" lon="4.4327777943338553">
    <name>496.4</name>
  </wpt>
  <wpt lat="51.696368673728742" lon="4.4313298286312008">
    <name>496.5</name>
  </wpt>
  <wpt lat="51.696414336688335" lon="4.4298894788530392">
    <name>496.6</name>
  </wpt>
  <wpt lat="51.696622149668379" lon="4.4284778235568885">
    <name>496.7</name>
  </wpt>
  <wpt lat="51.696808611954914" lon="4.4270585900421535">
    <name>496.8</name>
  </wpt>
  <wpt lat="51.696750640016866" lon="4.4256365876678068">
    <name>496.9</name>
  </wpt>
  <wpt lat="51.696228838651457" lon="4.4244652255651937">
    <name>497.0</name>
  </wpt>
  <wpt lat="51.695642619530361" lon="4.4233649831829345">
    <name>497.1</name>
  </wpt>
  <wpt lat="51.695040088487723" lon="4.4222880075123365">
    <name>497.2</name>
  </wpt>
  <wpt lat="51.694460640940321" lon="4.42117867186796">
    <name>497.3</name>
  </wpt>
  <wpt lat="51.693862222582489" lon="4.4200957855416636">
    <name>497.4</name>
  </wpt>
  <wpt lat="51.693270156882" lon="4.4190038005068173">
    <name>497.5</name>
  </wpt>
  <wpt lat="51.692682374171838" lon="4.4179057493910641">
    <name>497.6</name>
  </wpt>
  <wpt lat="51.692049137743339" lon="4.4170532090016836">
    <name>497.7</name>
  </wpt>
  <wpt lat="51.691362695033405" lon="4.41799021537777">
    <name>497.8</name>
  </wpt>
  <wpt lat="51.6905628610271" lon="4.4186485428894153">
    <name>497.9</name>
  </wpt>
  <wpt lat="51.689751433196044" lon="4.4192740624993343">
    <name>498.0</name>
  </wpt>
  <wpt lat="51.688948467562504" lon="4.4199245325623906">
    <name>498.1</name>
  </wpt>
  <wpt lat="51.688120170237589" lon="4.4195476210825309">
    <name>498.2</name>
  </wpt>
  <wpt lat="51.687324412817681" lon="4.4188717792323029">
    <name>498.3</name>
  </wpt>
  <wpt lat="51.686479121794605" lon="4.4184693255284557">
    <name>498.4</name>
  </wpt>
  <wpt lat="51.685584446772992" lon="4.4186165929938648">
    <name>498.5</name>
  </wpt>
  <wpt lat="51.684689490620357" lon="4.4187589847171891">
    <name>498.6</name>
  </wpt>
  <wpt lat="51.683793189796688" lon="4.4188594204322023">
    <name>498.7</name>
  </wpt>
  <wpt lat="51.682606378706026" lon="4.4171044484266373">
    <name>498.90</name>
  </wpt>
  <wpt lat="51.682709611892264" lon="4.4169540920669785">
    <name>498.9</name>
  </wpt>
  <wpt lat="51.683377059985915" lon="4.4159819525972877">
    <name>499.0</name>
  </wpt>
  <wpt lat="51.684044508079474" lon="4.4150097987963743">
    <name>499.1</name>
  </wpt>
  <wpt lat="51.684711956172926" lon="4.4140376306637288">
    <name>499.2</name>
  </wpt>
  <wpt lat="51.685379404266293" lon="4.4130654481988429">
    <name>499.3</name>
  </wpt>
  <wpt lat="51.686035897898485" lon="4.4120741637867473">
    <name>499.4</name>
  </wpt>
  <wpt lat="51.686688191586576" lon="4.4110755505842247">
    <name>499.5</name>
  </wpt>
  <wpt lat="51.687340485274575" lon="4.4100769229927712">
    <name>499.6</name>
  </wpt>
  <wpt lat="51.687992778962467" lon="4.4090782810118769">
    <name>499.7</name>
  </wpt>
  <wpt lat="51.688653412246644" lon="4.4080970477165264">
    <name>499.8</name>
  </wpt>
  <wpt lat="51.689336092167437" lon="4.4071533051632752">
    <name>499.9</name>
  </wpt>
  <wpt lat="51.690007724982877" lon="4.4061885510698975">
    <name>500.0</name>
  </wpt>
  <wpt lat="51.690715503221185" lon="4.4052951804529954">
    <name>500.1</name>
  </wpt>
  <wpt lat="51.691404693683253" lon="4.4043631763957061">
    <name>500.2</name>
  </wpt>
  <wpt lat="51.692094720133113" lon="4.4034327713598911">
    <name>500.3</name>
  </wpt>
  <wpt lat="51.692785479836985" lon="4.4025037670512477">
    <name>500.4</name>
  </wpt>
  <wpt lat="51.693476239540765" lon="4.40157474856415">
    <name>500.5</name>
  </wpt>
  <wpt lat="51.694183937535" lon="4.4006797263193995">
    <name>500.6</name>
  </wpt>
  <wpt lat="51.694928347922136" lon="4.3998680347476551">
    <name>500.7</name>
  </wpt>
  <wpt lat="51.695721439176424" lon="4.3991858397002668">
    <name>500.8</name>
  </wpt>
  <wpt lat="51.696535146161388" lon="4.3985685447630321">
    <name>500.9</name>
  </wpt>
  <wpt lat="51.697360147657548" lon="4.3979917693793844">
    <name>501.0</name>
  </wpt>
  <wpt lat="51.698196990976342" lon="4.3974603934871963">
    <name>501.1</name>
  </wpt>
  <wpt lat="51.699040200686085" lon="4.3969569683492411">
    <name>501.2</name>
  </wpt>
  <wpt lat="51.699899596405722" lon="4.3965301599305029">
    <name>501.3</name>
  </wpt>
  <wpt lat="51.700777291576784" lon="4.3962195970489075">
    <name>501.4</name>
  </wpt>
  <wpt lat="51.70161749768387" lon="4.3958199727449285">
    <name>501.5</name>
  </wpt>
  <wpt lat="51.702493132475063" lon="4.3958658387385707">
    <name>501.6</name>
  </wpt>
  <wpt lat="51.703391810282788" lon="4.3958129124217118">
    <name>501.7</name>
  </wpt>
  <wpt lat="51.70427452121627" lon="4.3958736197285591">
    <name>501.8</name>
  </wpt>
  <wpt lat="51.705168186332536" lon="4.3960024788122523">
    <name>501.9</name>
  </wpt>
  <wpt lat="51.706065809003981" lon="4.3960759999999866">
    <name>502.0</name>
  </wpt>
  <wpt lat="51.706963886887394" lon="4.3961257124849107">
    <name>502.1</name>
  </wpt>
  <wpt lat="51.707850709088888" lon="4.3963603785061487">
    <name>502.2</name>
  </wpt>
  <wpt lat="51.708718185888927" lon="4.3967417406013123">
    <name>502.3</name>
  </wpt>
  <wpt lat="51.709581444104181" lon="4.3971485748184937">
    <name>502.4</name>
  </wpt>
  <wpt lat="51.710438338898612" lon="4.39758641729407">
    <name>502.5</name>
  </wpt>
  <wpt lat="51.711277284170421" lon="4.3981089089930432">
    <name>502.6</name>
  </wpt>
  <wpt lat="51.712115774003948" lon="4.3986336055423916">
    <name>502.7</name>
  </wpt>
  <wpt lat="51.71295531688402" lon="4.3991538914298012">
    <name>502.8</name>
  </wpt>
  <wpt lat="51.713795123043823" lon="4.3996730851405843">
    <name>502.9</name>
  </wpt>
  <wpt lat="51.714631186217005" lon="4.40020761692406">
    <name>503.0</name>
  </wpt>
  <wpt lat="51.715471434267357" lon="4.40072494971123">
    <name>503.1</name>
  </wpt>
  <wpt lat="51.71631106893193" lon="4.4012449453215758">
    <name>503.2</name>
  </wpt>
  <wpt lat="51.717149853163754" lon="4.4017685138653757">
    <name>503.3</name>
  </wpt>
  <wpt lat="51.717985944884553" lon="4.4023029043171125">
    <name>503.4</name>
  </wpt>
  <wpt lat="51.718826291825486" lon="4.4028198997393355">
    <name>503.5</name>
  </wpt>
  <wpt lat="51.719666426042728" lon="4.4033377125992255">
    <name>503.6</name>
  </wpt>
  <wpt lat="51.72050375199192" lon="4.4038673558924453">
    <name>503.7</name>
  </wpt>
  <wpt lat="51.721319492149" lon="4.4044758956996075">
    <name>503.8</name>
  </wpt>
  <wpt lat="51.72215490822181" lon="4.4050133251866086">
    <name>503.9</name>
  </wpt>
  <wpt lat="51.722991069985191" lon="4.4055477795247482">
    <name>504.0</name>
  </wpt>
  <wpt lat="51.723820675115554" lon="4.4061008747880335">
    <name>504.1</name>
  </wpt>
  <wpt lat="51.724662325887756" lon="4.4065764522001487">
    <name>504.2</name>
  </wpt>
  <wpt lat="51.725500843409037" lon="4.4071012295955336">
    <name>504.3</name>
  </wpt>
  <wpt lat="51.72633936093029" lon="4.4076260167246364">
    <name>504.4</name>
  </wpt>
  <wpt lat="51.7271778784515" lon="4.4081508135880689">
    <name>504.5</name>
  </wpt>
  <wpt lat="51.72801306267592" lon="4.408689028301402">
    <name>504.6</name>
  </wpt>
  <wpt lat="51.728843609093289" lon="4.4092459042858643">
    <name>504.7</name>
  </wpt>
  <wpt lat="51.729675451254771" lon="4.4097976259468679">
    <name>504.8</name>
  </wpt>
  <wpt lat="51.730518440890819" lon="4.4103029757905157">
    <name>504.9</name>
  </wpt>
  <wpt lat="51.731369074239339" lon="4.4107735085570132">
    <name>505.0</name>
  </wpt>
  <wpt lat="51.732226159131464" lon="4.4112108256020042">
    <name>505.1</name>
  </wpt>
  <wpt lat="51.732408799278616" lon="4.412191411036992">
    <name>505.2</name>
  </wpt>
  <wpt lat="51.731803602129226" lon="4.413264625096">
    <name>505.3</name>
  </wpt>
  <wpt lat="51.731207482644535" lon="4.414351839627769">
    <name>505.4</name>
  </wpt>
  <wpt lat="51.730609314419858" lon="4.4154361054043951">
    <name>505.5</name>
  </wpt>
  <wpt lat="51.730005753035122" lon="4.4165124810027443">
    <name>505.6</name>
  </wpt>
  <wpt lat="51.729397414832825" lon="4.4175818661070814">
    <name>505.7</name>
  </wpt>
  <wpt lat="51.728789076630633" lon="4.4186512368196373">
    <name>505.8</name>
  </wpt>
  <wpt lat="51.72818319574337" lon="4.4197241936939049">
    <name>505.9</name>
  </wpt>
  <wpt lat="51.727579463389873" lon="4.4208002489049552">
    <name>506.0</name>
  </wpt>
  <wpt lat="51.726966016858107" lon="4.4218619428390848">
    <name>506.1</name>
  </wpt>
  <wpt lat="51.726389410830443" lon="4.42297428771464">
    <name>506.2</name>
  </wpt>
  <wpt lat="51.726036000246019" lon="4.4242141584175263">
    <name>506.3</name>
  </wpt>
  <wpt lat="51.726139956212876" lon="4.4256495077755558">
    <name>506.4</name>
  </wpt>
  <wpt lat="51.726210646704772" lon="4.427095558806581">
    <name>506.5</name>
  </wpt>
  <wpt lat="51.726257443704924" lon="4.4285454695932778">
    <name>506.6</name>
  </wpt>
  <wpt lat="51.726311914302819" lon="4.4299944907411719">
    <name>506.7</name>
  </wpt>
  <wpt lat="51.726365871829827" lon="4.431443492825788">
    <name>506.8</name>
  </wpt>
  <wpt lat="51.7264055151572" lon="4.4328938750421356">
    <name>506.9</name>
  </wpt>
  <wpt lat="51.726446994778719" lon="4.4343442125158656">
    <name>507.0</name>
  </wpt>
  <wpt lat="51.726498410618468" lon="4.4357935578542884">
    <name>507.1</name>
  </wpt>
  <wpt lat="51.726366048892558" lon="4.4371954430804328">
    <name>507.2</name>
  </wpt>
  <wpt lat="51.727022202141434" lon="4.43788901984758">
    <name>507.3</name>
  </wpt>
  <wpt lat="51.727919875934525" lon="4.4379745085627631">
    <name>507.4</name>
  </wpt>
  <wpt lat="51.728815417516252" lon="4.4380534106827261">
    <name>507.5</name>
  </wpt>
  <wpt lat="51.729712354524239" lon="4.4381590768973664">
    <name>507.6</name>
  </wpt>
  <wpt lat="51.730598675817674" lon="4.4383208527827405">
    <name>507.7</name>
  </wpt>
  <wpt lat="51.731495554896028" lon="4.4384270959927461">
    <name>507.8</name>
  </wpt>
  <wpt lat="51.732393044045395" lon="4.4385188381031515">
    <name>507.9</name>
  </wpt>
  <wpt lat="51.73329015660871" lon="4.4386139183253857">
    <name>508.0</name>
  </wpt>
  <wpt lat="51.734186938802914" lon="4.4387166534875941">
    <name>508.1</name>
  </wpt>
  <wpt lat="51.73508293126033" lon="4.4388333016650465">
    <name>508.2</name>
  </wpt>
  <wpt lat="51.735967184623767" lon="4.4390957829378976">
    <name>508.3</name>
  </wpt>
  <wpt lat="51.736845574715858" lon="4.4394001672795662">
    <name>508.4</name>
  </wpt>
  <wpt lat="51.737725469866639" lon="4.4396985626737155">
    <name>508.5</name>
  </wpt>
  <wpt lat="51.738604355670894" lon="4.4399930888954104">
    <name>508.6</name>
  </wpt>
  <wpt lat="51.7394972449474" lon="4.4400860000000133">
    <name>508.7</name>
  </wpt>
  <wpt lat="51.740376748180616" lon="4.4399594305490862">
    <name>508.8</name>
  </wpt>
  <wpt lat="51.741266857199314" lon="4.4397640000000118">
    <name>508.9</name>
  </wpt>
  <wpt lat="51.742148135367906" lon="4.4400417808792643">
    <name>509.0</name>
  </wpt>
  <wpt lat="51.743026804734505" lon="4.4403494096634422">
    <name>509.1</name>
  </wpt>
  <wpt lat="51.743906000762045" lon="4.4406531814453425">
    <name>509.2</name>
  </wpt>
  <wpt lat="51.744786011141755" lon="4.4409502396637714">
    <name>509.3</name>
  </wpt>
  <wpt lat="51.74561509529758" lon="4.4413730000000387">
    <name>509.4</name>
  </wpt>
  <wpt lat="51.746503601947758" lon="4.441350647068556">
    <name>509.5</name>
  </wpt>
  <wpt lat="51.747197145943396" lon="4.4418255271978477">
    <name>509.6</name>
  </wpt>
  <wpt lat="51.74807399041805" lon="4.4421478530907121">
    <name>509.7</name>
  </wpt>
  <wpt lat="51.748950775055789" lon="4.4424708894702318">
    <name>509.8</name>
  </wpt>
  <wpt lat="51.749825923983479" lon="4.4428053275261936">
    <name>509.9</name>
  </wpt>
  <wpt lat="51.75061456543196" lon="4.4433054251688588">
    <name>510.0</name>
  </wpt>
  <wpt lat="51.751498501277027" lon="4.4434260687265335">
    <name>510.1</name>
  </wpt>
  <wpt lat="51.7523779597728" lon="4.4437250167843469">
    <name>510.2</name>
  </wpt>
  <wpt lat="51.753261439500186" lon="4.4439793863795964">
    <name>510.3</name>
  </wpt>
  <wpt lat="51.7541389138397" lon="4.4442966867326632">
    <name>510.4</name>
  </wpt>
  <wpt lat="51.755016369747551" lon="4.44461509596836">
    <name>510.5</name>
  </wpt>
  <wpt lat="51.755893825655406" lon="4.444933511390821">
    <name>510.6</name>
  </wpt>
  <wpt lat="51.756777935300278" lon="4.44491282906945">
    <name>510.7</name>
  </wpt>
  <wpt lat="51.7576280319218" lon="4.4444696077800465">
    <name>510.8</name>
  </wpt>
  <wpt lat="51.7585265694117" lon="4.4444103777706223">
    <name>510.9</name>
  </wpt>
  <wpt lat="51.759419735152029" lon="4.4445300693935739">
    <name>511.0</name>
  </wpt>
  <wpt lat="51.760310371943987" lon="4.4443961947732067">
    <name>511.1</name>
  </wpt>
  <wpt lat="51.761191319541837" lon="4.44410527837319">
    <name>511.2</name>
  </wpt>
  <wpt lat="51.762087372459035" lon="4.4440011958375374">
    <name>511.3</name>
  </wpt>
  <wpt lat="51.76298521615211" lon="4.4439179270141578">
    <name>511.4</name>
  </wpt>
  <wpt lat="51.763882673416894" lon="4.4438247724483233">
    <name>511.5</name>
  </wpt>
  <wpt lat="51.764780132171353" lon="4.4438294446998414">
    <name>511.6</name>
  </wpt>
  <wpt lat="51.765677384448516" lon="4.4439009242015892">
    <name>511.7</name>
  </wpt>
  <wpt lat="51.7665660297671" lon="4.4439477230052038">
    <name>511.8</name>
  </wpt>
  <wpt lat="51.767455657149263" lon="4.4441474965195615">
    <name>511.9</name>
  </wpt>
  <wpt lat="51.768342317214412" lon="4.4443129999999584">
    <name>512.0</name>
  </wpt>
  <wpt lat="51.76872845946486" lon="4.44333604852935">
    <name>512.1</name>
  </wpt>
  <wpt lat="51.7688660001231" lon="4.4419326195928495">
    <name>512.2</name>
  </wpt>
  <wpt lat="51.768887000161577" lon="4.4404816011625661">
    <name>512.3</name>
  </wpt>
  <wpt lat="51.768909000282392" lon="4.4390304506222193">
    <name>512.4</name>
  </wpt>
  <wpt lat="51.768909588699188" lon="4.43758161578216">
    <name>512.5</name>
  </wpt>
  <wpt lat="51.768930000270736" lon="4.436130655746453">
    <name>512.6</name>
  </wpt>
  <wpt lat="51.768951000026846" lon="4.4346789790445538">
    <name>512.7</name>
  </wpt>
  <wpt lat="51.768962271165691" lon="4.4332270917936993">
    <name>512.8</name>
  </wpt>
  <wpt lat="51.768866000349085" lon="4.4318011564384587">
    <name>512.9</name>
  </wpt>
  <wpt lat="51.7690122716978" lon="4.4303927138586561">
    <name>513.0</name>
  </wpt>
  <wpt lat="51.769394257035692" lon="4.4290771102168236">
    <name>513.1</name>
  </wpt>
  <wpt lat="51.769772642257983" lon="4.4277622373302776">
    <name>513.2</name>
  </wpt>
  <wpt lat="51.770156359073738" lon="4.4264481392064967">
    <name>513.3</name>
  </wpt>
  <wpt lat="51.770537332676717" lon="4.4251320072782976">
    <name>513.4</name>
  </wpt>
  <wpt lat="51.7709684090261" lon="4.423856959419572">
    <name>513.5</name>
  </wpt>
  <wpt lat="51.771420306649723" lon="4.4226004381884589">
    <name>513.6</name>
  </wpt>
  <wpt lat="51.771886032631471" lon="4.4213572184601153">
    <name>513.7</name>
  </wpt>
  <wpt lat="51.772345416362796" lon="4.420107813417415">
    <name>513.8</name>
  </wpt>
  <wpt lat="51.77284290656069" lon="4.4188977614535121">
    <name>513.9</name>
  </wpt>
  <wpt lat="51.773379213371676" lon="4.4177312857904356">
    <name>514.0</name>
  </wpt>
  <wpt lat="51.773925333985943" lon="4.4165765987686063">
    <name>514.1</name>
  </wpt>
  <wpt lat="51.7744625481888" lon="4.4154131166588622">
    <name>514.2</name>
  </wpt>
  <wpt lat="51.774994279203035" lon="4.4142412042684844">
    <name>514.3</name>
  </wpt>
  <wpt lat="51.775552124937384" lon="4.41310146190855">
    <name>514.4</name>
  </wpt>
  <wpt lat="51.77594305055343" lon="4.4118769328555363">
    <name>514.5</name>
  </wpt>
  <wpt lat="51.776225516705125" lon="4.4104990061080329">
    <name>514.6</name>
  </wpt>
  <wpt lat="51.776469975282069" lon="4.4091002454919872">
    <name>514.7</name>
  </wpt>
  <wpt lat="51.776711979866761" lon="4.4077003697135231">
    <name>514.8</name>
  </wpt>
  <wpt lat="51.776951450314407" lon="4.4062993418972392">
    <name>514.9</name>
  </wpt>
  <wpt lat="51.777190920761988" lon="4.4048983066458867">
    <name>515.0</name>
  </wpt>
  <wpt lat="51.777430391209492" lon="4.4034972639592622">
    <name>515.1</name>
  </wpt>
  <wpt lat="51.7778868317805" lon="4.4025936635574237">
    <name>515.2</name>
  </wpt>
  <wpt lat="51.778676744428644" lon="4.40268493177943">
    <name>515.3</name>
  </wpt>
  <wpt lat="51.779558207484641" lon="4.4029731703649162">
    <name>515.4</name>
  </wpt>
  <wpt lat="51.780439871021485" lon="4.4032598083823142">
    <name>515.5</name>
  </wpt>
  <wpt lat="51.781321534558309" lon="4.4035464520009482">
    <name>515.6</name>
  </wpt>
  <wpt lat="51.782203213688362" lon="4.4038329749520857">
    <name>515.7</name>
  </wpt>
  <wpt lat="51.783085332821436" lon="4.4041159438023181">
    <name>515.8</name>
  </wpt>
  <wpt lat="51.78396745980433" lon="4.4043988541831665">
    <name>515.9</name>
  </wpt>
  <wpt lat="51.784849638477738" lon="4.4046813486779417">
    <name>516.0</name>
  </wpt>
  <wpt lat="51.785731817151152" lon="4.4049638486971112">
    <name>516.1</name>
  </wpt>
  <wpt lat="51.786613995824545" lon="4.4052463542409814">
    <name>516.2</name>
  </wpt>
  <wpt lat="51.787496174497932" lon="4.4055288653098561">
    <name>516.3</name>
  </wpt>
  <wpt lat="51.788378499882889" lon="4.405810170133063">
    <name>516.4</name>
  </wpt>
  <wpt lat="51.789261432528548" lon="4.40608646797076">
    <name>516.5</name>
  </wpt>
  <wpt lat="51.790146765064293" lon="4.4063361023601688">
    <name>516.6</name>
  </wpt>
  <wpt lat="51.79102125271055" lon="4.4066554333699743">
    <name>516.7</name>
  </wpt>
  <wpt lat="51.7919033538496" lon="4.4069386040968821">
    <name>516.8</name>
  </wpt>
  <wpt lat="51.792785454988625" lon="4.4072217803623319">
    <name>516.9</name>
  </wpt>
  <wpt lat="51.793667556127652" lon="4.4075049621666276">
    <name>517.0</name>
  </wpt>
  <wpt lat="51.794549657266664" lon="4.4077881495100764">
    <name>517.1</name>
  </wpt>
  <wpt lat="51.795431758405662" lon="4.4080713423928808">
    <name>517.2</name>
  </wpt>
  <wpt lat="51.796313859544654" lon="4.4083545408154476">
    <name>517.3</name>
  </wpt>
  <wpt lat="51.797195960683617" lon="4.4086377447779812">
    <name>517.4</name>
  </wpt>
  <wpt lat="51.798078061822572" lon="4.408920954280787">
    <name>517.5</name>
  </wpt>
  <wpt lat="51.798960162961521" lon="4.4092041693240684">
    <name>517.6</name>
  </wpt>
  <wpt lat="51.79984243041639" lon="4.4094860228559583">
    <name>517.7</name>
  </wpt>
  <wpt lat="51.800725048455618" lon="4.4097650063178975">
    <name>517.8</name>
  </wpt>
  <wpt lat="51.801607666494832" lon="4.4100439952414341">
    <name>517.9</name>
  </wpt>
  <wpt lat="51.802490284534038" lon="4.4103229896268727">
    <name>518.0</name>
  </wpt>
  <wpt lat="51.803372902573223" lon="4.4106019894744195">
    <name>518.1</name>
  </wpt>
  <wpt lat="51.804255473362247" lon="4.4108813853835649">
    <name>518.2</name>
  </wpt>
  <wpt lat="51.8051380310713" lon="4.4111608948368843">
    <name>518.3</name>
  </wpt>
  <wpt lat="51.806020588780356" lon="4.411440409762589">
    <name>518.4</name>
  </wpt>
  <wpt lat="51.8069031464894" lon="4.411719930160884">
    <name>518.5</name>
  </wpt>
  <wpt lat="51.80778570419843" lon="4.4119994560321762">
    <name>518.6</name>
  </wpt>
  <wpt lat="51.808672507601955" lon="4.4122278118489051">
    <name>518.7</name>
  </wpt>
  <wpt lat="51.80954492471654" lon="4.4125618905535857">
    <name>518.8</name>
  </wpt>
  <wpt lat="51.810427511404207" lon="4.4128411933344616">
    <name>518.9</name>
  </wpt>
  <wpt lat="51.811309999033561" lon="4.4131213192548993">
    <name>519.0</name>
  </wpt>
  <wpt lat="51.812192486662916" lon="4.4134014506605466">
    <name>519.1</name>
  </wpt>
  <wpt lat="51.813041514139272" lon="4.4134331999496084">
    <name>519.2</name>
  </wpt>
  <wpt lat="51.813603484645668" lon="4.4141568864923695">
    <name>519.3</name>
  </wpt>
  <wpt lat="51.814484656281415" lon="4.4144420800415718">
    <name>519.4</name>
  </wpt>
  <wpt lat="51.8151674231149" lon="4.41456939545216">
    <name>519.5</name>
  </wpt>
  <wpt lat="51.815956520119393" lon="4.41464883995766">
    <name>519.6</name>
  </wpt>
  <wpt lat="51.816837736848036" lon="4.4149375986444452">
    <name>519.7</name>
  </wpt>
  <wpt lat="51.817722759177784" lon="4.4151732415667944">
    <name>519.8</name>
  </wpt>
  <wpt lat="51.8186006127258" lon="4.4154565055741291">
    <name>519.9</name>
  </wpt>
  <wpt lat="51.819401329678286" lon="4.4155894774737927">
    <name>520.0</name>
  </wpt>
  <wpt lat="51.820158571289177" lon="4.4159939129500163">
    <name>520.1</name>
  </wpt>
  <wpt lat="51.8210393595121" lon="4.416285843241555">
    <name>520.2</name>
  </wpt>
  <wpt lat="51.821922734495324" lon="4.4165576185061628">
    <name>520.3</name>
  </wpt>
  <wpt lat="51.822804224465422" lon="4.4168459185440376">
    <name>520.4</name>
  </wpt>
  <wpt lat="51.823337368852336" lon="4.4162789066198291">
    <name>520.5</name>
  </wpt>
  <wpt lat="51.823535486563877" lon="4.4148597916057435">
    <name>520.6</name>
  </wpt>
  <wpt lat="51.8237229848614" lon="4.4134378604465088">
    <name>520.7</name>
  </wpt>
  <wpt lat="51.824067074237533" lon="4.412368212085676">
    <name>520.8</name>
  </wpt>
  <wpt lat="51.8248616011755" lon="4.4120002537773741">
    <name>520.9</name>
  </wpt>
  <wpt lat="51.825609054056507" lon="4.4115372959451955">
    <name>521.0</name>
  </wpt>
  <wpt lat="51.826492330585566" lon="4.4112636932004294">
    <name>521.1</name>
  </wpt>
  <wpt lat="51.826931844985566" lon="4.4118790291459975">
    <name>521.2</name>
  </wpt>
  <wpt lat="51.826758000002705" lon="4.4132987884517121">
    <name>521.3</name>
  </wpt>
  <wpt lat="51.826493640683445" lon="4.4146837782185253">
    <name>521.4</name>
  </wpt>
  <wpt lat="51.826013928383709" lon="4.4154759181639252">
    <name>521.5</name>
  </wpt>
  <wpt lat="51.825734122394849" lon="4.416858699352753">
    <name>521.6</name>
  </wpt>
  <wpt lat="51.8254596574389" lon="4.4182437669418864">
    <name>521.7</name>
  </wpt>
  <wpt lat="51.825182329658979" lon="4.4195935841392719">
    <name>521.8</name>
  </wpt>
  <wpt lat="51.824925209355932" lon="4.4209526370871153">
    <name>521.9</name>
  </wpt>
  <wpt lat="51.824661463332" lon="4.4223436839763579">
    <name>522.0</name>
  </wpt>
  <wpt lat="51.824382625576966" lon="4.4237268225665067">
    <name>522.1</name>
  </wpt>
  <wpt lat="51.824099338842629" lon="4.4251077718749183">
    <name>522.2</name>
  </wpt>
  <wpt lat="51.823821112691874" lon="4.4264914118253165">
    <name>522.3</name>
  </wpt>
  <wpt lat="51.8235214757847" lon="4.42786236916268">
    <name>522.4</name>
  </wpt>
  <wpt lat="51.82335195640421" lon="4.4292763816095322">
    <name>522.5</name>
  </wpt>
  <wpt lat="51.822891646713124" lon="4.43048495496369">
    <name>522.6</name>
  </wpt>
  <wpt lat="51.822533805069753" lon="4.4318189610077949">
    <name>522.7</name>
  </wpt>
  <wpt lat="51.822186447226855" lon="4.4331610065973708">
    <name>522.8</name>
  </wpt>
  <wpt lat="51.821849073730633" lon="4.43450970923018">
    <name>522.9</name>
  </wpt>
  <wpt lat="51.821507764877367" lon="4.4358554905324707">
    <name>523.0</name>
  </wpt>
  <wpt lat="51.821330000000188" lon="4.4372524835104192">
    <name>523.1</name>
  </wpt>
  <wpt lat="51.822111120577169" lon="4.4374623379506968">
    <name>523.2</name>
  </wpt>
  <wpt lat="51.823010379846785" lon="4.4374470000000361">
    <name>523.3</name>
  </wpt>
  <wpt lat="51.823895445527121" lon="4.4375894384327328">
    <name>523.4</name>
  </wpt>
  <wpt lat="51.824726041271568" lon="4.4381196879683751">
    <name>523.5</name>
  </wpt>
  <wpt lat="51.825396080903268" lon="4.4389456569789427">
    <name>523.6</name>
  </wpt>
  <wpt lat="51.82517541318223" lon="4.4399910070962694">
    <name>523.7</name>
  </wpt>
  <wpt lat="51.824812343736596" lon="4.4413187089272155">
    <name>523.8</name>
  </wpt>
  <wpt lat="51.824416416810244" lon="4.4426224471699731">
    <name>523.9</name>
  </wpt>
  <wpt lat="51.824123291047243" lon="4.4439461819665143">
    <name>524.0</name>
  </wpt>
  <wpt lat="51.823956944384179" lon="4.4453758368452947">
    <name>524.1</name>
  </wpt>
  <wpt lat="51.823799578586645" lon="4.4468084106610855">
    <name>524.2</name>
  </wpt>
  <wpt lat="51.823643066940235" lon="4.4482412005210161">
    <name>524.3</name>
  </wpt>
  <wpt lat="51.823477816590881" lon="4.4496710831828787">
    <name>524.4</name>
  </wpt>
  <wpt lat="51.823283727181149" lon="4.4510914150120486">
    <name>524.5</name>
  </wpt>
  <wpt lat="51.8230930805412" lon="4.4525129494171871">
    <name>524.6</name>
  </wpt>
  <wpt lat="51.8229234221779" lon="4.4539418182232522">
    <name>524.7</name>
  </wpt>
  <wpt lat="51.822753763814667" lon="4.4553706816482253">
    <name>524.8</name>
  </wpt>
  <wpt lat="51.8225663886087" lon="4.456793671646377">
    <name>524.9</name>
  </wpt>
  <wpt lat="51.822387823349395" lon="4.45821923238917">
    <name>525.0</name>
  </wpt>
  <wpt lat="51.822230700411779" lon="4.4596516943851068">
    <name>525.1</name>
  </wpt>
  <wpt lat="51.822067511646395" lon="4.4610825069333755">
    <name>525.2</name>
  </wpt>
  <wpt lat="51.821884141475245" lon="4.4625066811655172">
    <name>525.3</name>
  </wpt>
  <wpt lat="51.821679443747939" lon="4.4639234458006838">
    <name>525.4</name>
  </wpt>
  <wpt lat="51.821490716944005" lon="4.46534598825174">
    <name>525.5</name>
  </wpt>
  <wpt lat="51.821333547485906" lon="4.4667784848746042">
    <name>525.6</name>
  </wpt>
  <wpt lat="51.821183814755777" lon="4.4682131027666321">
    <name>525.7</name>
  </wpt>
  <wpt lat="51.821103007728048" lon="4.4696620145831369">
    <name>525.8</name>
  </wpt>
  <wpt lat="51.821016372512673" lon="4.4711101408037557">
    <name>525.9</name>
  </wpt>
  <wpt lat="51.820897307618083" lon="4.4725521541665145">
    <name>526.0</name>
  </wpt>
  <wpt lat="51.820723804313147" lon="4.4739797442854785">
    <name>526.1</name>
  </wpt>
  <wpt lat="51.820552537943549" lon="4.4754067113001943">
    <name>526.2</name>
  </wpt>
  <wpt lat="51.820408361153312" lon="4.4768421476938736">
    <name>526.3</name>
  </wpt>
  <wpt lat="51.820455032627613" lon="4.4782000325248443">
    <name>526.4</name>
  </wpt>
  <wpt lat="51.8204780980306" lon="4.4794177308224974">
    <name>526.5</name>
  </wpt>
  <wpt lat="51.819985110265279" lon="4.4806192413310812">
    <name>526.6</name>
  </wpt>
  <wpt lat="51.819826723854746" lon="4.4820513862294815">
    <name>526.7</name>
  </wpt>
  <wpt lat="51.81965573534476" lon="4.483479704253142">
    <name>526.8</name>
  </wpt>
  <wpt lat="51.819545258419858" lon="4.484781677105258">
    <name>526.9</name>
  </wpt>
  <wpt lat="51.820414236418692" lon="4.4844115933950057">
    <name>527.0</name>
  </wpt>
  <wpt lat="51.821270528724575" lon="4.4843960000000047">
    <name>527.1</name>
  </wpt>
  <wpt lat="51.822134682332461" lon="4.484005840186378">
    <name>527.2</name>
  </wpt>
  <wpt lat="51.82297598098004" lon="4.483503641966271">
    <name>527.3</name>
  </wpt>
  <wpt lat="51.823785425930488" lon="4.4828697942230242">
    <name>527.4</name>
  </wpt>
  <wpt lat="51.824570840182389" lon="4.4821617487660781">
    <name>527.5</name>
  </wpt>
  <wpt lat="51.82479072003354" lon="4.4831748038114645">
    <name>527.6</name>
  </wpt>
  <wpt lat="51.824741000005787" lon="4.4846265760679138">
    <name>527.7</name>
  </wpt>
  <wpt lat="51.824740332156622" lon="4.4860815762569946">
    <name>527.8</name>
  </wpt>
  <wpt lat="51.824411784747653" lon="4.487371774096311">
    <name>527.9</name>
  </wpt>
  <wpt lat="51.823726783692706" lon="4.4883108305206463">
    <name>528.0</name>
  </wpt>
  <wpt lat="51.823131082203133" lon="4.4893976823035908">
    <name>528.1</name>
  </wpt>
  <wpt lat="51.822504278613181" lon="4.490439368994017">
    <name>528.2</name>
  </wpt>
  <wpt lat="51.821866517947463" lon="4.4914651942949888">
    <name>528.3</name>
  </wpt>
  <wpt lat="51.821228757281837" lon="4.4924910050745144">
    <name>528.4</name>
  </wpt>
  <wpt lat="51.8205775082987" lon="4.4934910220959114">
    <name>528.5</name>
  </wpt>
  <wpt lat="51.8199723488745" lon="4.49456420728159">
    <name>528.6</name>
  </wpt>
  <wpt lat="51.819310181555942" lon="4.4955482351978251">
    <name>528.7</name>
  </wpt>
  <wpt lat="51.819905997875026" lon="4.49657962288162">
    <name>528.8</name>
  </wpt>
  <wpt lat="51.8205783717829" lon="4.49754078159375">
    <name>528.9</name>
  </wpt>
  <wpt lat="51.8212577737521" lon="4.4984940413083567">
    <name>529.0</name>
  </wpt>
  <wpt lat="51.82193513171574" lon="4.499451088007441">
    <name>529.1</name>
  </wpt>
  <wpt lat="51.82256093903797" lon="4.5004951601075689">
    <name>529.2</name>
  </wpt>
  <wpt lat="51.823173761541426" lon="4.5015600463163929">
    <name>529.3</name>
  </wpt>
  <wpt lat="51.823786584044775" lon="4.5026249470113466">
    <name>529.4</name>
  </wpt>
  <wpt lat="51.824399406548011" lon="4.5036898621930392">
    <name>529.5</name>
  </wpt>
  <wpt lat="51.825035841386132" lon="4.5047172587775881">
    <name>529.6</name>
  </wpt>
  <wpt lat="51.825708320695789" lon="4.5056827042138377">
    <name>529.7</name>
  </wpt>
  <wpt lat="51.826392343005438" lon="4.5066271855890756">
    <name>529.8</name>
  </wpt>
  <wpt lat="51.827078329628769" lon="4.5075679943552291">
    <name>529.9</name>
  </wpt>
  <wpt lat="51.827267273356249" lon="4.5089283154769388">
    <name>530.0</name>
  </wpt>
  <wpt lat="51.828045472748343" lon="4.5096520901882382">
    <name>530.1</name>
  </wpt>
  <wpt lat="51.828838298578042" lon="4.5103373322366291">
    <name>530.2</name>
  </wpt>
  <wpt lat="51.829644411390973" lon="4.5109824698844">
    <name>530.3</name>
  </wpt>
  <wpt lat="51.8304679370222" lon="4.5115662346228609">
    <name>530.4</name>
  </wpt>
  <wpt lat="51.8312957969065" lon="4.5121347313599642">
    <name>530.5</name>
  </wpt>
  <wpt lat="51.832123561128242" lon="4.5127036031740282">
    <name>530.6</name>
  </wpt>
  <wpt lat="51.832951316557057" lon="4.5132725189549614">
    <name>530.7</name>
  </wpt>
  <wpt lat="51.833779071985838" lon="4.5138414451932523">
    <name>530.8</name>
  </wpt>
  <wpt lat="51.834606827414575" lon="4.5144103818893093">
    <name>530.9</name>
  </wpt>
  <wpt lat="51.835451781622609" lon="4.5149078512007685">
    <name>531.0</name>
  </wpt>
  <wpt lat="51.836302751600918" lon="4.515378645480614">
    <name>531.1</name>
  </wpt>
  <wpt lat="51.837162044197456" lon="4.5158080184145852">
    <name>531.2</name>
  </wpt>
  <wpt lat="51.8380237753159" lon="4.51605461989463">
    <name>531.3</name>
  </wpt>
  <wpt lat="51.838745882309148" lon="4.5151985937844383">
    <name>531.4</name>
  </wpt>
  <wpt lat="51.839631631417184" lon="4.5153159869755282">
    <name>531.5</name>
  </wpt>
  <wpt lat="51.840525013267808" lon="4.5154819170799589">
    <name>531.6</name>
  </wpt>
  <wpt lat="51.841410837355738" lon="4.5157129120335355">
    <name>531.7</name>
  </wpt>
  <wpt lat="51.842262883968026" lon="4.5161781258585947">
    <name>531.8</name>
  </wpt>
  <wpt lat="51.843142466407429" lon="4.5164644687015878">
    <name>531.9</name>
  </wpt>
  <wpt lat="51.843871217023889" lon="4.516794448936686">
    <name>532.0</name>
  </wpt>
  <wpt lat="51.843809666274154" lon="4.51824670337866">
    <name>532.1</name>
  </wpt>
  <wpt lat="51.843748115524434" lon="4.519698955834949">
    <name>532.2</name>
  </wpt>
  <wpt lat="51.843678437234324" lon="4.5211502214559074">
    <name>532.3</name>
  </wpt>
  <wpt lat="51.8435697330538" lon="4.5225942490366693">
    <name>532.4</name>
  </wpt>
  <wpt lat="51.8434214070889" lon="4.524029814202204">
    <name>532.5</name>
  </wpt>
  <wpt lat="51.84320129084464" lon="4.52544050948716">
    <name>532.6</name>
  </wpt>
  <wpt lat="51.842931065424487" lon="4.5268288856250445">
    <name>532.7</name>
  </wpt>
  <wpt lat="51.842664628592324" lon="4.5282190790917731">
    <name>532.8</name>
  </wpt>
  <wpt lat="51.842367505536238" lon="4.5295929648581446">
    <name>532.9</name>
  </wpt>
  <wpt lat="51.84207038248023" lon="4.5309668415569329">
    <name>533.0</name>
  </wpt>
  <wpt lat="51.84178699259428" lon="4.5323444775200112">
    <name>533.1</name>
  </wpt>
  <wpt lat="51.8416196890415" lon="4.5337710455866089">
    <name>533.2</name>
  </wpt>
  <wpt lat="51.841522164144408" lon="4.5352176761497089">
    <name>533.3</name>
  </wpt>
  <wpt lat="51.841433895654362" lon="4.5364560127553517">
    <name>533.4</name>
  </wpt>
  <wpt lat="51.842322792037208" lon="4.5363659999999539">
    <name>533.5</name>
  </wpt>
  <wpt lat="51.843222113643115" lon="4.5363659999999539">
    <name>533.6</name>
  </wpt>
  <wpt lat="51.84412143524905" lon="4.5363659999999539">
    <name>533.7</name>
  </wpt>
  <wpt lat="51.84489965593125" lon="4.5363449999999981">
    <name>533.8</name>
  </wpt>
  <wpt lat="51.845798977537179" lon="4.5363449999999981">
    <name>533.9</name>
  </wpt>
  <wpt lat="51.846678631861295" lon="4.5364749625918455">
    <name>534.0</name>
  </wpt>
  <wpt lat="51.847559397032889" lon="4.5363449999999981">
    <name>534.1</name>
  </wpt>
  <wpt lat="51.848458718638817" lon="4.5363449999999981">
    <name>534.2</name>
  </wpt>
  <wpt lat="51.849355198755141" lon="4.5364075201444409">
    <name>534.3</name>
  </wpt>
  <wpt lat="51.85018964468933" lon="4.5364462019135861">
    <name>534.4</name>
  </wpt>
  <wpt lat="51.851088246219909" lon="4.5363994890486605">
    <name>534.5</name>
  </wpt>
  <wpt lat="51.851985744216449" lon="4.5364628684581678">
    <name>534.6</name>
  </wpt>
  <wpt lat="51.852839129672475" lon="4.5366547429166832">
    <name>534.7</name>
  </wpt>
  <wpt lat="51.853679268442562" lon="4.5363895319319125">
    <name>534.8</name>
  </wpt>
  <wpt lat="51.854578116291847" lon="4.5363659999999539">
    <name>534.9</name>
  </wpt>
  <wpt lat="51.855477343536791" lon="4.536363962628327">
    <name>535.0</name>
  </wpt>
  <wpt lat="51.8563738296868" lon="4.5363240000000422">
    <name>535.1</name>
  </wpt>
  <wpt lat="51.856850030075933" lon="4.5359618549766658">
    <name>535.2</name>
  </wpt>
  <wpt lat="51.857023574566128" lon="4.5348754254434489">
    <name>535.3</name>
  </wpt>
  <wpt lat="51.857634221240907" lon="4.5338119984989635">
    <name>535.4</name>
  </wpt>
  <wpt lat="51.858300276042293" lon="4.532840090552078">
    <name>535.5</name>
  </wpt>
  <wpt lat="51.858871586977145" lon="4.5320165635283427">
    <name>535.6</name>
  </wpt>
  <wpt lat="51.859071284262448" lon="4.5305993610642261">
    <name>535.7</name>
  </wpt>
  <wpt lat="51.859117000026828" lon="4.529153260779589">
    <name>535.8</name>
  </wpt>
  <wpt lat="51.859058931118525" lon="4.527705200039315">
    <name>535.9</name>
  </wpt>
  <wpt lat="51.858990384015023" lon="4.5262685848941073">
    <name>536.0</name>
  </wpt>
  <wpt lat="51.858945000028548" lon="4.5248254436467112">
    <name>536.1</name>
  </wpt>
  <wpt lat="51.858940454342651" lon="4.523372607894097">
    <name>536.2</name>
  </wpt>
  <wpt lat="51.858835972674186" lon="4.5219271873288029">
    <name>536.3</name>
  </wpt>
  <wpt lat="51.8587366087479" lon="4.5204811775565439">
    <name>536.4</name>
  </wpt>
  <wpt lat="51.858529550008065" lon="4.5190970353542221">
    <name>536.5</name>
  </wpt>
  <wpt lat="51.8582848251785" lon="4.5177298745805565">
    <name>536.6</name>
  </wpt>
  <wpt lat="51.858280000301818" lon="4.5164066918031223">
    <name>536.7</name>
  </wpt>
  <wpt lat="51.858237096309573" lon="4.5149535730184933">
    <name>536.8</name>
  </wpt>
  <wpt lat="51.858092645993509" lon="4.5135176190279607">
    <name>536.9</name>
  </wpt>
  <wpt lat="51.858000565077155" lon="4.5120720957482572">
    <name>537.0</name>
  </wpt>
  <wpt lat="51.857845781205455" lon="4.5106379454455006">
    <name>537.1</name>
  </wpt>
  <wpt lat="51.857640127703547" lon="4.5092241817282019">
    <name>537.2</name>
  </wpt>
  <wpt lat="51.857357000146308" lon="4.5083117440998137">
    <name>537.3</name>
  </wpt>
  <wpt lat="51.858098394949053" lon="4.5087042464213765">
    <name>537.4</name>
  </wpt>
  <wpt lat="51.858974596746172" lon="4.5090263954504657">
    <name>537.5</name>
  </wpt>
  <wpt lat="51.859862325921547" lon="4.5092482089650412">
    <name>537.6</name>
  </wpt>
  <wpt lat="51.860759551641" lon="4.5093212350083984">
    <name>537.7</name>
  </wpt>
  <wpt lat="51.861652923359948" lon="4.5091707913974224">
    <name>537.8</name>
  </wpt>
  <wpt lat="51.861585088204315" lon="4.5080016780392809">
    <name>537.9</name>
  </wpt>
  <wpt lat="51.862002866858354" lon="4.506943525542666">
    <name>538.0</name>
  </wpt>
  <wpt lat="51.862512203251647" lon="4.5057955258774536">
    <name>538.1</name>
  </wpt>
  <wpt lat="51.862363413586813" lon="4.5043775051107637">
    <name>538.2</name>
  </wpt>
  <wpt lat="51.862795654105675" lon="4.5037365470467936">
    <name>538.3</name>
  </wpt>
  <wpt lat="51.863692783476175" lon="4.5037120677160409">
    <name>538.4</name>
  </wpt>
  <wpt lat="51.864585517928134" lon="4.5035365244720031">
    <name>538.5</name>
  </wpt>
  <wpt lat="51.865478213055269" lon="4.50336005834102">
    <name>538.6</name>
  </wpt>
  <wpt lat="51.866370910786685" lon="4.5031836221091837">
    <name>538.7</name>
  </wpt>
  <wpt lat="51.867263179137232" lon="4.503001595589101">
    <name>538.8</name>
  </wpt>
  <wpt lat="51.8681000875941" lon="4.50250518840398">
    <name>538.9</name>
  </wpt>
  <wpt lat="51.868919396099322" lon="4.5020769999999688">
    <name>539.0</name>
  </wpt>
  <wpt lat="51.869738775354875" lon="4.5018196545065692">
    <name>539.1</name>
  </wpt>
  <wpt lat="51.8706151021604" lon="4.5014964824978163">
    <name>539.2</name>
  </wpt>
  <wpt lat="51.871505795159564" lon="4.50131040436561">
    <name>539.3</name>
  </wpt>
  <wpt lat="51.872398290609773" lon="4.5014215656550043">
    <name>539.4</name>
  </wpt>
  <wpt lat="51.873241711430282" lon="4.50117558915202">
    <name>539.5</name>
  </wpt>
  <wpt lat="51.874064628315722" lon="4.5006005154558117">
    <name>539.6</name>
  </wpt>
  <wpt lat="51.874818301922922" lon="4.5004897465052922">
    <name>539.7</name>
  </wpt>
  <wpt lat="51.87529054464045" lon="4.5017165879274073">
    <name>539.8</name>
  </wpt>
  <wpt lat="51.875956477539475" lon="4.5026917351025251">
    <name>539.9</name>
  </wpt>
  <wpt lat="51.876487248270827" lon="4.5038587889394517">
    <name>540.0</name>
  </wpt>
  <wpt lat="51.876915610669968" lon="4.50513523314453">
    <name>540.1</name>
  </wpt>
  <wpt lat="51.877497842431126" lon="4.506243955667121">
    <name>540.2</name>
  </wpt>
  <wpt lat="51.878058594391767" lon="4.50737968618011">
    <name>540.3</name>
  </wpt>
  <wpt lat="51.8786402912385" lon="4.5084906957001376">
    <name>540.4</name>
  </wpt>
  <wpt lat="51.879202804556904" lon="4.5093426137225467">
    <name>540.5</name>
  </wpt>
  <wpt lat="51.8799185209322" lon="4.5102150327313524">
    <name>540.6</name>
  </wpt>
  <wpt lat="51.880672295711939" lon="4.5110085064007821">
    <name>540.7</name>
  </wpt>
  <wpt lat="51.881353493081029" lon="4.5119420156006651">
    <name>540.8</name>
  </wpt>
  <wpt lat="51.881991137968811" lon="4.5129672841641142">
    <name>540.9</name>
  </wpt>
  <wpt lat="51.882389080720863" lon="4.5142152417739343">
    <name>541.0</name>
  </wpt>
  <wpt lat="51.882427399859424" lon="4.5155834014401357">
    <name>541.1</name>
  </wpt>
  <wpt lat="51.882229932525391" lon="4.5166347450422339">
    <name>541.2</name>
  </wpt>
  <wpt lat="51.882390186898704" lon="4.5180682891692312">
    <name>541.3</name>
  </wpt>
  <wpt lat="51.882545745077145" lon="4.5195032397906356">
    <name>541.4</name>
  </wpt>
  <wpt lat="51.882785350455144" lon="4.5209042689904866">
    <name>541.5</name>
  </wpt>
  <wpt lat="51.883435247205369" lon="4.5216065538897947">
    <name>541.6</name>
  </wpt>
  <wpt lat="51.884308152489055" lon="4.5219567402665426">
    <name>541.7</name>
  </wpt>
  <wpt lat="51.885180551225261" lon="4.5223090103602308">
    <name>541.8</name>
  </wpt>
  <wpt lat="51.886074837335357" lon="4.5224086628318485">
    <name>541.9</name>
  </wpt>
  <wpt lat="51.886971493632473" lon="4.5223069320950167">
    <name>542.0</name>
  </wpt>
  <wpt lat="51.887863519770455" lon="4.5221329090285893">
    <name>542.1</name>
  </wpt>
  <wpt lat="51.888737118245643" lon="4.5223055590601451">
    <name>542.2</name>
  </wpt>
  <wpt lat="51.889562091344182" lon="4.5218494897358887">
    <name>542.3</name>
  </wpt>
  <wpt lat="51.89036323901955" lon="4.5211874637194382">
    <name>542.4</name>
  </wpt>
  <wpt lat="51.891149079419556" lon="4.5204793223651549">
    <name>542.5</name>
  </wpt>
  <wpt lat="51.891950649578654" lon="4.519819430159024">
    <name>542.6</name>
  </wpt>
  <wpt lat="51.89275358876386" lon="4.5191631306609494">
    <name>542.7</name>
  </wpt>
  <wpt lat="51.8935503699758" lon="4.5184874109721118">
    <name>542.8</name>
  </wpt>
  <wpt lat="51.89434579522014" lon="4.5178085141656279">
    <name>542.9</name>
  </wpt>
  <wpt lat="51.89511711240177" lon="4.5171546632804223">
    <name>543.0</name>
  </wpt>
  <wpt lat="51.895930647781292" lon="4.5165334858732678">
    <name>543.1</name>
  </wpt>
  <wpt lat="51.896755582750686" lon="4.51595435777419">
    <name>543.2</name>
  </wpt>
  <wpt lat="51.897586503324341" lon="4.51539740433513">
    <name>543.3</name>
  </wpt>
  <wpt lat="51.898369948966661" lon="4.5146849404211888">
    <name>543.4</name>
  </wpt>
  <wpt lat="51.8991128043245" lon="4.514280998299987">
    <name>543.5</name>
  </wpt>
  <wpt lat="51.899849953244477" lon="4.5134963330641815">
    <name>543.6</name>
  </wpt>
  <wpt lat="51.90050372757873" lon="4.5125678886386034">
    <name>543.7</name>
  </wpt>
  <wpt lat="51.901263994283163" lon="4.5123595781308632">
    <name>543.8</name>
  </wpt>
  <wpt lat="51.900994642686364" lon="4.5113854898291654">
    <name>543.9</name>
  </wpt>
  <wpt lat="51.901383078481615" lon="4.5101928389849526">
    <name>544.0</name>
  </wpt>
  <wpt lat="51.90189010847773" lon="4.5089890888815134">
    <name>544.1</name>
  </wpt>
  <wpt lat="51.9024030368128" lon="4.507791851257311">
    <name>544.2</name>
  </wpt>
  <wpt lat="51.9029032353341" lon="4.5065809015867853">
    <name>544.3</name>
  </wpt>
  <wpt lat="51.9033331766846" lon="4.5053018749129805">
    <name>544.4</name>
  </wpt>
  <wpt lat="51.903834253799566" lon="4.50409339796861">
    <name>544.5</name>
  </wpt>
  <wpt lat="51.904344970175273" lon="4.5028978018278654">
    <name>544.6</name>
  </wpt>
  <wpt lat="51.904831882467946" lon="4.5016747400133763">
    <name>544.7</name>
  </wpt>
  <wpt lat="51.905344486816631" lon="4.5004771736817482">
    <name>544.8</name>
  </wpt>
  <wpt lat="51.905859946073512" lon="4.499282975078664">
    <name>544.9</name>
  </wpt>
  <wpt lat="51.906363510578089" lon="4.4980794485676077">
    <name>545.0</name>
  </wpt>
  <wpt lat="51.90687204267843" lon="4.4968783053582317">
    <name>545.1</name>
  </wpt>
  <wpt lat="51.907386955242117" lon="4.4956831975388862">
    <name>545.2</name>
  </wpt>
  <wpt lat="51.907900593079333" lon="4.4944867448713044">
    <name>545.3</name>
  </wpt>
  <wpt lat="51.908419349137596" lon="4.4933001662380727">
    <name>545.4</name>
  </wpt>
  <wpt lat="51.908423070145318" lon="4.4919446554022251">
    <name>545.5</name>
  </wpt>
  <wpt lat="51.907839219036596" lon="4.49083588036781">
    <name>545.6</name>
  </wpt>
  <wpt lat="51.908108665544461" lon="4.4895760549295822">
    <name>545.7</name>
  </wpt>
  <wpt lat="51.908594921133655" lon="4.48834997229998">
    <name>545.8</name>
  </wpt>
  <wpt lat="51.90908367523781" lon="4.4871262752586984">
    <name>545.9</name>
  </wpt>
  <wpt lat="51.90957242934185" lon="4.485902564900103">
    <name>546.0</name>
  </wpt>
  <wpt lat="51.910061183445791" lon="4.4846788412237881">
    <name>546.1</name>
  </wpt>
  <wpt lat="51.910549937549618" lon="4.4834551042293453">
    <name>546.2</name>
  </wpt>
  <wpt lat="51.911312211740942" lon="4.4827718025262246">
    <name>546.3</name>
  </wpt>
  <wpt lat="51.9121938999321" lon="4.4825848999239168">
    <name>546.4</name>
  </wpt>
  <wpt lat="51.913051304106965" lon="4.4822759566253438">
    <name>546.5</name>
  </wpt>
  <wpt lat="51.913948302533406" lon="4.4821833652697922">
    <name>546.6</name>
  </wpt>
  <wpt lat="51.91484739061184" lon="4.4821501420188694">
    <name>546.7</name>
  </wpt>
  <wpt lat="51.9157465073767" lon="4.482121000000042">
    <name>546.8</name>
  </wpt>
  <wpt lat="51.916640810356192" lon="4.4821598463189742">
    <name>546.9</name>
  </wpt>
  <wpt lat="51.9175052714673" lon="4.4817658654904617">
    <name>547.0</name>
  </wpt>
  <wpt lat="51.918187687425" lon="4.4811831764967112">
    <name>547.1</name>
  </wpt>
  <wpt lat="51.918987436801451" lon="4.4805395918958784">
    <name>547.2</name>
  </wpt>
  <wpt lat="51.9198562134219" lon="4.4801669146313676">
    <name>547.3</name>
  </wpt>
  <wpt lat="51.920731682720948" lon="4.47983348554577">
    <name>547.4</name>
  </wpt>
  <wpt lat="51.921591455407409" lon="4.4794076416030135">
    <name>547.5</name>
  </wpt>
</gpx>