<?xml version="1.0" encoding="utf-8"?>
<gpx xmlns:xsi="http://www.w3.org/2001/XMLSchema-instance" xsi:schemaLocation="http://www.topografix.com/GPX/1/1 http://www.topografix.com/GPX/1/1/gpx.xsd" version="1.1" creator="Roparun" xmlns="http://www.topografix.com/GPX/1/1">
  <wpt lat="49.7990146181015" lon="3.3210458588320462">
    <name>Let op! GEVAARLIJKE KRUISING</name>
  </wpt>
  <wpt lat="49.926787281612107" lon="3.3702280914211462">
    <name>Let op! GEVAARLIJKE KRUISING</name>
  </wpt>
  <wpt lat="50.497786179533328" lon="3.7105961364406159">
    <name>Let op! GEVAARLIJKE KRUISING</name>
  </wpt>
  <wpt lat="50.774230361752807" lon="3.8930480609664908">
    <name>Let op! GEVAARLIJKE KRUISING</name>
  </wpt>
  <wpt lat="50.915446654351939" lon="4.04601371640462">
    <name>Let op! GEVAARLIJKE KRUISING</name>
  </wpt>
  <wpt lat="50.961414107951192" lon="4.155768644436721">
    <name>Let op! GEVAARLIJKE KRUISING</name>
  </wpt>
  <wpt lat="51.566965768754081" lon="4.7433836060577761">
    <name>Let op! GEVAARLIJKE KRUISING</name>
  </wpt>
  <wpt lat="51.57824933801475" lon="4.7282013407436363">
    <name>Let op! GEVAARLIJKE KRUISING</name>
  </wpt>
  <wpt lat="51.475624088203531" lon="4.2903596333121179">
    <name>Let op! GEVAARLIJKE KRUISING</name>
  </wpt>
  <wpt lat="51.777889238191477" lon="4.4025035026782326">
    <name>Let op! GEVAARLIJKE KRUISING</name>
  </wpt>
  <wpt lat="51.81300684679524" lon="4.4134162054934434">
    <name>Let op! GEVAARLIJKE ROTONDE</name>
  </wpt>
  <wpt lat="51.820639083817923" lon="4.4788557307290571">
    <name>Let op! GEVAARLIJKE KRUISING</name>
  </wpt>
</gpx>