<?xml version="1.0" encoding="utf-8"?>
<gpx xmlns:xsi="http://www.w3.org/2001/XMLSchema-instance" xsi:schemaLocation="http://www.topografix.com/GPX/1/1 http://www.topografix.com/GPX/1/1/gpx.xsd" version="1.1" creator="Roparun" xmlns="http://www.topografix.com/GPX/1/1">
  <wpt lat="50.331591686975671" lon="3.5752247056978361">
    <name>94.75</name>
  </wpt>
  <wpt lat="50.33216037874913" lon="3.5752899516669">
    <name>94.8</name>
  </wpt>
  <wpt lat="50.333041316557853" lon="3.5750308272255542">
    <name>94.9</name>
  </wpt>
  <wpt lat="50.333923949032034" lon="3.5747852319685869">
    <name>95.0</name>
  </wpt>
  <wpt lat="50.334800137681306" lon="3.5745045152484636">
    <name>95.1</name>
  </wpt>
  <wpt lat="50.335696870395665" lon="3.5744337450724943">
    <name>95.2</name>
  </wpt>
  <wpt lat="50.336459000122652" lon="3.5745759315524372">
    <name>95.3</name>
  </wpt>
  <wpt lat="50.336587000079525" lon="3.5759662443900146">
    <name>95.4</name>
  </wpt>
  <wpt lat="50.336327341615124" lon="3.5772963214438289">
    <name>95.5</name>
  </wpt>
  <wpt lat="50.336440269493629" lon="3.5786737523147671">
    <name>95.6</name>
  </wpt>
  <wpt lat="50.336324138720443" lon="3.580042685974191">
    <name>95.7</name>
  </wpt>
  <wpt lat="50.3360972726048" lon="3.5814015571553193">
    <name>95.8</name>
  </wpt>
  <wpt lat="50.335966543538753" lon="3.5827954590528308">
    <name>95.9</name>
  </wpt>
  <wpt lat="50.335613166722865" lon="3.5840899589235389">
    <name>96.0</name>
  </wpt>
  <wpt lat="50.335266320581006" lon="3.585389902739728">
    <name>96.1</name>
  </wpt>
  <wpt lat="50.334929125985681" lon="3.5866959528291629">
    <name>96.2</name>
  </wpt>
  <wpt lat="50.334575278988574" lon="3.5879869700519329">
    <name>96.3</name>
  </wpt>
  <wpt lat="51.033655709024011" lon="4.1075616231534058">
    <name>219.94</name>
  </wpt>
  <wpt lat="51.034288607896244" lon="4.1074013921446593">
    <name>220.0</name>
  </wpt>
  <wpt lat="51.034994755077761" lon="4.1065181193154014">
    <name>220.1</name>
  </wpt>
  <wpt lat="51.035690543920239" lon="4.1056120284143649">
    <name>220.2</name>
  </wpt>
  <wpt lat="51.036349110791527" lon="4.1046492131502772">
    <name>220.3</name>
  </wpt>
  <wpt lat="51.036767771773142" lon="4.1033871472134065">
    <name>220.4</name>
  </wpt>
  <wpt lat="51.037422074920748" lon="4.10247926618943">
    <name>220.5</name>
  </wpt>
  <wpt lat="51.038288751978726" lon="4.1021591014522256">
    <name>220.6</name>
  </wpt>
  <wpt lat="51.136238716684588" lon="4.2835461202651333">
    <name>251.18</name>
  </wpt>
  <wpt lat="51.136465965091958" lon="4.2838651963771444">
    <name>251.2</name>
  </wpt>
  <wpt lat="51.137143081524194" lon="4.2848084476578476">
    <name>251.3</name>
  </wpt>
  <wpt lat="51.1378245535622" lon="4.2857436818289667">
    <name>251.4</name>
  </wpt>
  <wpt lat="51.138488997364846" lon="4.2867079643689312">
    <name>251.5</name>
  </wpt>
  <wpt lat="51.139170507482135" lon="4.2876431389897878">
    <name>251.6</name>
  </wpt>
  <wpt lat="51.139767163908061" lon="4.2887122946830063">
    <name>251.7</name>
  </wpt>
  <wpt lat="51.683084258691764" lon="4.4180637183711022">
    <name>498.82</name>
  </wpt>
  <wpt lat="51.777904588023233" lon="4.4025344099405483">
    <name>515.22</name>
  </wpt>
  <wpt lat="51.778660979960172" lon="4.4026797759083385">
    <name>515.3</name>
  </wpt>
  <wpt lat="51.779542439312216" lon="4.4029680440682">
    <name>515.4</name>
  </wpt>
  <wpt lat="51.780424102849061" lon="4.403254681985346">
    <name>515.5</name>
  </wpt>
  <wpt lat="51.781305766385913" lon="4.4035413255038316">
    <name>515.6</name>
  </wpt>
  <wpt lat="51.782187437368037" lon="4.4038279142748431">
    <name>515.7</name>
  </wpt>
  <wpt lat="51.783069556501111" lon="4.4041108830261475">
    <name>515.8</name>
  </wpt>
  <wpt lat="51.78395168242043" lon="4.40439380197943">
    <name>515.9</name>
  </wpt>
  <wpt lat="51.784833861093851" lon="4.40467629637538">
    <name>516.0</name>
  </wpt>
  <wpt lat="51.785716039767266" lon="4.4049587962958254">
    <name>516.1</name>
  </wpt>
  <wpt lat="51.786598218440666" lon="4.40524130174097">
    <name>516.2</name>
  </wpt>
  <wpt lat="51.787480397114052" lon="4.405523812711019">
    <name>516.3</name>
  </wpt>
  <wpt lat="51.788362709015423" lon="4.405805228745959">
    <name>516.4</name>
  </wpt>
  <wpt lat="51.7892456416611" lon="4.4060815264869673">
    <name>516.5</name>
  </wpt>
  <wpt lat="51.790131056349466" lon="4.4063305181913091">
    <name>516.6</name>
  </wpt>
  <wpt lat="51.791005476715284" lon="4.406650369056111">
    <name>516.7</name>
  </wpt>
  <wpt lat="51.791887577854318" lon="4.4069335396838873">
    <name>516.8</name>
  </wpt>
  <wpt lat="51.792769678993345" lon="4.4072167158503071">
    <name>516.9</name>
  </wpt>
  <wpt lat="51.793651780132365" lon="4.4074998975555735">
    <name>517.0</name>
  </wpt>
  <wpt lat="51.794533881271377" lon="4.4077830847998909">
    <name>517.1</name>
  </wpt>
  <wpt lat="51.795415982410375" lon="4.4080662775836652">
    <name>517.2</name>
  </wpt>
  <wpt lat="51.796298083549367" lon="4.4083494759071007">
    <name>517.3</name>
  </wpt>
  <wpt lat="51.797180184688358" lon="4.4086326797705029">
    <name>517.4</name>
  </wpt>
  <wpt lat="51.798062285827328" lon="4.4089158891741773">
    <name>517.5</name>
  </wpt>
  <wpt lat="51.798944386966284" lon="4.4091991041184277">
    <name>517.6</name>
  </wpt>
  <wpt lat="51.799826645177546" lon="4.4094810334211045">
    <name>517.7</name>
  </wpt>
  <wpt lat="51.80070926321676" lon="4.4097600167854392">
    <name>517.8</name>
  </wpt>
  <wpt lat="51.801591881255959" lon="4.41003900561137">
    <name>517.9</name>
  </wpt>
  <wpt lat="51.802474499295158" lon="4.4103179998991031">
    <name>518.0</name>
  </wpt>
  <wpt lat="51.803357117334365" lon="4.4105969996490444">
    <name>518.1</name>
  </wpt>
  <wpt lat="51.804239689206021" lon="4.410876386511573">
    <name>518.2</name>
  </wpt>
  <wpt lat="51.805122246915076" lon="4.4111558958669823">
    <name>518.3</name>
  </wpt>
  <wpt lat="51.806004804624131" lon="4.4114354106947777">
    <name>518.4</name>
  </wpt>
  <wpt lat="51.806887362333171" lon="4.4117149309952639">
    <name>518.5</name>
  </wpt>
  <wpt lat="51.807769920042205" lon="4.4119944567686451">
    <name>518.6</name>
  </wpt>
</gpx>