<?xml version="1.0" encoding="utf-8"?>
<gpx xmlns:xsi="http://www.w3.org/2001/XMLSchema-instance" xsi:schemaLocation="http://www.topografix.com/GPX/1/1 http://www.topografix.com/GPX/1/1/gpx.xsd" version="1.1" creator="Roparun" xmlns="http://www.topografix.com/GPX/1/1">
  <wpt lat="49.759001" lon="3.223914">
    <name>KM 0.0</name>
  </wpt>
  <wpt lat="49.751147121053727" lon="3.2301681115970688">
    <name>1.0</name>
  </wpt>
  <wpt lat="49.745518816765674" lon="3.2345551773153369">
    <name>2.0</name>
  </wpt>
  <wpt lat="49.742568555354737" lon="3.2454593809840757">
    <name>3.0</name>
  </wpt>
  <wpt lat="49.741211285607662" lon="3.2532099830721943">
    <name>4.0</name>
  </wpt>
  <wpt lat="49.748158879159533" lon="3.261899856511878">
    <name>5.0</name>
  </wpt>
  <wpt lat="49.756030916290719" lon="3.2684426609480126">
    <name>6.0</name>
  </wpt>
  <wpt lat="49.764281524973178" lon="3.2733362944347966">
    <name>7.0</name>
  </wpt>
  <wpt lat="49.77185409993951" lon="3.2755708628783164">
    <name>8.0</name>
  </wpt>
  <wpt lat="49.777980225625626" lon="3.2823398795363543">
    <name>9.0</name>
  </wpt>
  <wpt lat="49.782726660247008" lon="3.2933233354425515">
    <name>10.0</name>
  </wpt>
  <wpt lat="49.7880797524854" lon="3.304513034626527">
    <name>11.0</name>
  </wpt>
  <wpt lat="49.793785619393347" lon="3.3147415006610776">
    <name>12.0</name>
  </wpt>
  <wpt lat="49.800510395629296" lon="3.3236086871525936">
    <name>13.0</name>
  </wpt>
  <wpt lat="49.807130422695209" lon="3.3325594222205304">
    <name>14.0</name>
  </wpt>
  <wpt lat="49.810593035333973" lon="3.3398685551602556">
    <name>15.0</name>
  </wpt>
  <wpt lat="49.818908084397073" lon="3.3351741389670315">
    <name>16.0</name>
  </wpt>
  <wpt lat="49.825044844188504" lon="3.330637679715879">
    <name>17.0</name>
  </wpt>
  <wpt lat="49.826090430665438" lon="3.3442122353631425">
    <name>18.0</name>
  </wpt>
  <wpt lat="49.829685409756983" lon="3.3558209088489">
    <name>19.0</name>
  </wpt>
  <wpt lat="49.837096879461463" lon="3.3597896757038548">
    <name>20.0</name>
  </wpt>
  <wpt lat="49.845690139403182" lon="3.3625686947942275">
    <name>21.0</name>
  </wpt>
  <wpt lat="49.849261604057538" lon="3.3673651255130155">
    <name>22.0</name>
  </wpt>
  <wpt lat="49.854624504697306" lon="3.3677070983681552">
    <name>23.0</name>
  </wpt>
  <wpt lat="49.863295769077673" lon="3.3669257245642208">
    <name>24.0</name>
  </wpt>
  <wpt lat="49.871927312256226" lon="3.3700959681296379">
    <name>25.0</name>
  </wpt>
  <wpt lat="49.880278415310514" lon="3.3732284100560244">
    <name>26.0</name>
  </wpt>
  <wpt lat="49.88919164080918" lon="3.3715664282306741">
    <name>27.0</name>
  </wpt>
  <wpt lat="49.8974025367338" lon="3.3671914777238485">
    <name>28.0</name>
  </wpt>
  <wpt lat="49.905751749974328" lon="3.36912161753528">
    <name>29.0</name>
  </wpt>
  <wpt lat="49.912849361275448" lon="3.3681153283164424">
    <name>30.0</name>
  </wpt>
  <wpt lat="49.921174060404617" lon="3.3716576485839589">
    <name>31.0</name>
  </wpt>
  <wpt lat="49.929182454973969" lon="3.3679178613133693">
    <name>32.0</name>
  </wpt>
  <wpt lat="49.937213593500836" lon="3.3629149460513239">
    <name>33.0</name>
  </wpt>
  <wpt lat="49.945851136535481" lon="3.359946413958947">
    <name>34.0</name>
  </wpt>
  <wpt lat="49.954449612309816" lon="3.3565495716168829">
    <name>35.0</name>
  </wpt>
  <wpt lat="49.963277643811715" lon="3.3549241815598774">
    <name>36.0</name>
  </wpt>
  <wpt lat="49.967879868729874" lon="3.3653871405253004">
    <name>37.0</name>
  </wpt>
  <wpt lat="49.9733376100504" lon="3.3764049560362888">
    <name>38.0</name>
  </wpt>
  <wpt lat="49.97885390901029" lon="3.3873679357822271">
    <name>39.0</name>
  </wpt>
  <wpt lat="49.98097613199203" lon="3.4004760078934155">
    <name>40.0</name>
  </wpt>
  <wpt lat="49.985258750775643" lon="3.4127163979945556">
    <name>41.0</name>
  </wpt>
  <wpt lat="49.987845790733594" lon="3.4260413240487884">
    <name>42.0</name>
  </wpt>
  <wpt lat="49.987898460680221" lon="3.4399802115836389">
    <name>43.0</name>
  </wpt>
  <wpt lat="49.989260702674194" lon="3.4514227260648735">
    <name>44.0</name>
  </wpt>
  <wpt lat="49.997044514065337" lon="3.4575577719891917">
    <name>45.0</name>
  </wpt>
  <wpt lat="50.004032195560768" lon="3.46524636327239">
    <name>46.0</name>
  </wpt>
  <wpt lat="50.012573207082909" lon="3.4695616476419557">
    <name>47.0</name>
  </wpt>
  <wpt lat="50.0215112443961" lon="3.4695644270371937">
    <name>48.0</name>
  </wpt>
  <wpt lat="50.027997518454747" lon="3.4613314694582007">
    <name>49.0</name>
  </wpt>
  <wpt lat="50.036651502438211" lon="3.4645760436165149">
    <name>50.0</name>
  </wpt>
  <wpt lat="50.04302528676579" lon="3.4569259173623665">
    <name>51.0</name>
  </wpt>
  <wpt lat="50.051016537275579" lon="3.4513293028451675">
    <name>52.0</name>
  </wpt>
  <wpt lat="50.059131871896845" lon="3.4456742457148795">
    <name>53.0</name>
  </wpt>
  <wpt lat="50.066129114070755" lon="3.4415605777327967">
    <name>54.0</name>
  </wpt>
  <wpt lat="50.074655332050924" lon="3.4454597996100955">
    <name>55.0</name>
  </wpt>
  <wpt lat="50.08258372070366" lon="3.4448892740940531">
    <name>56.0</name>
  </wpt>
  <wpt lat="50.08995966246011" lon="3.4480103902894355">
    <name>57.0</name>
  </wpt>
  <wpt lat="50.095822055904847" lon="3.457028962598836">
    <name>58.0</name>
  </wpt>
  <wpt lat="50.100191891231425" lon="3.4670863682564956">
    <name>59.0</name>
  </wpt>
  <wpt lat="50.108373485803035" lon="3.4709622991897664">
    <name>60.0</name>
  </wpt>
  <wpt lat="50.116535702884669" lon="3.4681954536990016">
    <name>61.0</name>
  </wpt>
  <wpt lat="50.124470472837139" lon="3.463310294599053">
    <name>62.0</name>
  </wpt>
  <wpt lat="50.133293155426465" lon="3.4654314714750574">
    <name>63.0</name>
  </wpt>
  <wpt lat="50.142206268790545" lon="3.4641859484373572">
    <name>64.0</name>
  </wpt>
  <wpt lat="50.150753967736215" lon="3.4628766251578811">
    <name>65.0</name>
  </wpt>
  <wpt lat="50.156281508790862" lon="3.4736573449994177">
    <name>66.0</name>
  </wpt>
  <wpt lat="50.161532638820759" lon="3.4849155945684207">
    <name>67.0</name>
  </wpt>
  <wpt lat="50.168870615356525" lon="3.4878370000000087">
    <name>68.0</name>
  </wpt>
  <wpt lat="50.1773303618306" lon="3.4918756193876774">
    <name>69.0</name>
  </wpt>
  <wpt lat="50.185139628624512" lon="3.4938640206088221">
    <name>70.0</name>
  </wpt>
  <wpt lat="50.192052635218651" lon="3.4989973200963811">
    <name>71.0</name>
  </wpt>
  <wpt lat="50.199117632890683" lon="3.5066772856022088">
    <name>72.0</name>
  </wpt>
  <wpt lat="50.205929568260963" lon="3.5157436271889684">
    <name>73.0</name>
  </wpt>
  <wpt lat="50.212661312362826" lon="3.5242299999999678">
    <name>74.0</name>
  </wpt>
  <wpt lat="50.219458828396114" lon="3.5331484378477414">
    <name>75.0</name>
  </wpt>
  <wpt lat="50.226421594082687" lon="3.5417203349177675">
    <name>76.0</name>
  </wpt>
  <wpt lat="50.232832300051" lon="3.5467021314553993">
    <name>77.0</name>
  </wpt>
  <wpt lat="50.238993726443539" lon="3.5519977142506676">
    <name>78.0</name>
  </wpt>
  <wpt lat="50.236576161773044" lon="3.565244526063597">
    <name>79.0</name>
  </wpt>
  <wpt lat="50.236712766790639" lon="3.5788702153181995">
    <name>80.0</name>
  </wpt>
  <wpt lat="50.236573000052282" lon="3.5920034028359646">
    <name>81.0</name>
  </wpt>
  <wpt lat="50.243896216489887" lon="3.5945726116405043">
    <name>82.0</name>
  </wpt>
  <wpt lat="50.252385175312455" lon="3.5901283275112603">
    <name>83.0</name>
  </wpt>
  <wpt lat="50.258739347518571" lon="3.5857532529070282">
    <name>84.0</name>
  </wpt>
  <wpt lat="50.265445033668477" lon="3.5786302688415588">
    <name>85.0</name>
  </wpt>
  <wpt lat="50.2723840406642" lon="3.5697750318352481">
    <name>86.0</name>
  </wpt>
  <wpt lat="50.279787366317962" lon="3.5632385950232708">
    <name>87.0</name>
  </wpt>
  <wpt lat="50.28444801383678" lon="3.5699559999999604">
    <name>88.0</name>
  </wpt>
  <wpt lat="50.291422336244487" lon="3.5758115897615852">
    <name>89.0</name>
  </wpt>
  <wpt lat="50.296122547901732" lon="3.5769560913084382">
    <name>90.0</name>
  </wpt>
  <wpt lat="50.302355919170736" lon="3.5866706691344">
    <name>91.0</name>
  </wpt>
  <wpt lat="50.308429435618194" lon="3.5803743832627259">
    <name>92.0</name>
  </wpt>
  <wpt lat="50.316048347534384" lon="3.5747515759723103">
    <name>93.0</name>
  </wpt>
  <wpt lat="50.324897963430665" lon="3.5746592714280854">
    <name>94.0</name>
  </wpt>
  <wpt lat="50.333721049720275" lon="3.5748864839765724">
    <name>95.0</name>
  </wpt>
  <wpt lat="50.335694704080929" lon="3.5837817673520673">
    <name>96.0</name>
  </wpt>
  <wpt lat="50.332272607207209" lon="3.5964166353671">
    <name>97.0</name>
  </wpt>
  <wpt lat="50.32844478040353" lon="3.6087162143661704">
    <name>98.0</name>
  </wpt>
  <wpt lat="50.331744273244055" lon="3.6211399339419734">
    <name>99.0</name>
  </wpt>
  <wpt lat="50.337081457205542" lon="3.6324317233253054">
    <name>100.0</name>
  </wpt>
  <wpt lat="50.340686000258415" lon="3.6438862644356158">
    <name>101.0</name>
  </wpt>
  <wpt lat="50.346067304883732" lon="3.6387878868416341">
    <name>102.0</name>
  </wpt>
  <wpt lat="50.354795468195093" lon="3.640215321259979">
    <name>103.0</name>
  </wpt>
  <wpt lat="50.362572292139077" lon="3.6467079420274322">
    <name>104.0</name>
  </wpt>
  <wpt lat="50.37091253827429" lon="3.6507728676251157">
    <name>105.0</name>
  </wpt>
  <wpt lat="50.378909320604713" lon="3.6569455367027586">
    <name>106.0</name>
  </wpt>
  <wpt lat="50.387523820527036" lon="3.6607964806381657">
    <name>107.0</name>
  </wpt>
  <wpt lat="50.3961442156838" lon="3.663968587772807">
    <name>108.0</name>
  </wpt>
  <wpt lat="50.4029093415607" lon="3.6703131789418908">
    <name>109.0</name>
  </wpt>
  <wpt lat="50.405935706909446" lon="3.6828143610487891">
    <name>110.0</name>
  </wpt>
  <wpt lat="50.41256721748065" lon="3.6849601506620555">
    <name>111.0</name>
  </wpt>
  <wpt lat="50.420940113956675" lon="3.6820857294790454">
    <name>112.0</name>
  </wpt>
  <wpt lat="50.429064004699072" lon="3.6810639050210128">
    <name>113.0</name>
  </wpt>
  <wpt lat="50.435218803180042" lon="3.6867616479805791">
    <name>114.0</name>
  </wpt>
  <wpt lat="50.441577712988675" lon="3.6947312208404446">
    <name>115.0</name>
  </wpt>
  <wpt lat="50.450300216833632" lon="3.698156005886021">
    <name>116.0</name>
  </wpt>
  <wpt lat="50.458209601824265" lon="3.7043507757999041">
    <name>117.0</name>
  </wpt>
  <wpt lat="50.46565336671172" lon="3.7090874231492403">
    <name>118.0</name>
  </wpt>
  <wpt lat="50.472781064046366" lon="3.714002389708857">
    <name>119.0</name>
  </wpt>
  <wpt lat="50.479917118649659" lon="3.7099591133269687">
    <name>120.0</name>
  </wpt>
  <wpt lat="50.485198835171907" lon="3.701147727386398">
    <name>121.0</name>
  </wpt>
  <wpt lat="50.493111048296981" lon="3.7064219952470534">
    <name>122.0</name>
  </wpt>
  <wpt lat="50.49953817308112" lon="3.7144675245017633">
    <name>123.0</name>
  </wpt>
  <wpt lat="50.508246924115831" lon="3.7157066038041755">
    <name>124.0</name>
  </wpt>
  <wpt lat="50.514351721723564" lon="3.7239751482730221">
    <name>125.0</name>
  </wpt>
  <wpt lat="50.523199077427208" lon="3.7264766565865144">
    <name>126.0</name>
  </wpt>
  <wpt lat="50.5320167170779" lon="3.729257442946345">
    <name>127.0</name>
  </wpt>
  <wpt lat="50.540788132138211" lon="3.7323770111806231">
    <name>128.0</name>
  </wpt>
  <wpt lat="50.548936461513065" lon="3.7365214168610335">
    <name>129.0</name>
  </wpt>
  <wpt lat="50.547903858502117" lon="3.7494547257828841">
    <name>130.0</name>
  </wpt>
  <wpt lat="50.548180772464676" lon="3.7620628345744249">
    <name>131.0</name>
  </wpt>
  <wpt lat="50.555595292250914" lon="3.7695903357824823">
    <name>132.0</name>
  </wpt>
  <wpt lat="50.562872932842545" lon="3.7775326474003084">
    <name>133.0</name>
  </wpt>
  <wpt lat="50.56949893150793" lon="3.78690051788893">
    <name>134.0</name>
  </wpt>
  <wpt lat="50.576059761460186" lon="3.7964725364341456">
    <name>135.0</name>
  </wpt>
  <wpt lat="50.583829875669643" lon="3.8034414337517433">
    <name>136.0</name>
  </wpt>
  <wpt lat="50.587736590989913" lon="3.8138976413822419">
    <name>137.0</name>
  </wpt>
  <wpt lat="50.592808656747579" lon="3.8255944022702955">
    <name>138.0</name>
  </wpt>
  <wpt lat="50.599445500834527" lon="3.8339052028251035">
    <name>139.0</name>
  </wpt>
  <wpt lat="50.60778881073815" lon="3.8391573032075859">
    <name>140.0</name>
  </wpt>
  <wpt lat="50.614046413522445" lon="3.8455966563558595">
    <name>141.0</name>
  </wpt>
  <wpt lat="50.620366485909109" lon="3.8548672361818306">
    <name>142.0</name>
  </wpt>
  <wpt lat="50.62847220504694" lon="3.860705026357667">
    <name>143.0</name>
  </wpt>
  <wpt lat="50.637213445664628" lon="3.8619420399730675">
    <name>144.0</name>
  </wpt>
  <wpt lat="50.645084850148194" lon="3.8686480993469523">
    <name>145.0</name>
  </wpt>
  <wpt lat="50.651839507324731" lon="3.8737759470019677">
    <name>146.0</name>
  </wpt>
  <wpt lat="50.657375894205096" lon="3.8781110075166421">
    <name>147.0</name>
  </wpt>
  <wpt lat="50.662923286288581" lon="3.8880861972946681">
    <name>148.0</name>
  </wpt>
  <wpt lat="50.668206526184719" lon="3.8967184579198375">
    <name>149.0</name>
  </wpt>
  <wpt lat="50.671447451276542" lon="3.9096979528635565">
    <name>150.0</name>
  </wpt>
  <wpt lat="50.676564814591849" lon="3.9211192574663927">
    <name>151.0</name>
  </wpt>
  <wpt lat="50.680379999278145" lon="3.9314972148577159">
    <name>152.0</name>
  </wpt>
  <wpt lat="50.688476722401326" lon="3.9266453957934671">
    <name>153.0</name>
  </wpt>
  <wpt lat="50.697039346429065" lon="3.928777346161326">
    <name>154.0</name>
  </wpt>
  <wpt lat="50.705785890818554" lon="3.9311782051102933">
    <name>155.0</name>
  </wpt>
  <wpt lat="50.713712458092054" lon="3.9340628138150304">
    <name>156.0</name>
  </wpt>
  <wpt lat="50.719975030420485" lon="3.9378136834897388">
    <name>157.0</name>
  </wpt>
  <wpt lat="50.728119144068557" lon="3.9330489374780608">
    <name>158.0</name>
  </wpt>
  <wpt lat="50.736589472369516" lon="3.9287750808805142">
    <name>159.0</name>
  </wpt>
  <wpt lat="50.741437586839673" lon="3.9260323491722793">
    <name>160.0</name>
  </wpt>
  <wpt lat="50.748524244783034" lon="3.9205015772382907">
    <name>161.0</name>
  </wpt>
  <wpt lat="50.749892437343959" lon="3.91054625963838">
    <name>162.0</name>
  </wpt>
  <wpt lat="50.751767724109861" lon="3.8987078204746775">
    <name>163.0</name>
  </wpt>
  <wpt lat="50.758853300968248" lon="3.8915844578606076">
    <name>164.0</name>
  </wpt>
  <wpt lat="50.765874248194194" lon="3.8881338701546064">
    <name>165.0</name>
  </wpt>
  <wpt lat="50.771643645268867" lon="3.884611712947541">
    <name>166.0</name>
  </wpt>
  <wpt lat="50.773323974615629" lon="3.8909664287794974">
    <name>167.0</name>
  </wpt>
  <wpt lat="50.77752825146375" lon="3.9028069549636424">
    <name>168.0</name>
  </wpt>
  <wpt lat="50.783437415650212" lon="3.9129370061795341">
    <name>169.0</name>
  </wpt>
  <wpt lat="50.789518637202939" lon="3.9231364874685464">
    <name>170.0</name>
  </wpt>
  <wpt lat="50.791750330559687" lon="3.936030576348045">
    <name>171.0</name>
  </wpt>
  <wpt lat="50.795036578826448" lon="3.9491969175765758">
    <name>172.0</name>
  </wpt>
  <wpt lat="50.79703678581977" lon="3.9626948163751821">
    <name>173.0</name>
  </wpt>
  <wpt lat="50.8014418411098" lon="3.9700414867462279">
    <name>174.0</name>
  </wpt>
  <wpt lat="50.803008492537074" lon="3.9816827148818676">
    <name>175.0</name>
  </wpt>
  <wpt lat="50.809381611024619" lon="3.9896640522596183">
    <name>176.0</name>
  </wpt>
  <wpt lat="50.81668025121094" lon="3.9962049680867593">
    <name>177.0</name>
  </wpt>
  <wpt lat="50.822364014104828" lon="4.0063513325766635">
    <name>178.0</name>
  </wpt>
  <wpt lat="50.827926680637638" lon="4.01284139898732">
    <name>179.0</name>
  </wpt>
  <wpt lat="50.831989018657374" lon="4.02212177814491">
    <name>180.0</name>
  </wpt>
  <wpt lat="50.8383101923242" lon="4.0241564871889191">
    <name>181.0</name>
  </wpt>
  <wpt lat="50.846736467920053" lon="4.0210820000000078">
    <name>182.0</name>
  </wpt>
  <wpt lat="50.855692280770789" lon="4.0214919670615146">
    <name>183.0</name>
  </wpt>
  <wpt lat="50.864573886681605" lon="4.0199004007448682">
    <name>184.0</name>
  </wpt>
  <wpt lat="50.873008053167624" lon="4.0183900652910873">
    <name>185.0</name>
  </wpt>
  <wpt lat="50.880850281451288" lon="4.0219661074635047">
    <name>186.0</name>
  </wpt>
  <wpt lat="50.888834989011585" lon="4.0219132709114662">
    <name>187.0</name>
  </wpt>
  <wpt lat="50.896651025392522" lon="4.0259196179751333">
    <name>188.0</name>
  </wpt>
  <wpt lat="50.905062650821662" lon="4.0263259806739118">
    <name>189.0</name>
  </wpt>
  <wpt lat="50.913137775408636" lon="4.031423371325797">
    <name>190.0</name>
  </wpt>
  <wpt lat="50.915790145447488" lon="4.0421407091391863">
    <name>191.0</name>
  </wpt>
  <wpt lat="50.9185915034587" lon="4.0531921016618284">
    <name>192.0</name>
  </wpt>
  <wpt lat="50.926305006720611" lon="4.0514844197234687">
    <name>193.0</name>
  </wpt>
  <wpt lat="50.934439134075717" lon="4.0466445388755936">
    <name>194.0</name>
  </wpt>
  <wpt lat="50.941617760251312" lon="4.0436304967628516">
    <name>195.0</name>
  </wpt>
  <wpt lat="50.942829420060242" lon="4.05621687451692">
    <name>196.0</name>
  </wpt>
  <wpt lat="50.9439919616758" lon="4.0622137004929195">
    <name>197.0</name>
  </wpt>
  <wpt lat="50.945775208892137" lon="4.0760149553193585">
    <name>198.0</name>
  </wpt>
  <wpt lat="50.9505591282378" lon="4.0864553363411158">
    <name>199.0</name>
  </wpt>
  <wpt lat="50.950302524474125" lon="4.0968244311766648">
    <name>200.0</name>
  </wpt>
  <wpt lat="50.950155943778739" lon="4.1083915297640505">
    <name>201.0</name>
  </wpt>
  <wpt lat="50.949477220933858" lon="4.1209725008975919">
    <name>202.0</name>
  </wpt>
  <wpt lat="50.951699501528417" lon="4.1344248651685653">
    <name>203.0</name>
  </wpt>
  <wpt lat="50.95663429586434" lon="4.1440715312130756">
    <name>204.0</name>
  </wpt>
  <wpt lat="50.961747669194374" lon="4.15504586438985">
    <name>205.0</name>
  </wpt>
  <wpt lat="50.967179870707554" lon="4.1644958695326419">
    <name>206.0</name>
  </wpt>
  <wpt lat="50.973153444448904" lon="4.1701663222025962">
    <name>207.0</name>
  </wpt>
  <wpt lat="50.980915491581804" lon="4.1701006546513648">
    <name>208.0</name>
  </wpt>
  <wpt lat="50.988712746721426" lon="4.1682292698025245">
    <name>209.0</name>
  </wpt>
  <wpt lat="50.995291394170344" lon="4.1754219597226863">
    <name>210.0</name>
  </wpt>
  <wpt lat="51.001321471851682" lon="4.1722596163255412">
    <name>211.0</name>
  </wpt>
  <wpt lat="51.005161371412527" lon="4.162223698377451">
    <name>212.0</name>
  </wpt>
  <wpt lat="51.00799694212261" lon="4.1503110289436886">
    <name>213.0</name>
  </wpt>
  <wpt lat="51.01518763648204" lon="4.145422923337172">
    <name>214.0</name>
  </wpt>
  <wpt lat="51.019521324499706" lon="4.1330774496744809">
    <name>215.0</name>
  </wpt>
  <wpt lat="51.020819301134281" lon="4.12068830187181">
    <name>216.0</name>
  </wpt>
  <wpt lat="51.023091793801953" lon="4.1073996510390041">
    <name>217.0</name>
  </wpt>
  <wpt lat="51.027430139905725" lon="4.0999426149201721">
    <name>218.0</name>
  </wpt>
  <wpt lat="51.030872021872263" lon="4.0984370082259343">
    <name>219.0</name>
  </wpt>
  <wpt lat="51.034094473812594" lon="4.1075391055171284">
    <name>220.0</name>
  </wpt>
  <wpt lat="51.041412502774961" lon="4.101494994615023">
    <name>221.0</name>
  </wpt>
  <wpt lat="51.046908348610188" lon="4.0905759533560078">
    <name>222.0</name>
  </wpt>
  <wpt lat="51.051210447713096" lon="4.07892797181905">
    <name>223.0</name>
  </wpt>
  <wpt lat="51.054034125703915" lon="4.065393861565525">
    <name>224.0</name>
  </wpt>
  <wpt lat="51.060014377060625" lon="4.0557636699306814">
    <name>225.0</name>
  </wpt>
  <wpt lat="51.067712660902757" lon="4.0523013150291236">
    <name>226.0</name>
  </wpt>
  <wpt lat="51.0682970891092" lon="4.041633778835882">
    <name>227.0</name>
  </wpt>
  <wpt lat="51.073511025544356" lon="4.03324331850342">
    <name>228.0</name>
  </wpt>
  <wpt lat="51.080246264624463" lon="4.0356831833679916">
    <name>229.0</name>
  </wpt>
  <wpt lat="51.079103722415567" lon="4.0428268059874473">
    <name>230.0</name>
  </wpt>
  <wpt lat="51.085054681845122" lon="4.0530885785681363">
    <name>231.0</name>
  </wpt>
  <wpt lat="51.090014589168447" lon="4.0642587404471184">
    <name>232.0</name>
  </wpt>
  <wpt lat="51.094815491356435" lon="4.0739851499550186">
    <name>233.0</name>
  </wpt>
  <wpt lat="51.095445594299591" lon="4.0880903753195277">
    <name>234.0</name>
  </wpt>
  <wpt lat="51.092849051587052" lon="4.0988135554432281">
    <name>235.0</name>
  </wpt>
  <wpt lat="51.092932232967968" lon="4.1102853891515831">
    <name>236.0</name>
  </wpt>
  <wpt lat="51.097564952814011" lon="4.1201525085263579">
    <name>237.0</name>
  </wpt>
  <wpt lat="51.100464410183058" lon="4.133078067946526">
    <name>238.0</name>
  </wpt>
  <wpt lat="51.10382346537255" lon="4.1422438836892681">
    <name>239.0</name>
  </wpt>
  <wpt lat="51.112186507241518" lon="4.1425528634840187">
    <name>240.0</name>
  </wpt>
  <wpt lat="51.11380107591534" lon="4.1538829581453323">
    <name>241.0</name>
  </wpt>
  <wpt lat="51.114207197893229" lon="4.1677737884143351">
    <name>242.0</name>
  </wpt>
  <wpt lat="51.114690233488375" lon="4.1815832908326875">
    <name>243.0</name>
  </wpt>
  <wpt lat="51.119138642858466" lon="4.1937032783940067">
    <name>244.0</name>
  </wpt>
  <wpt lat="51.125572909050781" lon="4.2036054074330478">
    <name>245.0</name>
  </wpt>
  <wpt lat="51.124407555705993" lon="4.2170154409987868">
    <name>246.0</name>
  </wpt>
  <wpt lat="51.127605848375723" lon="4.2289118045453629">
    <name>247.0</name>
  </wpt>
  <wpt lat="51.128560588790748" lon="4.2414059559523745">
    <name>248.0</name>
  </wpt>
  <wpt lat="51.129844890527508" lon="4.2554623469703845">
    <name>249.0</name>
  </wpt>
  <wpt lat="51.130524294597855" lon="4.269463840069708">
    <name>250.0</name>
  </wpt>
  <wpt lat="51.134975128717528" lon="4.2817130437000763">
    <name>251.0</name>
  </wpt>
  <wpt lat="51.141335516589479" lon="4.2917841786030744">
    <name>252.0</name>
  </wpt>
  <wpt lat="51.14861652145057" lon="4.2989238357163178">
    <name>253.0</name>
  </wpt>
  <wpt lat="51.157215669008778" lon="4.3020374082690527">
    <name>254.0</name>
  </wpt>
  <wpt lat="51.165022818880004" lon="4.3088051129024842">
    <name>255.0</name>
  </wpt>
  <wpt lat="51.16943843303175" lon="4.3168438054547575">
    <name>256.0</name>
  </wpt>
  <wpt lat="51.175325455353367" lon="4.3233991164855157">
    <name>257.0</name>
  </wpt>
  <wpt lat="51.17932921418776" lon="4.3173987275889587">
    <name>258.0</name>
  </wpt>
  <wpt lat="51.186515940078586" lon="4.32499219997051">
    <name>259.0</name>
  </wpt>
  <wpt lat="51.194147051017033" lon="4.3247049694517035">
    <name>260.0</name>
  </wpt>
  <wpt lat="51.200219657223279" lon="4.3348747204697">
    <name>261.0</name>
  </wpt>
  <wpt lat="51.201585098520248" lon="4.3481190887725907">
    <name>262.0</name>
  </wpt>
  <wpt lat="51.205589530292755" lon="4.3605901287405846">
    <name>263.0</name>
  </wpt>
  <wpt lat="51.209836166483989" lon="4.3728948529872866">
    <name>264.0</name>
  </wpt>
  <wpt lat="51.215704517871131" lon="4.3836275177714512">
    <name>265.0</name>
  </wpt>
  <wpt lat="51.21956517323197" lon="4.392563691839408">
    <name>266.0</name>
  </wpt>
  <wpt lat="51.224498531454287" lon="4.3990515067095544">
    <name>267.0</name>
  </wpt>
  <wpt lat="51.228157513133119" lon="4.4096131811741168">
    <name>268.0</name>
  </wpt>
  <wpt lat="51.231780000363059" lon="4.4185471830466829">
    <name>269.0</name>
  </wpt>
  <wpt lat="51.239623483495748" lon="4.4205590000000274">
    <name>270.0</name>
  </wpt>
  <wpt lat="51.244815310502517" lon="4.4265000944810806">
    <name>271.0</name>
  </wpt>
  <wpt lat="51.249834770883361" lon="4.4332674071053981">
    <name>272.0</name>
  </wpt>
  <wpt lat="51.2550620000319" lon="4.441545733328133">
    <name>273.0</name>
  </wpt>
  <wpt lat="51.254233050508155" lon="4.4556544766225494">
    <name>274.0</name>
  </wpt>
  <wpt lat="51.259901680607427" lon="4.4642469999999506">
    <name>275.0</name>
  </wpt>
  <wpt lat="51.268513619521549" lon="4.464518968586713">
    <name>276.0</name>
  </wpt>
  <wpt lat="51.275785990044561" lon="4.47296485868706">
    <name>277.0</name>
  </wpt>
  <wpt lat="51.2830316993568" lon="4.4814805772292265">
    <name>278.0</name>
  </wpt>
  <wpt lat="51.289675842732983" lon="4.4907595337569708">
    <name>279.0</name>
  </wpt>
  <wpt lat="51.297092990115985" lon="4.4983619886678738">
    <name>280.0</name>
  </wpt>
  <wpt lat="51.305061191767564" lon="4.5050282471310918">
    <name>281.0</name>
  </wpt>
  <wpt lat="51.312573411517526" lon="4.5127609762488143">
    <name>282.0</name>
  </wpt>
  <wpt lat="51.320487295210327" lon="4.5188912244342285">
    <name>283.0</name>
  </wpt>
  <wpt lat="51.329039889513915" lon="4.522991020963131">
    <name>284.0</name>
  </wpt>
  <wpt lat="51.337543186105705" lon="4.5274940820462879">
    <name>285.0</name>
  </wpt>
  <wpt lat="51.344651385819574" lon="4.53619741842423">
    <name>286.0</name>
  </wpt>
  <wpt lat="51.35181355854138" lon="4.5448881890928936">
    <name>287.0</name>
  </wpt>
  <wpt lat="51.358970195709382" lon="4.5535562917079435">
    <name>288.0</name>
  </wpt>
  <wpt lat="51.366111158119871" lon="4.5623077336041575">
    <name>289.0</name>
  </wpt>
  <wpt lat="51.373249894171138" lon="4.5710686307529684">
    <name>290.0</name>
  </wpt>
  <wpt lat="51.380385500192254" lon="4.579836130635897">
    <name>291.0</name>
  </wpt>
  <wpt lat="51.387522944730627" lon="4.5886020054174139">
    <name>292.0</name>
  </wpt>
  <wpt lat="51.39465950714137" lon="4.5973629081651213">
    <name>293.0</name>
  </wpt>
  <wpt lat="51.401787307527293" lon="4.60615137085007">
    <name>294.0</name>
  </wpt>
  <wpt lat="51.408726435249605" lon="4.6140319298141987">
    <name>295.0</name>
  </wpt>
  <wpt lat="51.414704909528446" lon="4.6245880563848143">
    <name>296.0</name>
  </wpt>
  <wpt lat="51.420194630529352" lon="4.635808016391338">
    <name>297.0</name>
  </wpt>
  <wpt lat="51.427801976398506" lon="4.6418767526027">
    <name>298.0</name>
  </wpt>
  <wpt lat="51.4367387171575" lon="4.6424034291807681">
    <name>299.0</name>
  </wpt>
  <wpt lat="51.445551673147996" lon="4.6432983295670187">
    <name>300.0</name>
  </wpt>
  <wpt lat="51.453438980753759" lon="4.6418358949800682">
    <name>301.0</name>
  </wpt>
  <wpt lat="51.460586920711826" lon="4.6498549169138634">
    <name>302.0</name>
  </wpt>
  <wpt lat="51.468197879814426" lon="4.657008836760367">
    <name>303.0</name>
  </wpt>
  <wpt lat="51.471660658104895" lon="4.6665736076357875">
    <name>304.0</name>
  </wpt>
  <wpt lat="51.47356500014088" lon="4.6737430162491549">
    <name>305.0</name>
  </wpt>
  <wpt lat="51.479278022107344" lon="4.6717813826776817">
    <name>306.0</name>
  </wpt>
  <wpt lat="51.487312893465045" lon="4.678267449749776">
    <name>307.0</name>
  </wpt>
  <wpt lat="51.495655468001672" lon="4.68324465668329">
    <name>308.0</name>
  </wpt>
  <wpt lat="51.503703478372429" lon="4.6896899815069917">
    <name>309.0</name>
  </wpt>
  <wpt lat="51.51174623250661" lon="4.6961543524395761">
    <name>310.0</name>
  </wpt>
  <wpt lat="51.518263242079072" lon="4.7039974841223708">
    <name>311.0</name>
  </wpt>
  <wpt lat="51.513211054059113" lon="4.7143018143557818">
    <name>312.0</name>
  </wpt>
  <wpt lat="51.50565896066891" lon="4.7217223489193181">
    <name>313.0</name>
  </wpt>
  <wpt lat="51.504716199664614" lon="4.7330504001885449">
    <name>314.0</name>
  </wpt>
  <wpt lat="51.505410604808311" lon="4.7421466284037121">
    <name>315.0</name>
  </wpt>
  <wpt lat="51.504921697969031" lon="4.7556345150009074">
    <name>316.0</name>
  </wpt>
  <wpt lat="51.505722559291861" lon="4.7691664637555773">
    <name>317.0</name>
  </wpt>
  <wpt lat="51.505281450340362" lon="4.7821581771793289">
    <name>318.0</name>
  </wpt>
  <wpt lat="51.503816573933591" lon="4.7938195076430086">
    <name>319.0</name>
  </wpt>
  <wpt lat="51.501536139769122" lon="4.8058130422673475">
    <name>320.0</name>
  </wpt>
  <wpt lat="51.502364556267722" lon="4.8194429506086491">
    <name>321.0</name>
  </wpt>
  <wpt lat="51.499127397554147" lon="4.8325516437969789">
    <name>322.0</name>
  </wpt>
  <wpt lat="51.502857925535714" lon="4.8407463530233032">
    <name>323.0</name>
  </wpt>
  <wpt lat="51.510453487713832" lon="4.847277130819573">
    <name>324.0</name>
  </wpt>
  <wpt lat="51.507335261232512" lon="4.8573708634446042">
    <name>325.0</name>
  </wpt>
  <wpt lat="51.5095247603524" lon="4.8668240490983132">
    <name>326.0</name>
  </wpt>
  <wpt lat="51.516761602423834" lon="4.8745623596439183">
    <name>327.0</name>
  </wpt>
  <wpt lat="51.522814406316989" lon="4.8851517631908772">
    <name>328.0</name>
  </wpt>
  <wpt lat="51.528950227481936" lon="4.89571717494571">
    <name>329.0</name>
  </wpt>
  <wpt lat="51.535088945831824" lon="4.9062777145941627">
    <name>330.0</name>
  </wpt>
  <wpt lat="51.540596748770156" lon="4.9176362763999881">
    <name>331.0</name>
  </wpt>
  <wpt lat="51.542492459623496" lon="4.930528404374094">
    <name>332.0</name>
  </wpt>
  <wpt lat="51.544819824111052" lon="4.9416096711410304">
    <name>333.0</name>
  </wpt>
  <wpt lat="51.55162071734231" lon="4.9453624528105111">
    <name>334.0</name>
  </wpt>
  <wpt lat="51.554810952428959" lon="4.9571112414955971">
    <name>335.0</name>
  </wpt>
  <wpt lat="51.5598329855479" lon="4.9683084179793084">
    <name>336.0</name>
  </wpt>
  <wpt lat="51.56498695791047" lon="4.9752829828825043">
    <name>337.0</name>
  </wpt>
  <wpt lat="51.571687317476808" lon="4.9812627343523657">
    <name>338.0</name>
  </wpt>
  <wpt lat="51.58046107007705" lon="4.9818567102670253">
    <name>339.0</name>
  </wpt>
  <wpt lat="51.587880119721987" lon="4.9827382790183909">
    <name>340.0</name>
  </wpt>
  <wpt lat="51.595317927832383" lon="4.9888329986309738">
    <name>341.0</name>
  </wpt>
  <wpt lat="51.60143876987209" lon="4.9882501555779735">
    <name>342.0</name>
  </wpt>
  <wpt lat="51.608919249234326" lon="4.9870436765598383">
    <name>343.0</name>
  </wpt>
  <wpt lat="51.613602642521748" lon="4.9756333043917085">
    <name>344.0</name>
  </wpt>
  <wpt lat="51.618329112337626" lon="4.9634112813707709">
    <name>345.0</name>
  </wpt>
  <wpt lat="51.6180006314" lon="4.9522026092769806">
    <name>346.0</name>
  </wpt>
  <wpt lat="51.6236072819626" lon="4.9416829392889223">
    <name>347.0</name>
  </wpt>
  <wpt lat="51.628239942412087" lon="4.9402577543350255">
    <name>348.0</name>
  </wpt>
  <wpt lat="51.62477700005487" lon="4.9342454980423094">
    <name>349.0</name>
  </wpt>
  <wpt lat="51.621615451742009" lon="4.9360793674317121">
    <name>350.0</name>
  </wpt>
  <wpt lat="51.623444683456441" lon="4.9236769999999588">
    <name>351.0</name>
  </wpt>
  <wpt lat="51.624037763215064" lon="4.9167454547206244">
    <name>352.0</name>
  </wpt>
  <wpt lat="51.616447074520075" lon="4.9112309427276832">
    <name>353.0</name>
  </wpt>
  <wpt lat="51.608401993546245" lon="4.9175477814788691">
    <name>354.0</name>
  </wpt>
  <wpt lat="51.599555586599536" lon="4.9176642184930373">
    <name>355.0</name>
  </wpt>
  <wpt lat="51.590807025488424" lon="4.9181355821616846">
    <name>356.0</name>
  </wpt>
  <wpt lat="51.58444207163005" lon="4.9140589283778207">
    <name>357.0</name>
  </wpt>
  <wpt lat="51.579272864545274" lon="4.9075274769338613">
    <name>358.0</name>
  </wpt>
  <wpt lat="51.575494290672395" lon="4.8960610548572632">
    <name>359.0</name>
  </wpt>
  <wpt lat="51.573161811217652" lon="4.883482111793982">
    <name>360.0</name>
  </wpt>
  <wpt lat="51.571945404145417" lon="4.87122555094839">
    <name>361.0</name>
  </wpt>
  <wpt lat="51.567138741438761" lon="4.8673294299265688">
    <name>362.0</name>
  </wpt>
  <wpt lat="51.569588569291142" lon="4.85390103400739">
    <name>363.0</name>
  </wpt>
  <wpt lat="51.565569568954253" lon="4.84389301186963">
    <name>364.0</name>
  </wpt>
  <wpt lat="51.565043530426408" lon="4.8316929296466462">
    <name>365.0</name>
  </wpt>
  <wpt lat="51.56853274822187" lon="4.8221335728856483">
    <name>366.0</name>
  </wpt>
  <wpt lat="51.566142555510929" lon="4.8136242569291108">
    <name>367.0</name>
  </wpt>
  <wpt lat="51.565260848672288" lon="4.7994170287967082">
    <name>368.0</name>
  </wpt>
  <wpt lat="51.5674337695488" lon="4.7860743712552631">
    <name>369.0</name>
  </wpt>
  <wpt lat="51.572801793442352" lon="4.7808583871731365">
    <name>370.0</name>
  </wpt>
  <wpt lat="51.56594158773013" lon="4.774391057762478">
    <name>371.0</name>
  </wpt>
  <wpt lat="51.563546235105314" lon="4.7611212364168267">
    <name>372.0</name>
  </wpt>
  <wpt lat="51.564012969527816" lon="4.7556698345008677">
    <name>373.0</name>
  </wpt>
  <wpt lat="51.566030951117952" lon="4.7462015869433021">
    <name>374.0</name>
  </wpt>
  <wpt lat="51.5731207017766" lon="4.7433692874505669">
    <name>375.0</name>
  </wpt>
  <wpt lat="51.5777447685196" lon="4.7339464457039426">
    <name>376.0</name>
  </wpt>
  <wpt lat="51.577991094685153" lon="4.7196096552294469">
    <name>377.0</name>
  </wpt>
  <wpt lat="51.574553952793956" lon="4.7065635401724144">
    <name>378.0</name>
  </wpt>
  <wpt lat="51.573966000137965" lon="4.6922083497618239">
    <name>379.0</name>
  </wpt>
  <wpt lat="51.573215000009071" lon="4.6787754847002283">
    <name>380.0</name>
  </wpt>
  <wpt lat="51.569831744202773" lon="4.6658124300198418">
    <name>381.0</name>
  </wpt>
  <wpt lat="51.572033231150471" lon="4.6610056715338626">
    <name>382.0</name>
  </wpt>
  <wpt lat="51.5704623473067" lon="4.6472400483651359">
    <name>383.0</name>
  </wpt>
  <wpt lat="51.56983208066498" lon="4.6366314341021058">
    <name>384.0</name>
  </wpt>
  <wpt lat="51.563097820541962" lon="4.6420853611421542">
    <name>385.0</name>
  </wpt>
  <wpt lat="51.556926422458169" lon="4.6389578433638583">
    <name>386.0</name>
  </wpt>
  <wpt lat="51.55284700428772" lon="4.6331484181642635">
    <name>387.0</name>
  </wpt>
  <wpt lat="51.545569471951239" lon="4.6357644585724351">
    <name>388.0</name>
  </wpt>
  <wpt lat="51.540867007537095" lon="4.6234419610644535">
    <name>389.0</name>
  </wpt>
  <wpt lat="51.53926966574349" lon="4.6097201899443343">
    <name>390.0</name>
  </wpt>
  <wpt lat="51.537025552496836" lon="4.595969915747272">
    <name>391.0</name>
  </wpt>
  <wpt lat="51.544592032637418" lon="4.5922963610294838">
    <name>392.0</name>
  </wpt>
  <wpt lat="51.551523316631886" lon="4.5858248826693124">
    <name>393.0</name>
  </wpt>
  <wpt lat="51.5599513493" lon="4.5815893965967147">
    <name>394.0</name>
  </wpt>
  <wpt lat="51.565752340580751" lon="4.5888978918148711">
    <name>395.0</name>
  </wpt>
  <wpt lat="51.5745597664857" lon="4.5909660787791049">
    <name>396.0</name>
  </wpt>
  <wpt lat="51.5816871192622" lon="4.5845962784208467">
    <name>397.0</name>
  </wpt>
  <wpt lat="51.580110888458691" lon="4.5730546996799806">
    <name>398.0</name>
  </wpt>
  <wpt lat="51.576913687443728" lon="4.5625262431308462">
    <name>399.0</name>
  </wpt>
  <wpt lat="51.575200980668257" lon="4.5493203006671772">
    <name>400.0</name>
  </wpt>
  <wpt lat="51.575511000643623" lon="4.5388855368679266">
    <name>401.0</name>
  </wpt>
  <wpt lat="51.580295107970606" lon="4.5283338696890114">
    <name>402.0</name>
  </wpt>
  <wpt lat="51.587259991563585" lon="4.5319483180254858">
    <name>403.0</name>
  </wpt>
  <wpt lat="51.589605011884551" lon="4.5217450522887033">
    <name>404.0</name>
  </wpt>
  <wpt lat="51.589483403431593" lon="4.5077318053335285">
    <name>405.0</name>
  </wpt>
  <wpt lat="51.584693224420143" lon="4.4959344601170335">
    <name>406.0</name>
  </wpt>
  <wpt lat="51.584478736110142" lon="4.4825760426932559">
    <name>407.0</name>
  </wpt>
  <wpt lat="51.583557000001846" lon="4.4684022369962264">
    <name>408.0</name>
  </wpt>
  <wpt lat="51.58788752423073" lon="4.46049700752487">
    <name>409.0</name>
  </wpt>
  <wpt lat="51.582525562707374" lon="4.4546021093547026">
    <name>410.0</name>
  </wpt>
  <wpt lat="51.577497877141205" lon="4.4623732494170847">
    <name>411.0</name>
  </wpt>
  <wpt lat="51.569825103764749" lon="4.4693446736639011">
    <name>412.0</name>
  </wpt>
  <wpt lat="51.561599649987215" lon="4.4733946457734231">
    <name>413.0</name>
  </wpt>
  <wpt lat="51.555984000006333" lon="4.4737484424064418">
    <name>414.0</name>
  </wpt>
  <wpt lat="51.547245516560828" lon="4.4738085749730123">
    <name>415.0</name>
  </wpt>
  <wpt lat="51.539380706898257" lon="4.4764534800291811">
    <name>416.0</name>
  </wpt>
  <wpt lat="51.531407879798053" lon="4.4775933724575587">
    <name>417.0</name>
  </wpt>
  <wpt lat="51.524051089610225" lon="4.4829117003593222">
    <name>418.0</name>
  </wpt>
  <wpt lat="51.518867074139905" lon="4.4797457304898618">
    <name>419.0</name>
  </wpt>
  <wpt lat="51.519175561002719" lon="4.4729460050334922">
    <name>420.0</name>
  </wpt>
  <wpt lat="51.52462879595825" lon="4.4670856143484388">
    <name>421.0</name>
  </wpt>
  <wpt lat="51.530925477322732" lon="4.4614844509917564">
    <name>422.0</name>
  </wpt>
  <wpt lat="51.532075554841626" lon="4.451063286042328">
    <name>423.0</name>
  </wpt>
  <wpt lat="51.527428061651847" lon="4.4428732775842228">
    <name>424.0</name>
  </wpt>
  <wpt lat="51.521523258302096" lon="4.4391259459903987">
    <name>425.0</name>
  </wpt>
  <wpt lat="51.516716536022919" lon="4.4281989158489425">
    <name>426.0</name>
  </wpt>
  <wpt lat="51.509513770047427" lon="4.4214492617184646">
    <name>427.0</name>
  </wpt>
  <wpt lat="51.50358663955727" lon="4.4108432789175271">
    <name>428.0</name>
  </wpt>
  <wpt lat="51.499379472386693" lon="4.3990764422680275">
    <name>429.0</name>
  </wpt>
  <wpt lat="51.490570008689694" lon="4.3978790000000165">
    <name>430.0</name>
  </wpt>
  <wpt lat="51.48201338651576" lon="4.3978343324151545">
    <name>431.0</name>
  </wpt>
  <wpt lat="51.473071250300094" lon="4.3970163414957373">
    <name>432.0</name>
  </wpt>
  <wpt lat="51.464107642707553" lon="4.3958811565253288">
    <name>433.0</name>
  </wpt>
  <wpt lat="51.456904558170592" lon="4.3891461900740332">
    <name>434.0</name>
  </wpt>
  <wpt lat="51.450734551407919" lon="4.3814851241493908">
    <name>435.0</name>
  </wpt>
  <wpt lat="51.442244270062126" lon="4.3778538929194717">
    <name>436.0</name>
  </wpt>
  <wpt lat="51.434276034779018" lon="4.37550202452295">
    <name>437.0</name>
  </wpt>
  <wpt lat="51.428066214843071" lon="4.3701152791128122">
    <name>438.0</name>
  </wpt>
  <wpt lat="51.421569847490574" lon="4.3613286089947918">
    <name>439.0</name>
  </wpt>
  <wpt lat="51.413526858838679" lon="4.3550605200534038">
    <name>440.0</name>
  </wpt>
  <wpt lat="51.406506272232072" lon="4.3519271224631568">
    <name>441.0</name>
  </wpt>
  <wpt lat="51.398003675400915" lon="4.3555805780485235">
    <name>442.0</name>
  </wpt>
  <wpt lat="51.391657266399207" lon="4.3514498694873049">
    <name>443.0</name>
  </wpt>
  <wpt lat="51.391790054006279" lon="4.3376255304855631">
    <name>444.0</name>
  </wpt>
  <wpt lat="51.395787095115544" lon="4.3290849545336458">
    <name>445.0</name>
  </wpt>
  <wpt lat="51.401133059758052" lon="4.3382310713756036">
    <name>446.0</name>
  </wpt>
  <wpt lat="51.407284279280169" lon="4.3441799176222844">
    <name>447.0</name>
  </wpt>
  <wpt lat="51.413181239993634" lon="4.3419741041119755">
    <name>448.0</name>
  </wpt>
  <wpt lat="51.419681452692835" lon="4.335886999999981">
    <name>449.0</name>
  </wpt>
  <wpt lat="51.422937001213143" lon="4.3271143637621492">
    <name>450.0</name>
  </wpt>
  <wpt lat="51.428410886209655" lon="4.31941755917189">
    <name>451.0</name>
  </wpt>
  <wpt lat="51.437194893089078" lon="4.3180129999999917">
    <name>452.0</name>
  </wpt>
  <wpt lat="51.443412233828042" lon="4.3126471312051526">
    <name>453.0</name>
  </wpt>
  <wpt lat="51.451196087649144" lon="4.3128934279975244">
    <name>454.0</name>
  </wpt>
  <wpt lat="51.460124964858515" lon="4.3116335599352835">
    <name>455.0</name>
  </wpt>
  <wpt lat="51.4684951017909" lon="4.3065241173813806">
    <name>456.0</name>
  </wpt>
  <wpt lat="51.476852412534626" lon="4.30230680104773">
    <name>457.0</name>
  </wpt>
  <wpt lat="51.476498806511955" lon="4.2958947220667607">
    <name>458.0</name>
  </wpt>
  <wpt lat="51.475445938491731" lon="4.2841313673366743">
    <name>459.0</name>
  </wpt>
  <wpt lat="51.482421774617961" lon="4.2799672453732649">
    <name>460.0</name>
  </wpt>
  <wpt lat="51.489416303928252" lon="4.2856799117496376">
    <name>461.0</name>
  </wpt>
  <wpt lat="51.494807067525258" lon="4.2858716950637357">
    <name>462.0</name>
  </wpt>
  <wpt lat="51.501687817904674" lon="4.2796720434771789">
    <name>463.0</name>
  </wpt>
  <wpt lat="51.510640432282706" lon="4.2789428624952643">
    <name>464.0</name>
  </wpt>
  <wpt lat="51.519205110013054" lon="4.2757339069123557">
    <name>465.0</name>
  </wpt>
  <wpt lat="51.526215758949036" lon="4.2691465918529037">
    <name>466.0</name>
  </wpt>
  <wpt lat="51.5334236757937" lon="4.2718057609545532">
    <name>467.0</name>
  </wpt>
  <wpt lat="51.542109609792426" lon="4.26968576794278">
    <name>468.0</name>
  </wpt>
  <wpt lat="51.547717716143033" lon="4.27236153302884">
    <name>469.0</name>
  </wpt>
  <wpt lat="51.55430148271941" lon="4.2802924133867908">
    <name>470.0</name>
  </wpt>
  <wpt lat="51.561298743921604" lon="4.2875186902503843">
    <name>471.0</name>
  </wpt>
  <wpt lat="51.570018599040004" lon="4.2849719240385369">
    <name>472.0</name>
  </wpt>
  <wpt lat="51.573848137722649" lon="4.2871511083594571">
    <name>473.0</name>
  </wpt>
  <wpt lat="51.573935288825957" lon="4.3010579087246938">
    <name>474.0</name>
  </wpt>
  <wpt lat="51.572860131389078" lon="4.3139000688170643">
    <name>475.0</name>
  </wpt>
  <wpt lat="51.578329958941367" lon="4.3170626959887937">
    <name>476.0</name>
  </wpt>
  <wpt lat="51.585647322164888" lon="4.3160421393197037">
    <name>477.0</name>
  </wpt>
  <wpt lat="51.5882560000517" lon="4.3281116300897358">
    <name>478.0</name>
  </wpt>
  <wpt lat="51.593892767199833" lon="4.3354785736257258">
    <name>479.0</name>
  </wpt>
  <wpt lat="51.6016198868396" lon="4.3427678253164954">
    <name>480.0</name>
  </wpt>
  <wpt lat="51.609379031685513" lon="4.3500418815920687">
    <name>481.0</name>
  </wpt>
  <wpt lat="51.617558535628085" lon="4.356017979884558">
    <name>482.0</name>
  </wpt>
  <wpt lat="51.625844623264129" lon="4.3616260861459093">
    <name>483.0</name>
  </wpt>
  <wpt lat="51.633660246832477" lon="4.3669051821146265">
    <name>484.0</name>
  </wpt>
  <wpt lat="51.639423260953507" lon="4.3767176728057366">
    <name>485.0</name>
  </wpt>
  <wpt lat="51.64366000008534" lon="4.3888555159833285">
    <name>486.0</name>
  </wpt>
  <wpt lat="51.649163290635528" lon="4.3991561478129988">
    <name>487.0</name>
  </wpt>
  <wpt lat="51.653237822516161" lon="4.4102856798281058">
    <name>488.0</name>
  </wpt>
  <wpt lat="51.654601777869722" lon="4.4169351548954019">
    <name>489.0</name>
  </wpt>
  <wpt lat="51.65784241296339" lon="4.4263854112293446">
    <name>490.0</name>
  </wpt>
  <wpt lat="51.665419541780807" lon="4.434048257601221">
    <name>491.0</name>
  </wpt>
  <wpt lat="51.673063517813951" lon="4.43197952969191">
    <name>492.0</name>
  </wpt>
  <wpt lat="51.678486607318973" lon="4.4359596444027236">
    <name>493.0</name>
  </wpt>
  <wpt lat="51.686154725712015" lon="4.4431452185371052">
    <name>494.0</name>
  </wpt>
  <wpt lat="51.691718137023578" lon="4.438555052769158">
    <name>495.0</name>
  </wpt>
  <wpt lat="51.695860436940606" lon="4.4386185424318558">
    <name>496.0</name>
  </wpt>
  <wpt lat="51.696374082793476" lon="4.424750889320781">
    <name>497.0</name>
  </wpt>
  <wpt lat="51.689958076191644" lon="4.4191147589809416">
    <name>498.0</name>
  </wpt>
  <wpt lat="51.68320708235138" lon="4.4162295261885793">
    <name>499.0</name>
  </wpt>
  <wpt lat="51.689836679039928" lon="4.4064342391379947">
    <name>500.0</name>
  </wpt>
  <wpt lat="51.697147030476792" lon="4.3981270911953878">
    <name>501.0</name>
  </wpt>
  <wpt lat="51.70583687233308" lon="4.3960693368807231">
    <name>502.0</name>
  </wpt>
  <wpt lat="51.714417587365418" lon="4.4000742356622764">
    <name>503.0</name>
  </wpt>
  <wpt lat="51.722778125333228" lon="4.4054116754608375">
    <name>504.0</name>
  </wpt>
  <wpt lat="51.731150756816874" lon="4.4106617464224689">
    <name>505.0</name>
  </wpt>
  <wpt lat="51.727735595292309" lon="4.4205297300906379">
    <name>506.0</name>
  </wpt>
  <wpt lat="51.7264366983638" lon="4.4339748392640761">
    <name>507.0</name>
  </wpt>
  <wpt lat="51.733061623920428" lon="4.4385896170928705">
    <name>508.0</name>
  </wpt>
  <wpt lat="51.741923806693016" lon="4.4399672369393395">
    <name>509.0</name>
  </wpt>
  <wpt lat="51.750388345054759" lon="4.4433469999999557">
    <name>510.0</name>
  </wpt>
  <wpt lat="51.75919391539275" lon="4.4444683515559058">
    <name>511.0</name>
  </wpt>
  <wpt lat="51.768114721128534" lon="4.4443349999999944">
    <name>512.0</name>
  </wpt>
  <wpt lat="51.768915792248642" lon="4.4307283696777615">
    <name>513.0</name>
  </wpt>
  <wpt lat="51.773240618734228" lon="4.41802595422557">
    <name>514.0</name>
  </wpt>
  <wpt lat="51.7771299097386" lon="4.4052550943321691">
    <name>515.0</name>
  </wpt>
  <wpt lat="51.784624976056826" lon="4.4046094059868759">
    <name>516.0</name>
  </wpt>
  <wpt lat="51.793442911259561" lon="4.407432862292346">
    <name>517.0</name>
  </wpt>
  <wpt lat="51.802265507957308" lon="4.4102519570329548">
    <name>518.0</name>
  </wpt>
  <wpt lat="51.811085257990655" lon="4.4130499792801663">
    <name>519.0</name>
  </wpt>
  <wpt lat="51.819182421828032" lon="4.4155294359355119">
    <name>520.0</name>
  </wpt>
  <wpt lat="51.82538472121135" lon="4.41161194512026">
    <name>521.0</name>
  </wpt>
  <wpt lat="51.824726752905129" lon="4.4219885057498756">
    <name>522.0</name>
  </wpt>
  <wpt lat="51.821595196913485" lon="4.4355130433171928">
    <name>523.0</name>
  </wpt>
  <wpt lat="51.824169888821423" lon="4.4435833870556669">
    <name>524.0</name>
  </wpt>
  <wpt lat="51.822423963991895" lon="4.4578533502639139">
    <name>525.0</name>
  </wpt>
  <wpt lat="51.820928912085151" lon="4.4721852136647176">
    <name>526.0</name>
  </wpt>
  <wpt lat="51.820194232071259" lon="4.4845145737353356">
    <name>527.0</name>
  </wpt>
  <wpt lat="51.823900777480723" lon="4.4880699635233912">
    <name>528.0</name>
  </wpt>
  <wpt lat="51.821084752024667" lon="4.4982512754667265">
    <name>529.0</name>
  </wpt>
  <wpt lat="51.827188000029764" lon="4.5086025685625639">
    <name>530.0</name>
  </wpt>
  <wpt lat="51.835235066950013" lon="4.5147879570237093">
    <name>531.0</name>
  </wpt>
  <wpt lat="51.843810763479745" lon="4.5165308883315616">
    <name>532.0</name>
  </wpt>
  <wpt lat="51.842146038270769" lon="4.5306169536811955">
    <name>533.0</name>
  </wpt>
  <wpt lat="51.846452777010533" lon="4.5364309999999817">
    <name>534.0</name>
  </wpt>
  <wpt lat="51.855248409732575" lon="4.5363659999999539">
    <name>535.0</name>
  </wpt>
  <wpt lat="51.85898811682592" lon="4.5266265159720893">
    <name>536.0</name>
  </wpt>
  <wpt lat="51.85803911341894" lon="4.5124376335869671">
    <name>537.0</name>
  </wpt>
  <wpt lat="51.861808019240357" lon="4.5071363727786649">
    <name>538.0</name>
  </wpt>
  <wpt lat="51.868691685452134" lon="4.5020577751650839">
    <name>539.0</name>
  </wpt>
  <wpt lat="51.876378931344661" lon="4.5035321729995257">
    <name>540.0</name>
  </wpt>
  <wpt lat="51.882362706362031" lon="4.513846961431673">
    <name>541.0</name>
  </wpt>
  <wpt lat="51.886742922894278" lon="4.5223303504864658">
    <name>542.0</name>
  </wpt>
  <wpt lat="51.894896162465074" lon="4.5172168375512989">
    <name>543.0</name>
  </wpt>
  <wpt lat="51.901249094770876" lon="4.5104938586534464">
    <name>544.0</name>
  </wpt>
  <wpt lat="51.906254793700327" lon="4.4984058670430258">
    <name>545.0</name>
  </wpt>
  <wpt lat="51.909447929956038" lon="4.4862141747067161">
    <name>546.0</name>
  </wpt>
  <wpt lat="51.917286414792621" lon="4.4818752947052456">
    <name>547.0</name>
  </wpt>
</gpx>